[
  {
    "index": 0,
    "text": "@CariPert @minervisha @femiprofe @Tia_MaGui @PatitoDeforme @Solettttt Seria bueno q haya libertad absoluta. El disc‚Ä¶ https://t.co/3PkUrtCyKk",
    "placeName": "Ciudad Aut√≥noma de Buenos Aires, Argentina",
    "lang": "es"
  },
  {
    "index": 1,
    "text": "Depois de anos √© bom passar r√©veillon na praia. Tava h√° tempos sem viajar no ano novo, mas pular as sete ondas e pa‚Ä¶ https://t.co/qadS9TgCvH",
    "placeName": "Bel√©m, Brasil",
    "lang": "pt"
  },
  {
    "index": 2,
    "text": "Sushi dates &gt;&gt;&gt;&gt;&gt;",
    "placeName": "San Antonio, TX",
    "lang": "en"
  },
  {
    "index": 3,
    "text": "@Alhilal_FC @GoogleTrends ŸàŸÖŸÜ ÿ∫Ÿäÿ± Ÿáüíô",
    "placeName": "ÿßŸÑÿØŸÖÿßŸÖ, ÿßŸÑŸÖŸÖŸÑŸÉÿ© ÿßŸÑÿπÿ±ÿ®Ÿäÿ© ÿßŸÑÿ≥ÿπŸàÿØŸäÿ©",
    "lang": "ar"
  },
  {
    "index": 4,
    "text": "@Schtaunkhauser https://t.co/HaSvD3EvGt",
    "placeName": "Greater Vancouver, British Columbia",
    "lang": ""
  },
  {
    "index": 5,
    "text": "@BellshawGeorge I hope Verdasco looses,he annoyed all of usü§£ he lost plenty of times to Tomas.\nStan with Bautista p‚Ä¶ https://t.co/7MFFjzRRFT",
    "placeName": "Oxford, England",
    "lang": "en"
  },
  {
    "index": 6,
    "text": "Frederick Nietzsche is fuming",
    "placeName": "Hampstead, MD",
    "lang": "en"
  },
  {
    "index": 7,
    "text": "@leahbrewster2 @sararivaas6 ;)",
    "placeName": "Bradford, England",
    "lang": ""
  },
  {
    "index": 8,
    "text": "Where are the Ferentz haters now?",
    "placeName": "Iowa, USA",
    "lang": "en"
  },
  {
    "index": 9,
    "text": "@QuancyClayborne No such thing. I just watch the Bruins choke in the Winter Classic!",
    "placeName": "Stamford, CT",
    "lang": "en"
  },
  {
    "index": 10,
    "text": "Bat nya kaya hiningi uli password at email ko ü§≠",
    "placeName": "Quezon City, National Capital Region",
    "lang": "tl"
  },
  {
    "index": 11,
    "text": "@Its_Stationary @QuintRuden ...\"implied\" consent, right?  :)",
    "placeName": "Florida, USA",
    "lang": "en"
  },
  {
    "index": 12,
    "text": "Shut up and be happy troll.",
    "placeName": "Naperville, IL",
    "lang": "en"
  },
  {
    "index": 13,
    "text": "@tribelaw Global warming is just a Marxist conspiracy to de-industrialize the USA and destroy the American working‚Ä¶ https://t.co/Uc0oVm23W3",
    "placeName": "Brisbane, Queensland",
    "lang": "en"
  },
  {
    "index": 14,
    "text": "Here‚Äôs your ball game for #UCF.",
    "placeName": "Lake Mary, FL",
    "lang": "en"
  },
  {
    "index": 15,
    "text": "https://t.co/0tmvo0Y7mh",
    "placeName": "Playground at Discovery Green",
    "lang": ""
  },
  {
    "index": 16,
    "text": "@Kei5152 „Åî„Å∂„Åî„Å∂‰πùÂ∑û„Å†„Å®2ÈÄ±„Åè„Çâ„ÅÑÈÅÖ„Çå„Å¶„Çã„Çà„Å≠Ôºü",
    "placeName": "Á¶èÂ≤° Âåó‰πùÂ∑ûÂ∏Ç Â∞èÂÄâÂåóÂå∫",
    "lang": "ja"
  },
  {
    "index": 17,
    "text": "My reaction to slow internet doesn't bode well for my interactions during the apocalypse.",
    "placeName": "Des Plaines, IL",
    "lang": "en"
  },
  {
    "index": 18,
    "text": "ÿ®ÿπÿ∂ ÿßŸÑŸÖŸàÿßŸÇŸÅ ÿ™ÿπÿ∑ŸäŸÉ ÿßŸÑÿ•ÿ¨ÿßÿ®ÿßÿ™ ÿ®ŸÉŸÑ Ÿàÿ∂Ÿàÿ≠",
    "placeName": "Osmangazi, Bursa",
    "lang": "ar"
  },
  {
    "index": 19,
    "text": "@ljharv98 @origonz97 Our* ??",
    "placeName": "Big Bear Lake, CA",
    "lang": ""
  },
  {
    "index": 20,
    "text": "12u",
    "placeName": "Florida, USA",
    "lang": ""
  },
  {
    "index": 21,
    "text": "https://t.co/LTwymaO7Gb",
    "placeName": "Jeddah, Kingdom of Saudi Arabia",
    "lang": ""
  },
  {
    "index": 22,
    "text": "All we need is love ‚ù§Ô∏è",
    "placeName": "Amiens, France",
    "lang": "en"
  },
  {
    "index": 23,
    "text": "@drjaidar @LUCCAESFORZA @doc_jou Ya est√°n las c√°maras listas... https://t.co/4C1fCpq8eK",
    "placeName": "Tlalnepantla de Baz, M√©xico",
    "lang": "es"
  },
  {
    "index": 24,
    "text": "I dowana leave swiss omg üò≠",
    "placeName": "Zurich, Switzerland",
    "lang": "en"
  },
  {
    "index": 25,
    "text": "Vay babam neymi≈ü 365 g√ºnl√ºk kitabƒ±n ilk sayfasƒ±ymƒ±≈ü yok karde≈üim bu kitap da aynƒ± serinin devamƒ± √ßƒ±ƒülƒ±k ve vah≈üet",
    "placeName": "Afyonkarahisar Merkez, Afyonkarahisar",
    "lang": "tr"
  },
  {
    "index": 26,
    "text": "@DrodaHoe He put himself in that predicament",
    "placeName": "Lancaster, TX",
    "lang": "en"
  },
  {
    "index": 27,
    "text": "I‚Äôve flown the approach to pdxairport countless times but it never ceases to amaze. #PNW @alaskaair #Dash8 #Q400‚Ä¶ https://t.co/CAt15qPPau",
    "placeName": "Portland, OR",
    "lang": "en"
  },
  {
    "index": 28,
    "text": "@realDonaldTrump sir. Let's design a I.d that would be universal enough to tell us who is who. Sir give them I.d",
    "placeName": "Norfolk, VA",
    "lang": "en"
  },
  {
    "index": 29,
    "text": "@branquells @CrissPaiva Vc √± me conhece para inferir no meu post com uma afirmativa em imperativo dizendo o que n√£o‚Ä¶ https://t.co/LrLD1XdkkL",
    "placeName": "S√£o Paulo, Brasil",
    "lang": "pt"
  },
  {
    "index": 30,
    "text": "We're listening to Coldplay in 2019.",
    "placeName": "Philadelphia, PA",
    "lang": "en"
  },
  {
    "index": 31,
    "text": "Of underage girls?",
    "placeName": "Sutton, London",
    "lang": "en"
  },
  {
    "index": 32,
    "text": "@KanzaPanhwar Thanks for letting me know about this thing.. Didn't know before üòë",
    "placeName": "Sindh, Pakistan",
    "lang": "en"
  },
  {
    "index": 33,
    "text": "@GavinGavinmufc @MvG180 Has too be done but mate eh",
    "placeName": "Belfast, Northern Ireland",
    "lang": "en"
  },
  {
    "index": 34,
    "text": "@SunneeSummer @EllieMaeCavvie May 2019 be filled wiv lots more #BWOC behaviour üíñüòäüòòüòò",
    "placeName": "Pattishall, England",
    "lang": "en"
  },
  {
    "index": 35,
    "text": "Though we‚Äôre not hung over, we‚Äôre heading to @augiesmokemeat for their ‚ÄúNew Year‚Äôs Day Hangover Cure‚Äù (@ AC Transit‚Ä¶ https://t.co/qF1SLjsEG9",
    "placeName": "Berkeley, CA",
    "lang": "en"
  },
  {
    "index": 36,
    "text": "–ü–æ—á–µ–º—É –Ω–∏–∫—Ç–æ –Ω–µ –≥–æ–≤–æ—Ä–∏—Ç, —á—Ç–æ –ù–∞–º–¥–∂—É–Ω –≤ —ç—Ç–æ–º –≤—ã–ø—É—Å–∫–µ —Ä–∞–Ω–∞ –±—ã–ª –ø—Ä–æ—Å—Ç–æ –≤–µ–ª–∏–∫–æ–ª–µ–ø–µ–Ω? –ù—É –ø–æ—á–µ–º—É –æ–Ω —Ç–∞–∫–æ–π –∫—Ä–∞—Å–∏–≤—ã–π?",
    "placeName": "Riga, Latvia",
    "lang": "ru"
  },
  {
    "index": 37,
    "text": "And the lead off the stick of Sean Kuraly. Another Kuraly leap! #NHLBruins #WinterClassic",
    "placeName": "Danvers, MA",
    "lang": "en"
  },
  {
    "index": 38,
    "text": "@LoredanaBaranga Not that much celebration - but I did join in the new year countdown on tv with my three nearest a‚Ä¶ https://t.co/hzLlkgFone",
    "placeName": "Southall, London",
    "lang": "en"
  },
  {
    "index": 39,
    "text": "Sorprendente es que  el pavo ese proclame \"provida, chido, relax\" y se la pasa criticando. Agh",
    "placeName": "Atlixco, Puebla",
    "lang": "es"
  },
  {
    "index": 40,
    "text": "@Honyie1 I concur with you. Shit is so frustrating.",
    "placeName": "Lagos, Nigeria",
    "lang": "en"
  },
  {
    "index": 41,
    "text": "@isabella_opazo Novidade",
    "placeName": "Guarapari, Brasil",
    "lang": "pt"
  },
  {
    "index": 42,
    "text": "honestly so blessed",
    "placeName": "Elmhurst, IL",
    "lang": "en"
  },
  {
    "index": 43,
    "text": "#Feednoly ŸäÿßŸÑŸÑŸá ŸÖÿßÿπŸÑŸäŸá",
    "placeName": "Sakarya, T√ºrkiye",
    "lang": "ar"
  },
  {
    "index": 44,
    "text": "Benihana - SNL https://t.co/17YUwU0ctq via @YouTube",
    "placeName": "Baltimore, MD",
    "lang": ""
  },
  {
    "index": 45,
    "text": "If you‚Äôre not feeding me, fucking me, or paying my bills- DONT take my phone out of my hand. Especially when I‚Äôm not bothering anybody.",
    "placeName": "Mexico, ME",
    "lang": "en"
  },
  {
    "index": 46,
    "text": "@AnaBekuta1 U≈æivamo üòò",
    "placeName": "Bor, Srbija",
    "lang": "sl"
  },
  {
    "index": 47,
    "text": "@NachoUgartee Me quedan 5 meses para cumplir los 19 y me acabo de enterar hoy, gracias",
    "placeName": "Novelda, Espa√±a",
    "lang": "es"
  },
  {
    "index": 48,
    "text": "My new years resolution is to love myself like Miss Piggy",
    "placeName": "Rome, Lazio",
    "lang": "en"
  },
  {
    "index": 49,
    "text": "@teeneely Kind of like elastic on dress pants! You looking good does not adress the real issue of being a fatty!",
    "placeName": "Forest Grove, OR",
    "lang": "en"
  },
  {
    "index": 50,
    "text": "Definitely mate",
    "placeName": "Diepkloof, South Africa",
    "lang": "en"
  },
  {
    "index": 51,
    "text": "https://t.co/cRYfQWw0q2",
    "placeName": "Valledupar, Colombia",
    "lang": ""
  },
  {
    "index": 52,
    "text": "Anakin was right, I hate sand too.",
    "placeName": "Florida, USA",
    "lang": "en"
  },
  {
    "index": 53,
    "text": "Por qu√© es importante la quiropraxia?\n\nLa nuestra esancestral y solucionamos problemas padecimientos y deformidades‚Ä¶ https://t.co/88WICz7Tsj",
    "placeName": "Morelia, Michoac√°n de Ocampo",
    "lang": "es"
  },
  {
    "index": 54,
    "text": "https://t.co/qm5qhnMvOs",
    "placeName": "Tallahassee, FL",
    "lang": ""
  },
  {
    "index": 55,
    "text": "Prayers",
    "placeName": "Colorado Springs, CO",
    "lang": "en"
  },
  {
    "index": 56,
    "text": "I‚Äôm done with champagne üôÖüèΩ‚Äç‚ôÄÔ∏è",
    "placeName": "Greenville, TX",
    "lang": "en"
  },
  {
    "index": 57,
    "text": "Guarantee you that Eagles run a ton of creative quick &amp; Screen game stuff Sunday @ Chicago",
    "placeName": "Anoka, MN",
    "lang": "en"
  },
  {
    "index": 58,
    "text": "Orospuluk meslek sen ayƒ±n elemanƒ±",
    "placeName": "Adana, T√ºrkiye",
    "lang": "tr"
  },
  {
    "index": 59,
    "text": "@SuperScienceGrl It's a start. As well all know, a scientific publication needs references.",
    "placeName": "Didcot, England",
    "lang": "en"
  },
  {
    "index": 60,
    "text": "@MChastan @Cyclocastor @MEL_Lille @lillefrance @villedelyon @grandlyon Mais √ßa va globalement dans le bon sens non ?",
    "placeName": "Lyon, France",
    "lang": "fr"
  },
  {
    "index": 61,
    "text": "#2018Deyince, yƒ±lƒ±n finalinden bir kare #Iƒüdƒ±r'dan. \nSaƒülƒ±klƒ± yarƒ±nlar i√ßin √ßalƒ±≈ümaya g√∂n√ºll√ºyseniz, aramƒ±za ho≈ügel‚Ä¶ https://t.co/ghCY9UknvE",
    "placeName": "ƒ∞stanbul, T√ºrkiye",
    "lang": "tr"
  },
  {
    "index": 62,
    "text": "Go for it fuck ucf",
    "placeName": "Westview, FL",
    "lang": "en"
  },
  {
    "index": 63,
    "text": "‚ù§Ô∏è (@ The Avenues VOX Cinema in Manama, Capital Governorate) https://t.co/TrP9YC56od",
    "placeName": "Bahrain",
    "lang": "en"
  },
  {
    "index": 64,
    "text": "@Toyin_Ibitoye https://t.co/ly8O1hB5VP",
    "placeName": "Nigeria",
    "lang": ""
  },
  {
    "index": 65,
    "text": "Agora que eu quero ver!!!!! Brasil üáßüá∑!!!! Emo√ß√£o meu Deus!!!!!! Esperan√ßa!",
    "placeName": "Belo Horizonte, Brasil",
    "lang": "pt"
  },
  {
    "index": 66,
    "text": "Bora pra luta porque resultados n√£o nascem como fllorüòò\n#cachoscurtos #cachosloiros #negrasiluminadas9 em S√£o Lu√≠s,‚Ä¶ https://t.co/l2mzUPK66B",
    "placeName": "S√£o Lu√≠s, Brasil",
    "lang": "pt"
  },
  {
    "index": 67,
    "text": "@lyns005 Hope your ok xx",
    "placeName": "Kirkby, England",
    "lang": "en"
  },
  {
    "index": 68,
    "text": "T√¥ chateada e frustada",
    "placeName": "Bel√©m, Brasil",
    "lang": "pt"
  },
  {
    "index": 69,
    "text": "üá¶üáπ #salutetovienna #newyearsconcert #january1st #2019 #newyearsday #moments #music #vienna #concert #classicmusic‚Ä¶ https://t.co/yF8EOdtPia",
    "placeName": "Montr√©al, Qu√©bec",
    "lang": ""
  },
  {
    "index": 70,
    "text": "@Sp1tf1rE @MentalJargon @FULMETALHACKETT @geoff2295 @cotswoldpilgrim @Jarmara @SEvansBoS @broadknot @7ftMetalhead‚Ä¶ https://t.co/eZe1m5PfVE",
    "placeName": "Consett, England",
    "lang": ""
  },
  {
    "index": 71,
    "text": "eu to morto de sono, dormi mal pra um crlh duas noites seguidas e agora eu n√£o consigo dormir mesmo estando s√≥ o p√≥",
    "placeName": "Rio de Janeiro, Brasil",
    "lang": "pt"
  },
  {
    "index": 72,
    "text": "Ok Cool. Hook em ü§ò",
    "placeName": "Midland, TX",
    "lang": "en"
  },
  {
    "index": 73,
    "text": "Fuming with Lincoln city today, cost me 400 u bottle jobs, 90th minute üòÇüòÇ lovely way to start 2019",
    "placeName": "Washington, England",
    "lang": "en"
  },
  {
    "index": 74,
    "text": "@BarryHolland12 Yum!",
    "placeName": "Alabama, USA",
    "lang": "en"
  },
  {
    "index": 75,
    "text": "https://t.co/rRiKCIGrJv",
    "placeName": "Santa Isabel do Rio Negro, Brasil",
    "lang": ""
  },
  {
    "index": 76,
    "text": "@helman_jodi You are right",
    "placeName": "Madrid, Spain",
    "lang": "en"
  },
  {
    "index": 77,
    "text": "@Galvexo Remake this and change it to clockwise/c-clockwise",
    "placeName": "Manhattan, NY",
    "lang": "en"
  },
  {
    "index": 78,
    "text": "imma need a safe space after this oneü§ß",
    "placeName": "Santa Clarita, CA",
    "lang": "en"
  },
  {
    "index": 79,
    "text": "I picked #LeBron. Who ya got?",
    "placeName": "Atwater, CA",
    "lang": "en"
  },
  {
    "index": 80,
    "text": "@K_JeanPierre The baby is amazing lol.",
    "placeName": "Evergreen Park, IL",
    "lang": "en"
  },
  {
    "index": 81,
    "text": "2018 was a great year for Ghana music, African Music for sure",
    "placeName": "Accra, Ghana",
    "lang": "en"
  },
  {
    "index": 82,
    "text": "@buruninha_ vamos no s√≠tio s√£o jo√£o",
    "placeName": "Ponta Grossa, Brasil",
    "lang": "pt"
  },
  {
    "index": 83,
    "text": "@alreem19801 @DCCcoQS9oD9fxod ÿßŸÑŸÑŸá ÿ∞ŸàŸÇ",
    "placeName": "Jyv√§skyl√§, Suomi",
    "lang": "ar"
  },
  {
    "index": 84,
    "text": "I feel old as fuck. I don‚Äôt know not one name on this list",
    "placeName": "Forest Hill, TX",
    "lang": "en"
  },
  {
    "index": 85,
    "text": "Esses garotos s√£o fracos demais",
    "placeName": "Duque de Caxias, Brasil",
    "lang": "pt"
  },
  {
    "index": 86,
    "text": "@nourishedcloud I once knew a paedophile, he ended up in the Water of Leith (murdered/suicided). Probably the best outcome.",
    "placeName": "Edinburgh, Scotland",
    "lang": "en"
  },
  {
    "index": 87,
    "text": "@GrassrootsSpeak Anyone who would have believed that in the first place think a pizza parlor is... Well you know.",
    "placeName": "Manhattan, NY",
    "lang": "en"
  },
  {
    "index": 88,
    "text": "I wish my self in 2019 no new love and no x gf come in my life ameen",
    "placeName": "Kolkata, India",
    "lang": "en"
  },
  {
    "index": 89,
    "text": "Someone said you stay getting cheated üòÇüòÇüòÇ umm I only got cheated once. My nigga came clean. He ain‚Äôt like you that‚Ä¶ https://t.co/N82VyYiLQZ",
    "placeName": "Berwyn, IL",
    "lang": "en"
  },
  {
    "index": 90,
    "text": "@ClassicStellar @ferit0678 @Baba7706547437 @BOYNUEGRIMelek @dilek0679 @Dilekuzunn",
    "placeName": "Fethiye, T√ºrkiye",
    "lang": ""
  },
  {
    "index": 91,
    "text": "mamsh dko na lalaklakin ulit un the bar pink gago yon  na trigger ako di ako nahhilo eh  ayun i ended up talkin to‚Ä¶ https://t.co/D44VhS49sn",
    "placeName": "Caloocan City, National Capital Region",
    "lang": ["tl", "en"]
  },
  {
    "index": 92,
    "text": "@toyosiolukayode I'm enjoying it already...bro",
    "placeName": "Otta, Nigeria",
    "lang": "en"
  },
  {
    "index": 93,
    "text": "‡∏ó‡πâ‡∏≠‡∏á‡∏£‡πâ‡∏≠‡∏á‡πÄ‡∏´‡∏°‡∏∑‡∏≠‡∏ô‡∏à‡∏∞‡∏ó‡∏≥‡∏™‡∏á‡∏Ñ‡∏£‡∏≤‡∏°",
    "placeName": "‡πÄ‡∏ä‡∏µ‡∏¢‡∏á‡πÉ‡∏´‡∏°‡πà, ‡∏õ‡∏£‡∏∞‡πÄ‡∏ó‡∏®‡πÑ‡∏ó‡∏¢",
    "lang": "th"
  },
  {
    "index": 94,
    "text": "also PSA: pizza hut now does a vegan pulled jackfruit pizza https://t.co/QtNSL3Jdp9",
    "placeName": "Ilkeston, England",
    "lang": "en"
  },
  {
    "index": 95,
    "text": "The most onbrand message I have ever sent https://t.co/9G2Vx2qsBv",
    "placeName": "West Seneca, NY",
    "lang": "en"
  },
  {
    "index": 96,
    "text": "@yindeisel96 @BEACASSO Yes! It‚Äôs currently my lock screen haha.",
    "placeName": "Ohio, USA",
    "lang": "en"
  },
  {
    "index": 97,
    "text": "Fourth quarters not our finest #mytake",
    "placeName": "Red Deer, Alberta",
    "lang": "en"
  },
  {
    "index": 98,
    "text": "Please be the #mnwild",
    "placeName": "Shoreview, MN",
    "lang": "en"
  },
  {
    "index": 99,
    "text": "o primeiro filme q eu vi esse ano foi \"A Justiceira\", espero q seja um sinal",
    "placeName": "Casimiro de Abreu, Brasil",
    "lang": "pt"
  },
  {
    "index": 100,
    "text": "@danroan Shocking!",
    "placeName": "Bridgwater, England",
    "lang": "en"
  },
  {
    "index": 101,
    "text": "–µ—Å–ª–∏ —á–µ—Å—Ç–Ω–æ, —è –Ω–µ –æ—Å–æ–±–æ –¥–æ–≤–æ–ª—å–Ω–∞ –≤—ã–±—Ä–∞–Ω–Ω—ã–º–∏ —Ñ–æ—Ç–∫–∞–º–∏ —Å–≤–æ–∏—Ö –±–∏–∞—Å–æ–≤ –≤ –∫–∞–ª–µ–Ω–¥–∞—Ä–µ\n–∑–∞—Ç–æ —É –æ—Å—Ç–∞–ª—å–Ω—ã—Ö –º–µ–º–±–µ—Ä–æ–≤ –ø—Ä–æ—Å—Ç–æ —É–ª–µ—Ç–Ω—ã–µ —Ñ–æ—Ç–æ–≥—Ä–∞—Ñ–∏–∏ üíî",
    "placeName": "–°–∞–Ω–∫—Ç-–ü–µ—Ç–µ—Ä–±—É—Ä–≥, –†–æ—Å—Å–∏—è",
    "lang": "ru"
  },
  {
    "index": 102,
    "text": "Das war der mit Abstand beste #Tatort in diesem Jahr.",
    "placeName": "Duisburg, Deutschland",
    "lang": "de"
  },
  {
    "index": 103,
    "text": "@djcarlos_dj @anterogreco Se fosse motorista do Haddad teriam trocentos argumentos para defender. N√£o tem a menor l√≥gica",
    "placeName": "Piracicaba, Brasil",
    "lang": "pt"
  },
  {
    "index": 104,
    "text": "@brick_titties",
    "placeName": "Manhattan, NY",
    "lang": ""
  },
  {
    "index": 105,
    "text": "@Garrone012 @Gentiledudu Tbm adorei, palavras simples costas originais, tbm quebra d protocolo.\nAmei tudo.\nUffa. Tu‚Ä¶ https://t.co/5mA69QPkFc",
    "placeName": "Porto Alegre, Brasil",
    "lang": "pt"
  },
  {
    "index": 106,
    "text": "this how we goin into the new year?",
    "placeName": "Groveland, MA",
    "lang": "en"
  },
  {
    "index": 107,
    "text": "Reprise du boulot demain‚Ä¶ On va se remonter le moral, on ne bosse que 3 jours ! https://t.co/Tniu3Kg91D",
    "placeName": "Vincennes, France",
    "lang": "fr"
  },
  {
    "index": 108,
    "text": "@FlangeDoozer Totalmente üòÇ",
    "placeName": "Santa Coloma de Gramenet, Espa√±a",
    "lang": "es"
  },
  {
    "index": 109,
    "text": "@yepmargo Hi",
    "placeName": "Caxias do Sul, Brasil",
    "lang": ""
  },
  {
    "index": 110,
    "text": "@gregorimpalome @lluis_llach Molt maca !!!",
    "placeName": "Blanes, Spain",
    "lang": "ca"
  },
  {
    "index": 111,
    "text": "Sedar tak sedar sebenanrnya kita memilih dengan dosa",
    "placeName": "Sydney, New South Wales",
    "lang": "ms"
  },
  {
    "index": 112,
    "text": "Saatlerce,g√ºnlerce hatta yƒ±llarca yanƒ±nda dursam da asla benden sƒ±kƒ±lmayacak olan, 10 dakikalƒ±k bir yere gidip geld‚Ä¶ https://t.co/yNMNqnl5NB",
    "placeName": "Adana, T√ºrkiye",
    "lang": "tr"
  },
  {
    "index": 113,
    "text": "melhor ano novo da vida kkkkk",
    "placeName": "Nil√≥polis, Brasil",
    "lang": "pt"
  },
  {
    "index": 114,
    "text": "@HasanUzguc Son kelime hari√ß te≈üekk√ºr ediyorum:)",
    "placeName": "Afyonkarahisar Merkez, Afyonkarahisar",
    "lang": "tr"
  },
  {
    "index": 115,
    "text": "@RcLalo Buena jorge rial",
    "placeName": "Rosario, Argentina",
    "lang": "es"
  },
  {
    "index": 116,
    "text": "@nictri Go for it! But which ones will you choose?? Get well soon btw! ‚ò∫Ô∏è",
    "placeName": "Yorkshire and The Humber, England",
    "lang": "en"
  },
  {
    "index": 117,
    "text": "‡§≠‡§æ‡§∞‡§§‡•Ä‡§Ø ‡§´‡•å‡§ú ‡§ï‡•ã ‡§ï‡•Å‡§õ ‡§¶‡•á‡§®‡§æ ‡§ö‡§æ‡§π‡§§‡•á ‡§π‡•ã ‡§§‡•ã ‡§è‡§ï ‡§µ‡•ã‡§ü ‡§Æ‡•ã‡§¶‡•Ä ‡§ï‡•ã ‡§¶‡•á‡§®‡§æ üí™\n\n‡§¨‡§æ‡§ï‡§ø ‡§ï‡§æ‡§Ç‡§ó‡•ç‡§∞‡•á‡§∏ ‡§§‡•ã ‡§Ü‡§§‡§Ç‡§ï‡§µ‡§æ‡§¶‡§ø‡§Ø‡•ã‡§Ç ‡§ï‡•ã ‡§è‡§ï ‡§è‡§ï ‡§ï‡§∞‡•ã‡§°‡§º ‡§¶‡•á ‡§π‡•Ä ‡§∞‡§π‡•Ä ‡§π‡•à ‡•§",
    "placeName": "New Delhi, India",
    "lang": "hi"
  },
  {
    "index": 118,
    "text": "@MadelaineMarieJ @KinashInAus I love how they have done that! Thanks for taking the pic :) Happy, healthy and successful 2019 ladies!",
    "placeName": "Melbourne, Victoria",
    "lang": "en"
  },
  {
    "index": 119,
    "text": "@AStraww IT'S NOT LIKE IT JUST COMES UP IN CONVERSATION",
    "placeName": "Addison, IL",
    "lang": "en"
  },
  {
    "index": 120,
    "text": "¬°¬øFELIZ DIA NUEVOüëΩü§ñüíÉü§ëüï∫üöÄüëΩüëÅ PONLO PATRA iamcardib @yiyi_jhon A OTRO NIVEL , EN OTRA DIMENSION VIAJANDO EN EL ESPACIO.‚Ä¶ https://t.co/XVJnKcQAyP",
    "placeName": "North Bergen, NJ",
    "lang": "es"
  },
  {
    "index": 121,
    "text": "Switching between bowl games and scuffle all day. üíØ",
    "placeName": "Clovis, CA",
    "lang": "en"
  },
  {
    "index": 122,
    "text": "Pues me quedan 2 a√±os de solter√≠a",
    "placeName": "Granada, Espa√±a",
    "lang": "es"
  },
  {
    "index": 123,
    "text": "Getting drunk be stupid, ion knw why I did dat dumb shit",
    "placeName": "New Orleans, LA",
    "lang": "en"
  },
  {
    "index": 124,
    "text": "Mary gladymaris y Mar√≠a En Carro apretujao esperando en la calle 70 y la avenida Madison despu√©s Cena de Fin de A√±o‚Ä¶ https://t.co/vjME8LTRjr",
    "placeName": "Manhattan, NY",
    "lang": "es"
  },
  {
    "index": 125,
    "text": "ÿ£ÿ≥ŸÖÿπ https://t.co/0MdABFnxXH",
    "placeName": "Hafr Al Batin, Kingdom of Saudi Arabia",
    "lang": "ar"
  },
  {
    "index": 126,
    "text": "@HealthAngel999 @Freeman48171576 @Raydruryne @XiaBamboohermit @zslang @lifetimeuscn @xchen15 @kuriko_c @mhb218‚Ä¶ https://t.co/LyUDVUAGsc",
    "placeName": "Whitchurch-Stouffville, Ontario",
    "lang": ""
  },
  {
    "index": 127,
    "text": "Great way to start off the New Year with a Beautiful rainbow this morning. @ Glenville, New York https://t.co/vC0uTzNplc",
    "placeName": "New York, USA",
    "lang": "en"
  },
  {
    "index": 128,
    "text": "@Slippery_Jack **plans heist**",
    "placeName": "Ilford, London",
    "lang": "en"
  },
  {
    "index": 129,
    "text": "Ÿäÿ≥ÿ™ÿßŸáŸÑ ŸÉŸàÿ±ÿ© ÿ¥Ÿà ( ŸÖŸÜ ÿ£ŸÅÿ∂ŸÑ ÿßŸÑÿ≠ÿ≥ÿßÿ®ÿßÿ™ ÿßŸÑŸÖŸáÿ™ŸÖÿ© ÿ®ÿßŸÑÿ±Ÿäÿßÿ∂ÿ© ) #ŸáÿØÿßŸäÿß_ÿ≥ŸÜÿßÿ®_ŸÉŸàÿ±Ÿá_ÿ¥Ÿà",
    "placeName": "ÿßŸÑÿ±Ÿäÿßÿ∂, ÿßŸÑŸÖŸÖŸÑŸÉÿ© ÿßŸÑÿπÿ±ÿ®Ÿäÿ© ÿßŸÑÿ≥ÿπŸàÿØŸäÿ©",
    "lang": "ar"
  },
  {
    "index": 130,
    "text": "Listen to Young Forever (Unplugged Ver.)  By BTS by BTS #np on #SoundCloud\n@BTS_twt\nhttps://t.co/P9zrDvBmoe",
    "placeName": "–ë–µ–ª–∞—Ä—É—Å—å",
    "lang": "en"
  },
  {
    "index": 131,
    "text": "Yes",
    "placeName": "Al Seeb, Oman",
    "lang": "en"
  },
  {
    "index": 132,
    "text": "Every bowl game stands on its own, and it's hard to draw broad-based conclusions on outcomes. But you watch some of‚Ä¶ https://t.co/nMzu7olxPI",
    "placeName": "Connecticut, USA",
    "lang": "en"
  },
  {
    "index": 133,
    "text": "The Sun Project boys üî•Matthias &amp; Bj√∂rn -  NYE Portugal üé∏üéµüéßüòé @ Portugal https://t.co/ueiJDLSNYl",
    "placeName": "Lisbon, Portugal",
    "lang": "en"
  },
  {
    "index": 134,
    "text": "Here‚Äôs my resolution:\nI‚Äôm gonna keep doing whatever I feel like doing.",
    "placeName": "Sainte-Marthe-sur-le-Lac, Qu√©bec",
    "lang": "en"
  },
  {
    "index": 135,
    "text": "god i hate myself someone gave me the opportunity to talk about joyce manor and of course i went on and on. and on‚Ä¶ https://t.co/Q2PqahYKzz",
    "placeName": "McAllen, TX",
    "lang": "en"
  },
  {
    "index": 136,
    "text": "Yo shut up nigga üòÇ",
    "placeName": "Salt Lake City, UT",
    "lang": "en"
  },
  {
    "index": 137,
    "text": "‚úåüèæ",
    "placeName": "Sierra Leone",
    "lang": ""
  },
  {
    "index": 138,
    "text": "@how_do_i_live1 still drunk",
    "placeName": "Torrance, CA",
    "lang": "en"
  },
  {
    "index": 139,
    "text": "üî•üòáüëºSzczƒô≈õƒá Bo≈ºeüëºüôè\n  @poprostuL  @JaankaS @PIETRO_V_VOLPI @Ivo642712 @UPasieczna @sebuziel @MACIEK_PLK‚Ä¶ https://t.co/9fZHrxC3kv",
    "placeName": "≈Å√≥d≈∫, Polska",
    "lang": ""
  },
  {
    "index": 140,
    "text": "FOH",
    "placeName": "Lynwood, CA",
    "lang": ""
  },
  {
    "index": 141,
    "text": "@bluefrom95 Pois √©, me contorcedo aqui rs",
    "placeName": "Rio de Janeiro, Brasil",
    "lang": "pt"
  },
  {
    "index": 142,
    "text": "@FionaWade_ Congrats! Xxx",
    "placeName": "Colwinston, Wales",
    "lang": "en"
  },
  {
    "index": 143,
    "text": "Happy New Year Twitterverse! üéÜ",
    "placeName": "Uxbridge, MA",
    "lang": "en"
  },
  {
    "index": 144,
    "text": "@vemk__karen seja forte ‚ù§Ô∏è",
    "placeName": "Bras√≠lia, Brasil",
    "lang": "pt"
  },
  {
    "index": 145,
    "text": "@DAWGSBEST Yeah Jude just said he‚Äôs playing or plans too",
    "placeName": "Des Moines, WA",
    "lang": "en"
  },
  {
    "index": 146,
    "text": "Every year is my year",
    "placeName": "Florida, USA",
    "lang": "en"
  },
  {
    "index": 147,
    "text": "@exame Corrigindo esta reportagem, jornalistas sem credencial tem o mesmo tratamento do pov√£o que estava para ver a posse. \nEntenderam?",
    "placeName": "Fortaleza, Brasil",
    "lang": "pt"
  },
  {
    "index": 148,
    "text": "@jaywasley Happy New Year! ü•≥",
    "placeName": "Cedar Rapids, IA",
    "lang": "en"
  },
  {
    "index": 149,
    "text": "@izznzz @Afarameez Am I wrong to assume every Maldivian is a Muslim?",
    "placeName": "Sri Lanka",
    "lang": "en"
  },
  {
    "index": 150,
    "text": "Jair Bolsonaro acaba de decir:\n\n- No a la ideolog√≠a de g√©nero.\n- No al aborto.\n- Hay que darle m√°s poder a la Polic‚Ä¶ https://t.co/v8SUsn4ODj",
    "placeName": "Quito, Ecuador",
    "lang": "es"
  },
  {
    "index": 151,
    "text": "@bleulivide Triste et sobre",
    "placeName": "Templeux-la-Fosse, France",
    "lang": "fr"
  },
  {
    "index": 152,
    "text": "@lilianacaruso gracias! ‚ô• un abrazo enorme- lidia-‚ò∫ https://t.co/nVtuVX4qrW",
    "placeName": "Buenos Aires, Argentina",
    "lang": "es"
  },
  {
    "index": 153,
    "text": "An diesem Bahnhof herrscht perfektes Instagram Licht, ich sch√§tze, dass war auch Priorit√§t Nummer Eins.\n\nHabt ein f‚Ä¶ https://t.co/gLADZmHy8k",
    "placeName": "Hamburg, Deutschland",
    "lang": "de"
  },
  {
    "index": 154,
    "text": "@carmentakesdick are many but these 2 are amazing‚ù§Ô∏è‚ù§Ô∏è https://t.co/gm1jyJo3Ah",
    "placeName": "Greece",
    "lang": "en"
  },
  {
    "index": 155,
    "text": "Sounds like voting your interests to me",
    "placeName": "Pennsylvania, USA",
    "lang": "en"
  },
  {
    "index": 156,
    "text": "S√≥ queria passar cm Carine o anivers√°rio dela bebendo todas , üíî",
    "placeName": "Maric√°, Brasil",
    "lang": "pt"
  },
  {
    "index": 157,
    "text": "@tucktuck6 @FOXSportsBraves @debo_sharp",
    "placeName": "Georgia, USA",
    "lang": ""
  },
  {
    "index": 158,
    "text": "@WowihaY @angry_cookie0 @Vitauskas_A –¢–æ—Ç –≤–∏–¥–æ—Å –ª–µ–≤—ã–π, –Ω–µ –∏–∑ –ú–∞–≥–Ω–∏—Ç–æ–≥–æ—Ä—Å–∫–∞.",
    "placeName": "–£–∫—Ä–∞—ó–Ω–∞",
    "lang": "ru"
  },
  {
    "index": 159,
    "text": "@hobiwomang El espejo es de RJ por supuesto",
    "placeName": "Puntarenas, Costa Rica",
    "lang": "es"
  },
  {
    "index": 160,
    "text": "queria t√° beijando a boca que eu gosto",
    "placeName": "Atibaia, Brasil",
    "lang": "pt"
  },
  {
    "index": 161,
    "text": "Today is the first day I actually felt good",
    "placeName": "Virginia, USA",
    "lang": "en"
  },
  {
    "index": 162,
    "text": "Scary Terry il a chang√© wsh",
    "placeName": "Cergy, France",
    "lang": "fr"
  },
  {
    "index": 163,
    "text": "I WILL FOREVER LOVE U @kanyewest",
    "placeName": "Libya",
    "lang": "en"
  },
  {
    "index": 164,
    "text": "This narrative about the Big Ten West is almost as bad as everyone favoring Alabama over Clemson.  Clemson deserves‚Ä¶ https://t.co/8k4IclTokL",
    "placeName": "Fraser, CO",
    "lang": "en"
  },
  {
    "index": 165,
    "text": "@_ilBono @noe2661 Come scorre il tempo...üòÇ",
    "placeName": "Sortino, Sicilia",
    "lang": "it"
  },
  {
    "index": 166,
    "text": "‡πÅ‡∏•‡∏∞‡∏â‡∏±‡∏ô‡∏£‡∏±‡∏Å‡πÄ‡∏ò‡∏≠‡∏ï‡∏±‡πâ‡∏á‡πÅ‡∏ï‡πà‡πÅ‡∏£‡∏Å‡∏û‡∏ö‡∏´‡∏ô‡πâ‡∏≤ https://t.co/lb2MbBPLgM",
    "placeName": "‡∏ö‡∏≤‡∏á‡∏Å‡∏∞‡∏õ‡∏¥, ‡∏õ‡∏£‡∏∞‡πÄ‡∏ó‡∏®‡πÑ‡∏ó‡∏¢",
    "lang": "th"
  },
  {
    "index": 167,
    "text": "I realized today that Winnipeg is actually further from Toronto than Dallas.\n\nMy mind was blown. Carry on.",
    "placeName": "Toronto, Ontario",
    "lang": "en"
  },
  {
    "index": 168,
    "text": "https://t.co/e7lc9xcVqZ",
    "placeName": "Oakdale, CA",
    "lang": ""
  },
  {
    "index": 169,
    "text": "\"Quiero ser el primero en las noticias.\"",
    "placeName": "Elgin, IL",
    "lang": "es"
  },
  {
    "index": 170,
    "text": "@Leevinne KKKKKKKK",
    "placeName": "Rio de Janeiro, Brasil",
    "lang": ""
  },
  {
    "index": 171,
    "text": "Tarde de categor√≠a en X√°tiva- VALENCIA,de vista al Bel√©n y la feria de Navidad instalado en el Ayuntamiento de X√°ti‚Ä¶ https://t.co/AVe5edBY2p",
    "placeName": "X√†tiva, Espa√±a",
    "lang": "es"
  },
  {
    "index": 172,
    "text": "@DollyParton Having knee surgery...I have to remember to exercise more and more on that knee. I am going to calm my‚Ä¶ https://t.co/odIaxkmqOA",
    "placeName": "Shelbyville, KY",
    "lang": "en"
  },
  {
    "index": 173,
    "text": "@karenkovacs7 @MichaelGoodhope @Donadeedooda Doesn‚Äôt mean it won‚Äôt happen eventually",
    "placeName": "Hazlet, Saskatchewan",
    "lang": "en"
  },
  {
    "index": 174,
    "text": "@Egeli_Fenerli @cansbr @pisikopatus @Fbli_Neco @kimsesiznuri @hkcinarr @HIZIR07 @Slmyvz1907 Eyvallah egeli bizde eg‚Ä¶ https://t.co/SSBGLfr3WF",
    "placeName": "ƒ∞zmir, T√ºrkiye",
    "lang": "tr"
  },
  {
    "index": 175,
    "text": "2019 is the last year of our lives that will end with 'teen'",
    "placeName": "Lewisville, TX",
    "lang": "en"
  },
  {
    "index": 176,
    "text": "We need to find him... \nfollow the thread for info on the red pick up truck the man was driving",
    "placeName": "Indianapolis, IN",
    "lang": "en"
  },
  {
    "index": 177,
    "text": "@1878Doyle @ant_burkett Oh we need a striker 110% but we not creating anything mate so needs to sort that out first.",
    "placeName": "Liverpool, England",
    "lang": "en"
  },
  {
    "index": 178,
    "text": "@TheRealDrePapi I did. So now that‚Äôs that‚Äôs settled, happy New Year.",
    "placeName": "Greensboro, NC",
    "lang": "en"
  },
  {
    "index": 179,
    "text": "One quarter away from 10 wins.",
    "placeName": "Pemberwick, CT",
    "lang": "en"
  },
  {
    "index": 180,
    "text": "Aquele amor que transborda... üíôüë©‚Äçüë¶#MeuFilho #MinhaVida #MeuAmor #SempreMeuBB #AmordaMinhaVidaInteira em Condom√≠nio‚Ä¶ https://t.co/dwObf87LRW",
    "placeName": "Rio de Janeiro, Brasil",
    "lang": "pt"
  },
  {
    "index": 181,
    "text": "@fdbeduot viejito prost√°tico deje de escupir odio, desde luego que de UD no se puede esperar sino perversidad.\nSi s‚Ä¶ https://t.co/Oot3aJhOni",
    "placeName": "Florida, USA",
    "lang": "es"
  },
  {
    "index": 182,
    "text": "@correio Pela primeira vez os deficientes foram inclu√≠dos, isso sim. #correiobrazilienselixo sempre distorcendo o q‚Ä¶ https://t.co/GuYHyWmSKh",
    "placeName": "Bras√≠lia, Brasil",
    "lang": "pt"
  },
  {
    "index": 183,
    "text": "@whoisdeusa T√¥ perando tem uma hora",
    "placeName": "Porto Velho, Brasil",
    "lang": "pt"
  },
  {
    "index": 184,
    "text": "Why does gun talk turn people inept",
    "placeName": "Miami Beach, FL",
    "lang": "en"
  },
  {
    "index": 185,
    "text": "Cacha√ßa √© foda kkkk https://t.co/6DGRlETWpa",
    "placeName": "Maric√°, Brasil",
    "lang": "pt"
  },
  {
    "index": 186,
    "text": "@80sThen80sNow My VERY first CD purchase!!! Still own it today. Bought it July of 198(?) .... sold bedding plants a‚Ä¶ https://t.co/1GmCRFEFP9",
    "placeName": "Britannia No. 502, Saskatchewan",
    "lang": "en"
  },
  {
    "index": 187,
    "text": "ÿ∑ŸàŸÑ ÿπŸÖÿ±ŸÜÿß ÿ®ŸÜÿ≠ÿ® ÿßŸÑÿπÿ´ŸÖÿßŸÜŸäŸÜ ÿ®ÿ≥ ÿ≠ÿ®ŸÜÿß ŸÑŸÑÿßÿ≥ŸÖÿßÿπŸäŸÑŸä ÿ£ŸÉÿ®ÿ± ÿ®ŸÉÿ™Ÿäÿ±\nüíõüíôüíõüíôüíõüíôüíõ#ÿπÿ´ŸÖÿßŸÜ_ÿ®ÿ±ÿß_ÿßŸÑÿßÿ≥ŸÖÿßÿπŸäŸÑŸä",
    "placeName": "C√¥te d'Ivoire",
    "lang": "ar"
  },
  {
    "index": 188,
    "text": "Texto feliz de in√≠cio de ano! Tendo em vista que qualquer um tem o direito de ser est√∫pido e louvar a pr√≥pria ignor‚Ä¶ https://t.co/wxSLM8oYzl",
    "placeName": "Rio de Janeiro, Brasil",
    "lang": "pt"
  },
  {
    "index": 189,
    "text": "@papishita @L_imnn Ohhhhh merciüò≠üò≠üò≠üò≠‚ù§Ô∏è‚ù§Ô∏è‚ù§Ô∏è‚ù§Ô∏è",
    "placeName": "Vanves, France",
    "lang": "fr"
  },
  {
    "index": 190,
    "text": "@ArianaGrande pLEASE follow:( I luv u a loooooot and you're the best :(üíñüíïüíï‚ù§Ô∏è‚ú®",
    "placeName": "Metepec, M√©xico",
    "lang": "en"
  },
  {
    "index": 191,
    "text": "@Juanmirodrigue2 Entr√≥ bien jajaja no me puedo quejar",
    "placeName": "Azuqueca de Henares, Espa√±a",
    "lang": "es"
  },
  {
    "index": 192,
    "text": "accepted",
    "placeName": "Wandsworth, London",
    "lang": "en"
  },
  {
    "index": 193,
    "text": "@Hotchka @HolmesAndWatson It very well might be",
    "placeName": "Atlanta, GA",
    "lang": "en"
  },
  {
    "index": 194,
    "text": "@aboahmad20004 @Amer_Abdulla ÿßŸÑŸÑŸá Ÿäÿπÿ≤ŸÉ Ÿäÿß ÿ®Ÿà ÿ£ÿ≠ŸÖÿØ .. ŸàŸäÿ≥ÿπÿØŸÉ ÿØŸÜŸäÿß ŸàÿßÿÆÿ±Ÿá ‚ù§Ô∏è",
    "placeName": "ÿ£ÿ®Ÿàÿ∏ÿ®Ÿä, ÿßŸÑÿßŸÖÿßÿ±ÿßÿ™ ÿßŸÑÿπÿ±ÿ®Ÿäÿ© ÿßŸÑŸÖÿ™ÿ≠ÿØÿ©",
    "lang": "ar"
  },
  {
    "index": 195,
    "text": "Nervous to apply for a job like \"Construction Inspector Supervisor\" at City of Atlanta? Apply even if you're not a‚Ä¶ https://t.co/eY2gZeteF3",
    "placeName": "Atlanta, GA",
    "lang": "en"
  },
  {
    "index": 196,
    "text": "@lewlew41986 @leemarkjudges I though you was calling @TCanton94 ‚ÄúLuther‚Äù  üòÇüòÇüòÇ",
    "placeName": "Cascades, VA",
    "lang": "en"
  },
  {
    "index": 197,
    "text": "Does anyone have a new look discount code I could use, pretty please?",
    "placeName": "Stamford, England",
    "lang": "en"
  },
  {
    "index": 198,
    "text": "#FueraCh√°varry",
    "placeName": "Jes√∫s Maria, Peru",
    "lang": "es"
  },
  {
    "index": 199,
    "text": "More importantly, how are the prawns?! #EastEnders",
    "placeName": "Mayo, Ireland",
    "lang": "en"
  },
  {
    "index": 200,
    "text": "ü§Æ",
    "placeName": "Sutton, London",
    "lang": ""
  },
  {
    "index": 201,
    "text": "@iKawaiiLena ÿ£Ÿä Ÿàÿßÿ≠ÿØ ÿßÿÆÿ™ÿ±ÿ™Ÿä ÿü",
    "placeName": "Riyadh, Kingdom of Saudi Arabia",
    "lang": "ar"
  },
  {
    "index": 202,
    "text": "√áok g√ºzel sevilmek diye bir ≈üey var, iliklerime kadar hissediyorum. ama gidemiyorum o ayrƒ±...",
    "placeName": "Osmaniye, T√ºrkiye",
    "lang": "tr"
  },
  {
    "index": 203,
    "text": "Que este a√±o sea siempre un poco mejor.",
    "placeName": "Buenos Aires, Argentina",
    "lang": "es"
  },
  {
    "index": 204,
    "text": "@deplorablestewy @azwebdiva @NRA The tragic circumstances at the Borderline Bar and Grill shooting demonstrate the‚Ä¶ https://t.co/G2zMm2XREf",
    "placeName": "Los Angeles, CA",
    "lang": "en"
  },
  {
    "index": 205,
    "text": "in 2019 yall have to stop advocating for single identities and realize that we cant liberation for one group withou‚Ä¶ https://t.co/J3TrIlOgdq",
    "placeName": "Los Angeles, CA",
    "lang": "en"
  },
  {
    "index": 206,
    "text": "@kiiuste @bbytian Quierooooo",
    "placeName": "Puntarenas, Costa Rica",
    "lang": "es"
  },
  {
    "index": 207,
    "text": "Sloppy ass play",
    "placeName": "Georgia, USA",
    "lang": "en"
  },
  {
    "index": 208,
    "text": "I felt like a kid all over again. Winter Wonderland @ hyde park was really üòç https://t.co/xBRtgG791Z",
    "placeName": "Winter Wonderland",
    "lang": "en"
  },
  {
    "index": 209,
    "text": "Tip: don‚Äôt eat week-old leftover sprouts.",
    "placeName": "Norwich, England",
    "lang": "en"
  },
  {
    "index": 210,
    "text": "@mehranebahramii ÿ®ÿß ÿ≥ŸÑÿßŸÖ ŸÜÿßŸÖŸá ÿ±ÿß ÿØÿ± ŸÖŸä ⁄Øÿ∞ÿßÿ±ŸäÿØ ÿü",
    "placeName": "Islamic Republic of Iran",
    "lang": "fa"
  },
  {
    "index": 211,
    "text": "@luciana_abdc Might see if I can get up there. I'll have to get somewhere to see them again cos they are just brilliant!",
    "placeName": "South Tipperary, Ireland",
    "lang": "en"
  },
  {
    "index": 212,
    "text": "O lema √© fodendo com tudo",
    "placeName": "Curitiba, Brazil",
    "lang": "pt"
  },
  {
    "index": 213,
    "text": "@larryinstafford Simply-yes",
    "placeName": "Hudson Bend, TX",
    "lang": "en"
  },
  {
    "index": 214,
    "text": "2019 will be the first time I ever visit my new home.",
    "placeName": "Laatzen, Deutschland",
    "lang": "en"
  },
  {
    "index": 215,
    "text": "Haha cute mo Dr Gia!",
    "placeName": "Paranaque City, National Capital Region",
    "lang": "tl"
  },
  {
    "index": 216,
    "text": "Me voy a ver una peli de esas para terminar llorando y despu√©s me ir√© a dormir hasta el 2021",
    "placeName": "P√°jara, Espa√±a",
    "lang": "es"
  },
  {
    "index": 217,
    "text": "@EdKrassen Of course you MAGATS haven‚Äôt said a peep!  The racist hypocrites zip it. Fiscal responsibility? Nope. Fa‚Ä¶ https://t.co/cTwBZu2LDl",
    "placeName": "Cincinnati, OH",
    "lang": "en"
  },
  {
    "index": 218,
    "text": "Think Cattermoles suspension has come at the right time - saying on the way out today I‚Äôd like to see Power and som‚Ä¶ https://t.co/jQ7rKOJBUQ",
    "placeName": "Washington, England",
    "lang": "en"
  },
  {
    "index": 219,
    "text": "@_P3rdida Eu n√£o, grazazels",
    "placeName": "Barra do Gar√ßas, Brasil",
    "lang": "pt"
  },
  {
    "index": 220,
    "text": "Bro. Please. Let‚Äôs stop this.",
    "placeName": "Stafford, TX",
    "lang": "en"
  },
  {
    "index": 221,
    "text": "d√°diva do meu Senhor que n√£o me abandonou e me deu voc√™ p eu nunca mais caminhar sozinha",
    "placeName": "S√£o Gon√ßalo, Brasil",
    "lang": "pt"
  },
  {
    "index": 222,
    "text": "I've learned more about life this year than any other year.\nMainly because I've been listening and praying more.",
    "placeName": "Nairobi, Kenya",
    "lang": "en"
  },
  {
    "index": 223,
    "text": "All data has to pass thru a clock - that way it can be managed or 'qued'.. problem with my tech is that it was far‚Ä¶ https://t.co/MHJc6M234f",
    "placeName": "London, England",
    "lang": "en"
  },
  {
    "index": 224,
    "text": "A eso me refiero con que falta darle prioridad al tema, empezando cada uno por su casa. Te felicito",
    "placeName": "Papudo, Chile",
    "lang": "es"
  },
  {
    "index": 225,
    "text": "üêë",
    "placeName": "T√ºrkiye",
    "lang": ""
  },
  {
    "index": 226,
    "text": "I finally told my parents my opinion: ‚Äúonce you go to college, then you can inform me on your opinion on what I am studying‚Äù",
    "placeName": "Slidell, LA",
    "lang": "en"
  },
  {
    "index": 227,
    "text": "Esse ano de 2019, vai ser pra todos n√≥s nos reiventarmos.",
    "placeName": "Rio de Janeiro, Brasil",
    "lang": "pt"
  },
  {
    "index": 228,
    "text": "Tratamento √© dado conforme √© recebido !",
    "placeName": "Rio de Janeiro, Brasil",
    "lang": "pt"
  },
  {
    "index": 229,
    "text": "I forgot my tooth is poking through and went to eat some food and swear I almost cried cause it hurt so bad to bite down",
    "placeName": "Tampa, FL",
    "lang": "en"
  },
  {
    "index": 230,
    "text": "Happy Birthday to my favorite Pen! Love to watch you battling in the paint! @PatricHornqvist @penguins",
    "placeName": "Grant Town, WV",
    "lang": "en"
  },
  {
    "index": 231,
    "text": "Amanha vou 'viajar' sozinha no √¥nibus kkk to s√≥ o medo",
    "placeName": "S√£o Jo√£o de Meriti, Brasil",
    "lang": "pt"
  },
  {
    "index": 232,
    "text": "@Lemur_OOC @evil_gnome https://t.co/zWRvHgOnti",
    "placeName": "Yorkshire and The Humber, England",
    "lang": ""
  },
  {
    "index": 233,
    "text": "President Trump starts the New Year by insulting decorated Army veteran 'known for big, dumb mouth' https://t.co/H2NfhUBO5q",
    "placeName": "San Francisco, CA",
    "lang": "en"
  },
  {
    "index": 234,
    "text": "Jadson se apresentar√° ao Cruzeiro na pr√≥xima quinta-feira (03/01), jogador foi o 1¬∞ refor√ßo anunciado pela equipe e‚Ä¶ https://t.co/ufUQyeG0xg",
    "placeName": "Betim, Brasil",
    "lang": "pt"
  },
  {
    "index": 235,
    "text": "ü§∏‚Äç‚ôÄÔ∏è I admit 2018 wasn‚Äôt my favourite ü•¥ but if the start‚Äôs anything to go by, 2019 is going to be a corker! üçæ \n.‚Ä¶ https://t.co/xY7vSTIW68",
    "placeName": "Richmond, London",
    "lang": "en"
  },
  {
    "index": 236,
    "text": "En pleno Roma encontr√© esta calco‚ú®\n\n#roma #rome #italia #mirtalegrand en Rome, Italy https://t.co/m8mXmRly7L",
    "placeName": "Roma, Lacio",
    "lang": "es"
  },
  {
    "index": 237,
    "text": "Benny!!! #BBN #Kentucky #CitrusBowl",
    "placeName": "Orlando, FL",
    "lang": ""
  },
  {
    "index": 238,
    "text": "@muharremgrm Aslan twit alemine d√º≈üm√º≈üs√ºn bu ne tantana yavv",
    "placeName": "Tekirdaƒü Merkez, Tekirdaƒü",
    "lang": "tr"
  },
  {
    "index": 239,
    "text": "@badgerthecat @irisstylosa ?",
    "placeName": "Liverpool, England",
    "lang": ""
  },
  {
    "index": 240,
    "text": "@TerriNixon How I wish I could write a novel. I mean if I did it would be clich√©d drivel.",
    "placeName": "Tavistock, England",
    "lang": "en"
  },
  {
    "index": 241,
    "text": "Sobrou ainda um engradado de cerva acho q vou gelar mais",
    "placeName": "Belford Roxo, Brasil",
    "lang": "pt"
  },
  {
    "index": 242,
    "text": "Debo ser la √∫nica que odia con todo su ser usar labial",
    "placeName": "Mendoza, Argentina",
    "lang": "es"
  },
  {
    "index": 243,
    "text": "Allah ya jikan su ya kuma sa sun huta.",
    "placeName": "Gwagwalada, Nigeria",
    "lang": "ha"
  },
  {
    "index": 244,
    "text": "Suriyeliler hakkƒ±nda konu≈üanlar size cevabƒ± Kur‚Äôan veriyor ba≈üka s√∂ze gerek yok",
    "placeName": "Uzbekistan",
    "lang": "tr"
  },
  {
    "index": 245,
    "text": "Nargile anasonsuz olmaz.. (@ Tuƒüra Cafe Nargile in Istanbul) https://t.co/lfWzXslqVV",
    "placeName": "ƒ∞stanbul, T√ºrkiye",
    "lang": "tr"
  },
  {
    "index": 246,
    "text": "„Åã„ÄÅ„Åã„Çè„ÅÑ„ÅÑ(//‚àá//)",
    "placeName": "Á•ûÂ•à Â∑ùÂ¥éÂ∏Ç Âπ∏Âå∫",
    "lang": "ja"
  },
  {
    "index": 247,
    "text": "üíØ",
    "placeName": "Mississippi, USA",
    "lang": ""
  },
  {
    "index": 248,
    "text": "ai que otaaaaaaaria https://t.co/nk3Py52Mgi",
    "placeName": "Campo Grande, Brasil",
    "lang": ""
  },
  {
    "index": 249,
    "text": "Virou bagun√ßa.",
    "placeName": "Rio de Janeiro, Brasil",
    "lang": "pt"
  },
  {
    "index": 250,
    "text": "Fortunate to be treated to a meal at this #kaiseki style vegetarian meal. #veganintaipei #veganfood @ Èà∫ÂñÑÈñ£ Yu Shan Ge https://t.co/sj6EM2tvgy",
    "placeName": "Taipei City, Taiwan",
    "lang": "en"
  },
  {
    "index": 251,
    "text": "@backlon nearly",
    "placeName": "Glasgow, Scotland",
    "lang": "en"
  },
  {
    "index": 252,
    "text": "@mhmedyoussf @ahmedabokhatwa1 ÿßŸÜÿß Ÿäÿßÿ®ŸÜŸâ üòÇ https://t.co/kGEjnWmJ6n",
    "placeName": "Matroh, Egypt",
    "lang": "ar"
  },
  {
    "index": 253,
    "text": "@BarbMcQuade @MSNBC @maddow @chrislhayes @KatyTurNBC @Morning_Joe @JoeNBC @morningmika @NicolleDWallace @AliVelshi‚Ä¶ https://t.co/G4p5SOqgyt",
    "placeName": "Melissa, TX",
    "lang": ""
  },
  {
    "index": 254,
    "text": "porra, era\nmas acordei 16:30 ü§¶üèª‚Äç‚ôÄÔ∏èü§¶üèª‚Äç‚ôÄÔ∏èü§¶üèª‚Äç‚ôÄÔ∏è",
    "placeName": "Rio de Janeiro, Brasil",
    "lang": "pt"
  },
  {
    "index": 255,
    "text": "The Sound Of Silence by Simon and Garfunkel was the number one song 53 years ago today.  #MusicOfMyYouth https://t.co/VSiA5A1hQD",
    "placeName": "California, USA",
    "lang": "en"
  },
  {
    "index": 256,
    "text": "Na minha casa ainda est√° tendo festa ... ü§∑üèø‚Äç‚ôÇÔ∏è",
    "placeName": "Duque de Caxias, Brasil",
    "lang": "pt"
  },
  {
    "index": 257,
    "text": "favorite place on earth‚ù§Ô∏è",
    "placeName": "London, England",
    "lang": "en"
  },
  {
    "index": 258,
    "text": "You get one shot to make it count üëä‚ú®",
    "placeName": "Redondo Beach, CA",
    "lang": "en"
  },
  {
    "index": 259,
    "text": "Brindemos Por un a√±o a√∫n mejor üçæ https://t.co/RnVO0oXQM8",
    "placeName": "Copacabana, Rio de Janeiro",
    "lang": "es"
  },
  {
    "index": 260,
    "text": "I need an apronüò≠ I‚Äôm super extra",
    "placeName": "Nashville, TN",
    "lang": "en"
  },
  {
    "index": 261,
    "text": "ü§¶üèæ‚Äç‚ôÇÔ∏è",
    "placeName": "Georgia, USA",
    "lang": ""
  },
  {
    "index": 262,
    "text": "Je commence mon ann√©e au c√¥t√© de ma ptite copine",
    "placeName": "Loon-Plage, France",
    "lang": "fr"
  },
  {
    "index": 263,
    "text": "@NaoLeandru Que medooo",
    "placeName": "Balne√°rio Cambori√∫, Brasil",
    "lang": "pt"
  },
  {
    "index": 264,
    "text": "Which announcer is more obnoxious?",
    "placeName": "Tennessee, USA",
    "lang": "en"
  },
  {
    "index": 265,
    "text": "@BTSNewsBrasil Eu j√° te peguei meu bal√£ozinho de oxig√™nio Bixo",
    "placeName": "Tabo√£o da Serra, Brasil",
    "lang": "pt"
  },
  {
    "index": 266,
    "text": "@Theus_Oliveirax algum dia na vida ainda vou chegar nesse n√≠vel pode anotar",
    "placeName": "Cabo Frio, Brasil",
    "lang": "pt"
  },
  {
    "index": 267,
    "text": "I really can‚Äôt believe how much fun I had this weekend",
    "placeName": "Nevada, USA",
    "lang": "en"
  },
  {
    "index": 268,
    "text": "As I Cried Soooo Much..=-)...With her Super Beautiful And Heavenly self..=-)...K..I Better Just Cry Gently..=-)..On‚Ä¶ https://t.co/4trXEgZ5ly",
    "placeName": "Edgewood, FL",
    "lang": "en"
  },
  {
    "index": 269,
    "text": "Fellas it‚Äôs 2019 , pay attention to what we want üó£\n\nWhat These Bitches Want (FEMALE RESPONSE) - Jaz the Rapper‚Ä¶ https://t.co/10aFIXZDOo",
    "placeName": "Brooklyn, NY",
    "lang": "en"
  },
  {
    "index": 270,
    "text": "@jpaussant @YouTube Bonne Ann√©e, Jean-Pierre.  üòÇüòòü§î",
    "placeName": "Iwuy, France",
    "lang": "fr"
  },
  {
    "index": 271,
    "text": "caralho eu acordo e j√° penso a voltar dormir de novo",
    "placeName": "Rio de Janeiro, Brasil",
    "lang": "pt"
  },
  {
    "index": 272,
    "text": "New Year New Room. Beautiful start to January 1st 2019 @ East Hampton, New York https://t.co/IbXrLaJCNS",
    "placeName": "East Hampton, NY",
    "lang": "en"
  },
  {
    "index": 273,
    "text": "Estoy lista para arrancar de viaje...quien lava un primero de enero? YO...jajajaja el 2018 no di√≥ tiempo de muchas‚Ä¶ https://t.co/UZYsGBCnBA",
    "placeName": "Cartagena, Colombia",
    "lang": "es"
  },
  {
    "index": 274,
    "text": "this is us @KKnightRealtor üòÜüòò https://t.co/2mF5jA3qJK",
    "placeName": "Timberwood Park, TX",
    "lang": "en"
  },
  {
    "index": 275,
    "text": "Don‚Äôt forget today is taco and the other ‚ÄúT‚Äù Tuesday..............",
    "placeName": "Washington, USA",
    "lang": "en"
  },
  {
    "index": 276,
    "text": "la gente sigue creyendo a miare?",
    "placeName": "Encamp, Andorra",
    "lang": "es"
  },
  {
    "index": 277,
    "text": "@DallasStars @TheWildBeckaroo",
    "placeName": "South Bend, IN",
    "lang": ""
  },
  {
    "index": 278,
    "text": "Isso vai ser sempre um fardo na minha vida msm, tem como n",
    "placeName": "S√£o Pedro da Aldeia, Brasil",
    "lang": "pt"
  },
  {
    "index": 279,
    "text": "Feliz a√±o! @ Guatemala Department https://t.co/jwylZLp8Xo",
    "placeName": "Guatemala",
    "lang": ""
  },
  {
    "index": 280,
    "text": "Record. Breaker. @benny_snell https://t.co/RavCXp37cr",
    "placeName": "Kentucky, USA",
    "lang": "en"
  },
  {
    "index": 281,
    "text": "@kanyewest I wouldn‚Äôt have it any other way. Ye being Ye. Love it.",
    "placeName": "Wintersville, OH",
    "lang": "en"
  },
  {
    "index": 282,
    "text": "@FlopsyandJonah @TheLegacyOfLeo This is exactly what this community is about, so lovely to have you here in this safe space x",
    "placeName": "Plymstock, England",
    "lang": "en"
  },
  {
    "index": 283,
    "text": "Can u... imagine following my friends @ArianaGrande @sweetenersloves @ghostinari  @marvelsagb @ButeraFirefly‚Ä¶ https://t.co/bC5a9xWC9L",
    "placeName": "Greenwich, London",
    "lang": "en"
  },
  {
    "index": 284,
    "text": "@NancyPelosi @realDonaldTrump Good, let‚Äôs see if you can do it.",
    "placeName": "Hawaii, USA",
    "lang": "en"
  },
  {
    "index": 285,
    "text": "Does @netflix think there are only 13 countries in the world or are there only comedians in 13 countries in the wor‚Ä¶ https://t.co/oTwYCgE5CI",
    "placeName": "Hackney, London",
    "lang": "en"
  },
  {
    "index": 286,
    "text": "@Britvni So",
    "placeName": "Brooklyn, NY",
    "lang": ""
  },
  {
    "index": 287,
    "text": "@RealJamesWoods President Genovese Gambino caught in another pointless lie",
    "placeName": "Lorain, OH",
    "lang": "en"
  },
  {
    "index": 288,
    "text": "Turut berduka cita atas musibah longsor yang terjadi di Kp. Cimapag Desa Sirnaresmi Kecamatan Cisolok Kabupaten Suk‚Ä¶ https://t.co/zvQJa3KnAi",
    "placeName": "Cisolok, Indonesia",
    "lang": "id"
  },
  {
    "index": 289,
    "text": "last night a nigga was like ‚ÄúI want you in the front‚Äù and guess who was the one in the front?",
    "placeName": "Atlanta, GA",
    "lang": "en"
  },
  {
    "index": 290,
    "text": "Ÿàÿ®ÿßŸÑŸÑÿ∑ŸÅ ŸàÿßŸÑÿ•ÿ≠ÿ≥ÿßŸÜ ŸäŸèÿ≥ÿ™ÿπÿ®ÿØ ÿßŸÑÿ≠Ÿèÿ±Ÿè ÿü https://t.co/VYxP2fsElL",
    "placeName": "Iraq",
    "lang": ""
  },
  {
    "index": 291,
    "text": "@BrujaEscarlat10 Te creo",
    "placeName": "Vi√±a del Mar, Chile",
    "lang": "es"
  },
  {
    "index": 292,
    "text": "cuatro pastillitas y a dormirla",
    "placeName": "As Neves, Espa√±a",
    "lang": "es"
  },
  {
    "index": 293,
    "text": "@andrewsuleh @dailynation It would beat economic logic if the rebate is different across providers.The input should‚Ä¶ https://t.co/6JkSxB31qJ",
    "placeName": "Republic of Mauritius",
    "lang": "en"
  },
  {
    "index": 294,
    "text": "una cosa es perdonar y otra muy diferente volver a confiar.",
    "placeName": "Barcelona, Catalu√±a",
    "lang": "es"
  },
  {
    "index": 295,
    "text": "@Omotinuola_ üò≠ üò≠",
    "placeName": "Tampa, FL",
    "lang": ""
  },
  {
    "index": 296,
    "text": "Scrolled through twitter and discord 7 times. I guess I should get out of bed",
    "placeName": "Los Angeles, CA",
    "lang": "en"
  },
  {
    "index": 297,
    "text": "@famouslos32 https://t.co/u7YCwXWQbe",
    "placeName": "Santee, CA",
    "lang": ""
  },
  {
    "index": 298,
    "text": "po≈üet muhabbeti ne zaman biter tahmini",
    "placeName": "Osmangazi, Bursa",
    "lang": "tr"
  },
  {
    "index": 299,
    "text": "@CortezGuap what a rare occasion üåö",
    "placeName": "Kentucky, USA",
    "lang": "en"
  },
  {
    "index": 300,
    "text": "Peace of mind #2019 ‚ù§",
    "placeName": "Calamba City, Calabarzon",
    "lang": "en"
  },
  {
    "index": 301,
    "text": "@lukezkria Hahhh@a ye wakk",
    "placeName": "Petaling, Selangor",
    "lang": ""
  },
  {
    "index": 302,
    "text": "My sin Carl was shooküòÇ",
    "placeName": "Lake Charles, LA",
    "lang": "en"
  },
  {
    "index": 303,
    "text": "Para qe salga el viaje a cuenta qe se lleven tb: indepes, podemitas,y afines alcaldesas..porfa",
    "placeName": "Lleida, Espa√±a",
    "lang": "es"
  },
  {
    "index": 304,
    "text": "ÿ®Ÿäÿ±Ÿà ÿßŸÑŸÇŸÑÿ® ü§¶üèª‚Äç‚ôÄÔ∏èüíõ",
    "placeName": "Paddington, London",
    "lang": "en"
  },
  {
    "index": 305,
    "text": "@TiaMay29 @DeeBossTalent @TraceyDeeBoss @ConnieDeeBoss @RosieDeeBoss Thank you Tia. Happy New Year to you and your family üòÄ",
    "placeName": "Saltdean, England",
    "lang": "en"
  },
  {
    "index": 306,
    "text": "sdd album completo do sidoka com os amigo que eu gosto",
    "placeName": "Governador Valadares, Brasil",
    "lang": "pt"
  },
  {
    "index": 307,
    "text": "KURALY!!!!!!! #CELLYSZN #NHLBruins",
    "placeName": "San Antonio, TX",
    "lang": ""
  },
  {
    "index": 308,
    "text": "@ekrem_imamoglu Ekrem  Bey yine ak parti √ºzerinden vatanda≈ülara algƒ± yapƒ±yor ƒ∞BB‚Äônin yaptƒ±ƒüƒ± banklara Beylikd√ºz√ºn√ºn‚Ä¶ https://t.co/auohmmYZy4",
    "placeName": "ƒ∞stanbul, T√ºrkiye",
    "lang": "tr"
  },
  {
    "index": 309,
    "text": "@jadehass E ESSE ANO √â DE OXUM\nT√î PREOCUPADA",
    "placeName": "S√£o Paulo, Brasil",
    "lang": "pt"
  },
  {
    "index": 310,
    "text": "This is literally such bad reporting. It was a mixed doubles match. It wasnt serena v federer. stop with this click‚Ä¶ https://t.co/eOYfGX8oFU",
    "placeName": "Georgia, USA",
    "lang": "en"
  },
  {
    "index": 311,
    "text": "Happy 2019 https://t.co/SYeqIjG3iN",
    "placeName": "The Las Vegas Strip, Paradise",
    "lang": "en"
  },
  {
    "index": 312,
    "text": "Still got an iPhone 6s and I‚Äôm not getting a new iPhone until it stops working. Spending 700 plus dollars on someth‚Ä¶ https://t.co/ausbVIyiJG",
    "placeName": "Virginia, USA",
    "lang": "en"
  },
  {
    "index": 313,
    "text": "@t_o_mu I call my girlfriend bro and gang and shit like that all the time it‚Äôs just outta habit it‚Äôs not personal",
    "placeName": "Cleveland, OH",
    "lang": "en"
  },
  {
    "index": 314,
    "text": "Obama administration has left a trail of garbage, hidden in the fine print of many departments!How much more will c‚Ä¶ https://t.co/xMB7aocJdt",
    "placeName": "California, USA",
    "lang": "en"
  },
  {
    "index": 315,
    "text": "Ainda sobre o Ano Novo ü§ëüéâüéÜ https://t.co/PWaBoeBLEw",
    "placeName": "Praia de S√£o Vicente, S√£o Vicente",
    "lang": "pt"
  },
  {
    "index": 316,
    "text": "bu da olmuyor artik:dddddd",
    "placeName": "Derince, T√ºrkiye",
    "lang": "tr"
  },
  {
    "index": 317,
    "text": "Great year for Snell and the Wildcats.",
    "placeName": "Taylor Mill, KY",
    "lang": "en"
  },
  {
    "index": 318,
    "text": "@MagnoMalta Profetizou üôèüëèüèªüëèüèªüëèüèªüôèüáßüá∑üáßüá∑üáßüá∑",
    "placeName": "Zurique, Su√≠√ßa",
    "lang": "pt"
  },
  {
    "index": 319,
    "text": "@BonnieLaden Same üò©üò©üò©",
    "placeName": "Hialeah, FL",
    "lang": "en"
  },
  {
    "index": 320,
    "text": "@aileenbianey you sure it‚Äôs the turtle neck?",
    "placeName": "Palmdale, CA",
    "lang": "en"
  },
  {
    "index": 321,
    "text": "Lmaoo I‚Äôm in the graveyard wt my sketchbook Nd picnic blanket having a wonderful day and this girl just  walked up‚Ä¶ https://t.co/Y0xotmiQmG",
    "placeName": "New Jersey, USA",
    "lang": "en"
  },
  {
    "index": 322,
    "text": "Acaba de publicar una foto en Hotel Tur√≠stico Chololo. https://t.co/WsXi9Z2VdZ",
    "placeName": "Cordillera, Paraguay",
    "lang": "es"
  },
  {
    "index": 323,
    "text": "If you aint loosing friends then you aint growing up",
    "placeName": "Nairobi, Kenya",
    "lang": "en"
  },
  {
    "index": 324,
    "text": "üîπ2Ô∏è‚É£0Ô∏è‚É£1Ô∏è‚É£9Ô∏è‚É£ü•Ç #happynewyear #family #love #party en Miami Platja (Tarragona) https://t.co/uoRaGIoI9E",
    "placeName": "Mont-roig del Camp, Espa√±a",
    "lang": ""
  },
  {
    "index": 325,
    "text": "2019... I‚Äôm here now, it‚Äôs too late to run! \n‚óæÔ∏è‚óæÔ∏è‚óæÔ∏è‚óæÔ∏è‚óæÔ∏è‚óæÔ∏è‚óæÔ∏è‚óæÔ∏è‚óæÔ∏è‚óæÔ∏è‚óæÔ∏è‚óæÔ∏è\nTo all my high school and college students...‚Ä¶ https://t.co/sYiwtVhjwH",
    "placeName": "Tennessee, USA",
    "lang": "en"
  },
  {
    "index": 326,
    "text": "@mtesperon @moema4 HAHAHAHAMIS√âRIA https://t.co/bR3Bk4ieec",
    "placeName": "Bel√©m, Brasil",
    "lang": ""
  },
  {
    "index": 327,
    "text": "@Plano_Wildcats What an honor!! Thank you so much for this!",
    "placeName": "Plano, TX",
    "lang": "en"
  },
  {
    "index": 328,
    "text": "papo.",
    "placeName": "Petr√≥polis, Brasil",
    "lang": ""
  },
  {
    "index": 329,
    "text": "Dope",
    "placeName": "Newark, NJ",
    "lang": "en"
  },
  {
    "index": 330,
    "text": "troco todas as sa√≠das √† noite e abdico de estar com quem quero pela simples raz√£o de dar tudo por tudo pelo futebol üí≠",
    "placeName": "Santa Maria da Feira, Portugal",
    "lang": "pt"
  },
  {
    "index": 331,
    "text": "◊û◊™◊ô ◊ê◊®◊ô◊ê◊ú ◊õ◊î◊†◊ê ◊û◊ß◊ë◊ú ◊ê◊™ ◊§◊®◊° ◊§◊ï◊ú◊ô◊¶◊®? ◊û◊™◊ô?? ◊õ◊û◊ï ◊õ◊ü, ◊î◊ê◊ù ◊†◊®◊ê◊î ◊ú◊õ◊ù ◊©◊î◊ï◊ê ◊ô◊ï◊ì◊¢ ◊©◊û◊ì◊ï◊ë◊® ◊ë◊ß◊î◊ú ◊©◊ú ◊†◊ï◊¶◊®◊ô◊ù ◊ê◊ï◊ï◊†◊í◊ú◊ô◊°◊ò◊ô◊ù?",
    "placeName": "Israel",
    "lang": "he"
  },
  {
    "index": 332,
    "text": "@BigGeeta Niggas funny af",
    "placeName": "Beaumont, TX",
    "lang": "en"
  },
  {
    "index": 333,
    "text": "https://t.co/LgVQM1rENo",
    "placeName": "Kapar, Selangor",
    "lang": ""
  },
  {
    "index": 334,
    "text": "It‚Äôs going to be a very hard adjustment not napping everyday ... because I‚Äôll be at work üòí",
    "placeName": "Mansfield, MA",
    "lang": "en"
  },
  {
    "index": 335,
    "text": "Havent had a hang over like this in years!!",
    "placeName": "Minneapolis, MN",
    "lang": "en"
  },
  {
    "index": 336,
    "text": "@aupanai Ay , yo perd√≠ much√≠simo peso con los brakets!",
    "placeName": "Madrid, Espa√±a",
    "lang": "es"
  },
  {
    "index": 337,
    "text": "Skins are probably sniffing around for a coach. Surveying the land and then find out what they want to do in a week or so.",
    "placeName": "San Antonio, TX",
    "lang": "en"
  },
  {
    "index": 338,
    "text": "iyi ki doganlar var 01.01ü•≥",
    "placeName": "ƒ∞stanbul, T√ºrkiye",
    "lang": "tr"
  },
  {
    "index": 339,
    "text": "üëÄüëÄ\nhttps://t.co/sEqfK9G51Z",
    "placeName": "Los Angeles, CA",
    "lang": ""
  },
  {
    "index": 340,
    "text": "Retweeting my own post call-for-help to @anchor ü§¶üèª‚Äç‚ôÇÔ∏è",
    "placeName": "Irvine, CA",
    "lang": "en"
  },
  {
    "index": 341,
    "text": "@LakersCanes305 Yessirrrrrrr üòå",
    "placeName": "Mount Juliet, TN",
    "lang": "en"
  },
  {
    "index": 342,
    "text": "@AppleMusic The way I am by @charlieputh Waiting for his next album :)",
    "placeName": "Ruvo di Puglia, Puglia",
    "lang": "en"
  },
  {
    "index": 343,
    "text": "@miguelmarquez @CNN I‚Äôd say cover up the street but then the snipers would have a hard time seeing??",
    "placeName": "Manhattan, NY",
    "lang": "en"
  },
  {
    "index": 344,
    "text": "Taylor‚Äôs Getaway Car shrug. I felt that. #repTourNewYearsDay\n@taylornation13 @taylorswift13 https://t.co/ZrNbbOeI16",
    "placeName": "Pennsylvania, USA",
    "lang": "en"
  },
  {
    "index": 345,
    "text": "i‚Äôm go to off season when school starts back",
    "placeName": "Texas, USA",
    "lang": "en"
  },
  {
    "index": 346,
    "text": "üìª‚ñ∂Ô∏èBABA - @DJSPINALL FT @iamkissdaniel   || \n\non the  #TheHipHopRide with \n\n@Thekshowkshow\n\n    #TopUpTuesday‚Ä¶ https://t.co/tfzi98RvS0",
    "placeName": "Nigeria",
    "lang": "en"
  },
  {
    "index": 347,
    "text": "Mano snrz, s√≥ gratid√£o",
    "placeName": "Rio de Janeiro, Brasil",
    "lang": "pt"
  },
  {
    "index": 348,
    "text": "Bon je vais geeker un peu",
    "placeName": "Sarralbe, France",
    "lang": "fr"
  },
  {
    "index": 349,
    "text": "@lobaoeletrico Cuida lob√£o!!!",
    "placeName": "Caucaia, Brasil",
    "lang": "pt"
  },
  {
    "index": 350,
    "text": "Bir deƒüirmendir bu d√ºnya, √∂ƒü√ºt√ºr bir g√ºn bizi...\n#cahitzarifoglu https://t.co/NRbyZJNfZb",
    "placeName": "Dereli, Giresun",
    "lang": "tr"
  },
  {
    "index": 351,
    "text": "Side hoes never prosper, and she‚Äôs Emily B‚Äôs daughter so I don‚Äôt expect her to know better ü§∑üèΩ‚Äç‚ôÄÔ∏è",
    "placeName": "Jersey City, NJ",
    "lang": "en"
  },
  {
    "index": 352,
    "text": "Happy Healthy 2019 https://t.co/hGb5XlJMWa",
    "placeName": "Sha Wellness Clinic",
    "lang": "en"
  },
  {
    "index": 353,
    "text": "@McFaul @DrYardSale @realDonaldTrump Trump can‚Äôt call Putin he is afraid",
    "placeName": "Duncan, OK",
    "lang": "en"
  },
  {
    "index": 354,
    "text": "#SNELLYEAH",
    "placeName": "Evansville, IN",
    "lang": ""
  },
  {
    "index": 355,
    "text": "@realDonaldTrump You are evidence of no god. When @SecPompeo determines you're not bringing the Rapture, he's going to be disgruntled.",
    "placeName": "Pinehurst, NC",
    "lang": "en"
  },
  {
    "index": 356,
    "text": "@CMiller_13 Telling me we gotta destroy hays for your birthday then",
    "placeName": "Kansas, USA",
    "lang": "en"
  },
  {
    "index": 357,
    "text": "@38specialcolt @Idclair @TNMouth @PradierJ @USATODAY @LynnieAnnH @Rosywillow @elder_jodi @jamacia813 @psychdr100‚Ä¶ https://t.co/rKOhpjRNsE",
    "placeName": "Temple City, CA",
    "lang": ""
  },
  {
    "index": 358,
    "text": "ser√° que eu vou conseguir? sorrir com o cora√ß√£o chorando",
    "placeName": "Mesquita, Brasil",
    "lang": "pt"
  },
  {
    "index": 359,
    "text": "My mom is making a FEAST, and I can‚Äôt even indulge üòî.",
    "placeName": "Chesapeake, VA",
    "lang": "en"
  },
  {
    "index": 360,
    "text": "Feliz ano novo! J√° come√ßamos 2019 com √≥timas companhias! Que venha muita paz, sa√∫de, prosperidade e felicidade para‚Ä¶ https://t.co/17CcllflPN",
    "placeName": "Montes Claros, Brasil",
    "lang": "pt"
  },
  {
    "index": 361,
    "text": "What a shift by the grinders out there, starts w that big hit! @chriswags23 #NHLBruins",
    "placeName": "Los Angeles, CA",
    "lang": "en"
  },
  {
    "index": 362,
    "text": "I‚Äôll be damned if I sit here and have you to make me believe that no one wants me. I‚Äôm glad to be single in 2019 be‚Ä¶ https://t.co/KmTeY7GFt5",
    "placeName": "Brooklyn, NY",
    "lang": "en"
  },
  {
    "index": 363,
    "text": "I was out walking 1.07 km with #Endomondo #endorphins https://t.co/jtuQ3qpaOw",
    "placeName": "Herning, Danmark",
    "lang": "en"
  },
  {
    "index": 364,
    "text": "üòé https://t.co/WNOFCcU5Ka",
    "placeName": "Deventer, Nederland",
    "lang": ""
  },
  {
    "index": 365,
    "text": "@lailapich üòäüòä‚ù§‚ù§",
    "placeName": "Torres, Brasil",
    "lang": ""
  },
  {
    "index": 366,
    "text": "@emirsader @iG Depois esse fds vai recorrer √† quem quando precisar ?",
    "placeName": "Rio de Janeiro, Brasil",
    "lang": "pt"
  },
  {
    "index": 367,
    "text": "Sobrevivendo esse dia a base se cereal https://t.co/MX96T3wHJo",
    "placeName": "Bel√©m, Brasil",
    "lang": "pt"
  },
  {
    "index": 368,
    "text": "@LailaJimenez A m√≠ me parece una falta de respeto total,es lo que dices,te puede gustar o no.",
    "placeName": "Barcelona, Espa√±a",
    "lang": "es"
  },
  {
    "index": 369,
    "text": "@filgmartin @lobaoeletrico @CarlosBolsonaro Entrou para hist√≥ria. Para hist√≥ria dos bons livros. Livros editados co‚Ä¶ https://t.co/d1jrWzoaDz",
    "placeName": "Fortaleza, Brasil",
    "lang": "pt"
  },
  {
    "index": 370,
    "text": "Nah fuck 2017",
    "placeName": "Illinois, USA",
    "lang": "en"
  },
  {
    "index": 371,
    "text": "Remember what happened to Ronnie And Roxie new year wedding #EastEnders",
    "placeName": "Barking, London",
    "lang": "en"
  },
  {
    "index": 372,
    "text": "Sweet girlies",
    "placeName": "Alabama, USA",
    "lang": "en"
  },
  {
    "index": 373,
    "text": "@NWSPhoenix @ArizonaDOT @TaraSimone1 And Valley tourists will still be wearing flip-flops and shorts. ü§£",
    "placeName": "Tempe, AZ",
    "lang": "en"
  },
  {
    "index": 374,
    "text": "üç∑‚ù§Ô∏è ¬°¬°¬°Amor, amistad y vino m√°s que nunca para comenzar con energ√≠a 2019!!! Salud ‚ù§Ô∏è \n\n#vinoAbracadabra‚Ä¶ https://t.co/ieuGsstAUQ",
    "placeName": "Toro, Espa√±a",
    "lang": "es"
  },
  {
    "index": 375,
    "text": "üòç https://t.co/jKoayALcaE",
    "placeName": "Otley, England",
    "lang": ""
  },
  {
    "index": 376,
    "text": "@justinbieber happy 2019! love ya",
    "placeName": "Embu, Brasil",
    "lang": "en"
  },
  {
    "index": 377,
    "text": "all these baaaars no police",
    "placeName": "Lakeland Heights, TX",
    "lang": "en"
  },
  {
    "index": 378,
    "text": "@RicardoMilagre Lindo lindo üòç",
    "placeName": "S√£o Paulo, Brasil",
    "lang": ""
  },
  {
    "index": 379,
    "text": "Annual video created by @YouTube itself set the absolute record in \"dislikes\" &gt;14,000,000!\nWhy heavily promoted nic‚Ä¶ https://t.co/xFpgNst2d8",
    "placeName": "Israel",
    "lang": "en"
  },
  {
    "index": 380,
    "text": "Relaxing New Year's Day with the fam. #fam #familytime #family @ Stonebridge at Potomac Town Center https://t.co/K5LcsvQusv",
    "placeName": "Virginia, USA",
    "lang": "en"
  },
  {
    "index": 381,
    "text": "@sbonaccini @laura_ceruti Buon compleanno e Buon Anno, Presidente...",
    "placeName": "Vibo Valentia, Calabria",
    "lang": "it"
  },
  {
    "index": 382,
    "text": "Uwian na",
    "placeName": "Quezon City, National Capital Region",
    "lang": "tl"
  },
  {
    "index": 383,
    "text": "Y los que cumplen a√±os los 1ero de enero seguir√°n festejando aun ???ü§îü§î",
    "placeName": "Manta, Ecuador",
    "lang": "es"
  },
  {
    "index": 384,
    "text": "hate when customers say i look bored... NIGGA I AM",
    "placeName": "Rancho Cucamonga, CA",
    "lang": "en"
  },
  {
    "index": 385,
    "text": "@supermathskid @Charlmk2 @SheRa_Marley @CylonNumber7 @DeborahJaneOrr @SpillerOfTea I'm a lesbian? @my_real_name",
    "placeName": "Stevenage, East",
    "lang": "en"
  },
  {
    "index": 386,
    "text": "@CanaanCadwell My fault, but Aquarius SZN right after!!",
    "placeName": "Albuquerque, NM",
    "lang": "en"
  },
  {
    "index": 387,
    "text": "Primeiro estresse do ano com a minha m√£e - ‚úîÔ∏è",
    "placeName": "Rio de Janeiro, Brasil",
    "lang": "pt"
  },
  {
    "index": 388,
    "text": "Pain and ecstasy come hand in hand. How will you use your gifts? https://t.co/9I5QIwIZVe",
    "placeName": "Hotel Molina Lario",
    "lang": "en"
  },
  {
    "index": 389,
    "text": "Wonderful the lights just went off. üôÑ",
    "placeName": "Jakobstad, Finland",
    "lang": "en"
  },
  {
    "index": 390,
    "text": "#BBN https://t.co/UBU8oNTJf3",
    "placeName": "Bronston, KY",
    "lang": ""
  },
  {
    "index": 391,
    "text": "–û–±–µ—â–∞—é, –µ—Å–ª–∏ —É –º–µ–Ω—è –°–∞—à–∞ –µ—â—ë —Ä–∞–∑ –ø–æ–ø—Ä–æ—Å–∏—Ç —Å–∫–∏–Ω—É—Ç—å —Å—Å—ã–ª–∫—É –Ω–∞ —á–µ–ª–æ–≤–µ–∫–∞ –∫–æ—Ç–æ—Ä—ã–π –º–Ω–µ –Ω—Ä–∞–≤–∏—Ç—Å—è, —Ç–æ —è –µ–≥–æ –æ—á–µ–Ω—å —Å–∏–ª—å–Ω–æ —É–¥–∞—Ä—é –∏ –∫–∏–Ω—É —Å—é–¥–∞ –≤–∏–¥–æ—Å!!!",
    "placeName": "–ë–µ–ª–∞—Ä—É—Å—å",
    "lang": "ru"
  },
  {
    "index": 392,
    "text": "A hard times without the people you love.....",
    "placeName": "Gombe, Nigeria",
    "lang": "en"
  },
  {
    "index": 393,
    "text": "undecided pa kung anong course na kukunin, pero basta nasa field of science pero parang us2 ko rin archi",
    "placeName": "San Mateo, Cagayan Valley",
    "lang": "tl"
  },
  {
    "index": 394,
    "text": "ÿßŸÑÿ≠ÿ±ŸäŸá ŸÑŸáÿ§ŸÑÿßÿ° ÿßŸÑÿ∞ŸäŸÜ ŸäŸÖŸàÿ™ ÿπÿ¥ŸÇÿ¢ ŸÅ ÿßŸÑÿßŸáŸÑŸâ üíîüíî #ÿßÿÆŸÑÿßÿ°_ÿ≥ÿ®ŸäŸÑ_ÿ¨ŸÖŸáŸàÿ±_ÿßŸÑÿßŸáŸÑŸä",
    "placeName": "ÿßŸÑŸÇÿßŸáÿ±ÿ©, ŸÖÿµÿ±",
    "lang": "ar"
  },
  {
    "index": 395,
    "text": "Is Superman faster than a locomotive?\nWe're about to find out. https://t.co/ZUjaPQuIrQ",
    "placeName": "Laval, Qu√©bec",
    "lang": "en"
  },
  {
    "index": 396,
    "text": "Natulog lang ko, saba na sila sa GC. üòÇüòÇ https://t.co/iEFxaN7Wcu",
    "placeName": "Talisay City, Central Visayas",
    "lang": "tl"
  },
  {
    "index": 397,
    "text": "You‚Äôre asking her to go on that @WayneBrady show with you? We‚Äôve really taken a strange turn to solving government‚Ä¶ https://t.co/TWsS5822us",
    "placeName": "Los Angeles, CA",
    "lang": "en"
  },
  {
    "index": 398,
    "text": "What you people saying who do you want to see me fight this year??\n\n@frankwarren_tv @MTKGlobal #TeamWilliams",
    "placeName": "Manhattan, NY",
    "lang": "en"
  },
  {
    "index": 399,
    "text": "@BOfficial14 That sh*t hurted lol",
    "placeName": "Gilroy, CA",
    "lang": "en"
  },
  {
    "index": 400,
    "text": "Era s√≥ churrasco üòì",
    "placeName": "S√£o Jo√£o de Meriti, Brasil",
    "lang": "pt"
  },
  {
    "index": 401,
    "text": "I love him",
    "placeName": "Toledo, OH",
    "lang": "en"
  },
  {
    "index": 402,
    "text": "@SethayatesDFS @TommyG Ha ha ha, great tweet",
    "placeName": "Ohio, USA",
    "lang": "en"
  },
  {
    "index": 403,
    "text": "@Leo_67 I made it to work. I‚Äôm looking out the window keeping on eye on the snow.",
    "placeName": "Albuquerque, NM",
    "lang": "en"
  },
  {
    "index": 404,
    "text": "@bikic_yanna @DrMayaAngelou Are you having fun with us today",
    "placeName": "Brooklyn, NY",
    "lang": "en"
  },
  {
    "index": 405,
    "text": "@ProjectBuddy @sherrittahughes @Press_LSES",
    "placeName": "Gaithersburg, MD",
    "lang": ""
  },
  {
    "index": 406,
    "text": "Come√ßar o ano junto com os teus amigos, n tem pre√ßo",
    "placeName": "Jaguar√£o, Brasil",
    "lang": "pt"
  },
  {
    "index": 407,
    "text": "Malandro, que virada ü§£ü§£ü§£ü§£",
    "placeName": "S√£o Paulo, Brasil",
    "lang": "pt"
  },
  {
    "index": 408,
    "text": "MvGeeeeeee 2-0sets up üéØüéØ #WHDarts",
    "placeName": "Hammersmith, London",
    "lang": ""
  },
  {
    "index": 409,
    "text": "@AnguaOcean @TBreassealeDHS @kathygriffin The punishment didn‚Äôt fit the crime here, friend",
    "placeName": "North Carolina, USA",
    "lang": "en"
  },
  {
    "index": 410,
    "text": "I know I‚Äôm getting older when I actually start eating the black eye peas on New Years....I use to hate em so much and Nowüòã",
    "placeName": "Georgia, USA",
    "lang": "en"
  },
  {
    "index": 411,
    "text": "@potitos68 Aw üíïüòçüòò",
    "placeName": "Miami, FL",
    "lang": ""
  },
  {
    "index": 412,
    "text": "Good luck!",
    "placeName": "Pulai, Johor",
    "lang": "en"
  },
  {
    "index": 413,
    "text": "Compartimos los ganadores del concurso del #A√±oViejo2018\nPrimer Lugar: \"Juegos Divertidos\" del barrio \"La Primavera‚Ä¶ https://t.co/KRF2H3Bl8D",
    "placeName": "Riobamba, Ecuador",
    "lang": "es"
  },
  {
    "index": 414,
    "text": "@kanyewest Hadn‚Äôt crossed my mind but thanks for the info.",
    "placeName": "Lawrence, IN",
    "lang": "en"
  },
  {
    "index": 415,
    "text": "@Renee_128 i‚Äôm tired of this shit. i‚Äôm on strike",
    "placeName": "Georgia, USA",
    "lang": "en"
  },
  {
    "index": 416,
    "text": "Bomberos Santiago trabaja en Tercera Alarma de #incendio en Manuel Rodr√≠guez y Arturo Prat, Renca, con apoyo de‚Ä¶ https://t.co/WcPUsk0oPU",
    "placeName": "Macul, Chile",
    "lang": "es"
  },
  {
    "index": 417,
    "text": "PSU couldn‚Äôt be losing to a bigger bunch of punks, makes it even tougher to watch. #CitrusBowl",
    "placeName": "Springfield, PA",
    "lang": "en"
  },
  {
    "index": 418,
    "text": "Those 3 words every man wants to hear... @Nymphaela https://t.co/NlLH2ksLBQ",
    "placeName": "Diggle, England",
    "lang": "en"
  },
  {
    "index": 419,
    "text": "I just want the food that i want!",
    "placeName": "Houston, TX",
    "lang": "en"
  },
  {
    "index": 420,
    "text": "@nickpopemod  did you see the news the other day our government  lies just fucked you over sorry for the language b‚Ä¶ https://t.co/1kjxWuR0eB",
    "placeName": "Barnet, London",
    "lang": "en"
  },
  {
    "index": 421,
    "text": "Eee beni yemeksepetinden de takip edebilirsiniz",
    "placeName": "–£–∫—Ä–∞—ó–Ω–∞",
    "lang": "tr"
  },
  {
    "index": 422,
    "text": "Countdown was fucking amazing ü§™",
    "placeName": "Brea, CA",
    "lang": "en"
  },
  {
    "index": 423,
    "text": "@hfc_x6 ŸäÿßÿµÿØŸäŸÇŸä ÿßŸÑŸÜŸàÿßŸäÿß ÿßŸÑÿ∑Ÿäÿ®ÿ© ÿ≥ÿ™ŸÉÿ≥ÿ® .",
    "placeName": "ÿßŸÑŸÖŸÖŸÑŸÉÿ© ÿßŸÑÿπÿ±ÿ®Ÿäÿ© ÿßŸÑÿ≥ÿπŸàÿØŸäÿ©",
    "lang": "ar"
  },
  {
    "index": 424,
    "text": "@Nour99113888 ŸàŸÑÿπ ÿßŸÑÿØŸÜŸäÿßÿßÿßÿßÿßÿßÿß üòéüòÇüòÇüòÇ",
    "placeName": "El Behera, Egypt",
    "lang": "ar"
  },
  {
    "index": 425,
    "text": "@NokhaizSahi ÿßŸÜÿØÿ± ⁄©€å ÿÆÿ®ÿ± ÿØŸà⁄∫ 17 ÿ¨ŸÜŸàÿ±€å ÿ™⁄© ⁄©Ÿàÿ¶€å ÿ≥Ÿà⁄Ü€í ÿ®⁄æ€å ŸÜ€Å€å⁄∫ €ÅŸπÿßŸÜ€í ⁄©ÿß",
    "placeName": "Punjab, Pakistan",
    "lang": "ur"
  },
  {
    "index": 426,
    "text": "Makes me chuckle. https://t.co/gJby32nRff",
    "placeName": "Texas, USA",
    "lang": "en"
  },
  {
    "index": 427,
    "text": "Dormi o dia inteiro brotei na praia s√≥ agora kkkk",
    "placeName": "Arraial do Cabo, Brasil",
    "lang": "pt"
  },
  {
    "index": 428,
    "text": "Nieuwjaarswedstrijd en daarna de drukbezochte nieuwjaarsreceptie bij @alkmaarscheboys \n\nhttps://t.co/52WSAXZQTV",
    "placeName": "Alkmaar, Nederland",
    "lang": "nl"
  },
  {
    "index": 429,
    "text": "@G_Will29 I have no problem with u tweeting u earned that right and u will always b a tiger #ForeverLSU",
    "placeName": "Louisiana, USA",
    "lang": "en"
  },
  {
    "index": 430,
    "text": "She‚Äôs being brought home tomorrow üòç",
    "placeName": "Johannesburg, South Africa",
    "lang": "en"
  },
  {
    "index": 431,
    "text": "Suco de acerola pronto‚ù§",
    "placeName": "Florian√≥polis, Brasil",
    "lang": "pt"
  },
  {
    "index": 432,
    "text": "@Bleifux üòÇ",
    "placeName": "Risch, Schweiz",
    "lang": ""
  },
  {
    "index": 433,
    "text": "@johnpavlovitz https://t.co/BZRlO3vS1Q",
    "placeName": "Michigan, USA",
    "lang": ""
  },
  {
    "index": 434,
    "text": "This generation needs to teach our kids/ future kids the importance of acceptance. It is how we ensure that the wor‚Ä¶ https://t.co/oJ1B7DxI9N",
    "placeName": "Bronx, NY",
    "lang": "en"
  },
  {
    "index": 435,
    "text": "@FlashMQT No, but we do a similar drill as that for part of warmups.",
    "placeName": "Greenfield, WI",
    "lang": "en"
  },
  {
    "index": 436,
    "text": "T√¥ pela pregui√ßa",
    "placeName": "Rio de Janeiro, Brasil",
    "lang": "pt"
  },
  {
    "index": 437,
    "text": "@stoolpresidente Dave...you know better. Stop.",
    "placeName": "St Louis, MO",
    "lang": "en"
  },
  {
    "index": 438,
    "text": "https://t.co/PbMMhSzAEX",
    "placeName": "Saint-G√©rand, France",
    "lang": ""
  },
  {
    "index": 439,
    "text": "‚ö°Ô∏è",
    "placeName": "Nova Igua√ßu, Brasil",
    "lang": ""
  },
  {
    "index": 440,
    "text": "@CSobania Hahaha verdade",
    "placeName": "Curitiba, Brasil",
    "lang": "pt"
  },
  {
    "index": 441,
    "text": "Voc√™ sabe que foi bom, sabe que valeu a pena",
    "placeName": "Dourados, Brasil",
    "lang": "pt"
  },
  {
    "index": 442,
    "text": "Esqueci de tirar foto com higu",
    "placeName": "Sete Lagoas, Brasil",
    "lang": "pt"
  },
  {
    "index": 443,
    "text": "@AlbertoABlanco @rafael_lacalle @Manufer222 @JoseAntDorado @PeterGiMaldo @begonavillacis @anadsoler @RIVAS_Llanera‚Ä¶ https://t.co/2cyS6xkxl3",
    "placeName": "Igualada, Espa√±a",
    "lang": ""
  },
  {
    "index": 444,
    "text": "2019 all I‚Äôm saying is chill. Just chill.",
    "placeName": "Delaware, USA",
    "lang": "en"
  },
  {
    "index": 445,
    "text": "blooming @ Curlies https://t.co/zsykdTKOSO",
    "placeName": "Bardes, India",
    "lang": "en"
  },
  {
    "index": 446,
    "text": "Just got back from eating p much everything great in Mexico City and now I'm here https://t.co/nUMMcYHPax",
    "placeName": "Paradise, NV",
    "lang": "en"
  },
  {
    "index": 447,
    "text": "Sol https://t.co/tCfT6KhwRW",
    "placeName": "Valledupar, Colombia",
    "lang": ""
  },
  {
    "index": 448,
    "text": "Yes an orange jumpsuit would be perfect!",
    "placeName": "Colorado Springs, CO",
    "lang": "en"
  },
  {
    "index": 449,
    "text": "@josemaholgado @Jcrc15Josue @bernardocolsa @Sergiio4laredo @CDLaredo @AtPerines @alvarocavada Holgado,yo las clases‚Ä¶ https://t.co/htmlamSOCb",
    "placeName": "Laredo, Espa√±a",
    "lang": "es"
  },
  {
    "index": 450,
    "text": "Ÿäÿß ÿ•ŸÑŸáŸä ŸÖÿß Ÿáÿ∞ÿß ÿßŸÑÿ™ÿ£ÿ´Ÿäÿ± !!!!ÿüÿüÿü",
    "placeName": "ÿßŸÑÿ¨Ÿáÿ±ÿßÿ°, ÿØŸàŸÑÿ© ÿßŸÑŸÉŸàŸäÿ™",
    "lang": "ar"
  },
  {
    "index": 451,
    "text": "#2k19 ‚ú®üòÑ https://t.co/ZZa2NOmCCe",
    "placeName": "Condeixa-a-Nova, Portugal",
    "lang": ""
  },
  {
    "index": 452,
    "text": "@kanyewest INSPIRED https://t.co/Grdi3oHAHd",
    "placeName": "Henderson, NV",
    "lang": "en"
  },
  {
    "index": 453,
    "text": "@aritearz That‚Äôs psycho! Glad you‚Äôre okay",
    "placeName": "Los Angeles, CA",
    "lang": "en"
  },
  {
    "index": 454,
    "text": "Yeah that‚Äôs right. Find your history needs in here getting RIPPED",
    "placeName": "Corpus Christi, TX",
    "lang": "en"
  },
  {
    "index": 455,
    "text": "Mind, Body, and Soul 2019 will be a year of growth",
    "placeName": "Houston, TX",
    "lang": "en"
  },
  {
    "index": 456,
    "text": "@dii_nog10 Vou falar com os meus bestis e conspirar contra a Dani @TomsDani",
    "placeName": "Valongo, Portugal",
    "lang": "pt"
  },
  {
    "index": 457,
    "text": "@googledmxhorse What a fag",
    "placeName": "New York, USA",
    "lang": "en"
  },
  {
    "index": 458,
    "text": "@ippollo @Telemaster68 –£–≤–µ—Ä–µ–Ω–æ—Å—Ç–∏ –Ω–µ—Ç , –Ω–æ —á–∞—â–µ –≤—Å–µ–≥–æ —ç—Ç–æ —Ä–∞—Å–ø–∏–∑–¥—è–π—Å—Ç–≤–æ.\n–ê –∫–∞–∫ –ª—é–±–∏–ª –≥–æ–≤–æ—Ä–∏—Ç—å –º–æ–π –±—ã–≤—à–∏–π –®–ï–§ : –ì–¥–µ‚Ä¶ https://t.co/o1LpY6kgFT",
    "placeName": "Rƒ´ga, Latvija",
    "lang": "ru"
  },
  {
    "index": 459,
    "text": "I get home and see my parents getting dressed so I‚Äôm like ‚Äúwhere y‚Äôall going?‚Äù then they answer all casually ‚ÄúVegas‚Ä¶ https://t.co/ZCS9KH8Khx",
    "placeName": "Arlington, TX",
    "lang": "en"
  },
  {
    "index": 460,
    "text": "@ingridcoronado Feliz a√±o guapa !",
    "placeName": "Benito Ju√°rez, Distrito Federal",
    "lang": "es"
  },
  {
    "index": 461,
    "text": "Sand volleyball at Golden Gardens just finished up. The time flew. Great conditions for winter in Seattle. We had some good games.",
    "placeName": "Golden Gardens Park",
    "lang": "en"
  },
  {
    "index": 462,
    "text": "@dale_villain Could have been worse mate, you could have been at Redditch where the Yeltz failed to turn up",
    "placeName": "Halesowen, England",
    "lang": "en"
  },
  {
    "index": 463,
    "text": "vou sair comer c meus dengos pq amanh√£ eu volto pra araraq",
    "placeName": "Novo Horizonte, Brasil",
    "lang": "pt"
  },
  {
    "index": 464,
    "text": "I need to start turning off my phone when I'm drunk so I don't text people I shouldn't ü§¶",
    "placeName": "Minnesota, USA",
    "lang": "en"
  },
  {
    "index": 465,
    "text": "@UCF_Football I have to admit that I never thought that a squad of scrubs and walk-ons would even last this long ag‚Ä¶ https://t.co/QLCM0l4x8e",
    "placeName": "Russellville, AL",
    "lang": "en"
  },
  {
    "index": 466,
    "text": "Ÿ¢Ÿ†Ÿ°Ÿ©  https://t.co/ahTd9jcduR",
    "placeName": "Feather Sound, FL",
    "lang": ""
  },
  {
    "index": 467,
    "text": "Thank goodness for #park benches on #hiking #trails @ David Crockett State Park https://t.co/dmajLe9isb",
    "placeName": "Tennessee, USA",
    "lang": "en"
  },
  {
    "index": 468,
    "text": "@Un2nis https://t.co/Kjp6PXJS27",
    "placeName": "Montpellier, France",
    "lang": ""
  },
  {
    "index": 469,
    "text": "2018 was so good to us. Two tours, a single &amp; music video, big crowds, &amp; an even bigger support system. &amp; yet 2019‚Ä¶ https://t.co/H35EuHB9Z4",
    "placeName": "Andover, MA",
    "lang": "en"
  },
  {
    "index": 470,
    "text": "De lo m√°s ir√≥nico del 2018, @ludwikapaleta  hablando de justicia en una entrevista, cuando ella est√° casada con el‚Ä¶ https://t.co/per3eHnwm1",
    "placeName": "Mexico",
    "lang": "es"
  },
  {
    "index": 471,
    "text": "WTAF HAHAHAHAHAHAHAHAHAHHHAHAHAHAHHAHAHHHAHAHHAHHHHHHHAAUAHAHAAHüòÇüò≠üòÇüò≠üòÇ",
    "placeName": "Pasay City, National Capital Region",
    "lang": ""
  },
  {
    "index": 472,
    "text": "Ei, voc√™ que quer prestar concurso para #AUDITOR, #FISCAL, #RECEITAFEDERAL! Chegou a hora de CONFIAR no seu potenci‚Ä¶ https://t.co/Zd0Q4gr6lz",
    "placeName": "Ara√ßatuba, Brasil",
    "lang": "pt"
  },
  {
    "index": 473,
    "text": "The headline alone shows the #absurdity of the #wall",
    "placeName": "Seattle, WA",
    "lang": "en"
  },
  {
    "index": 474,
    "text": "@M6__ee ŸÉŸÑÿ≥Ÿä ÿßŸÉŸà ŸÑŸÑÿßÿ≥ŸÅ ÿ¥ÿ®ÿßÿ®ŸÜÿß ÿ∂ÿ≠ÿ™ ÿ®ÿπŸÖÿ±Ÿáÿß ŸÖŸÜ ÿßÿ¨ŸÑ ŸáÿßŸä ÿßŸÑÿ™ŸÅÿßŸáÿßÿ™",
    "placeName": "Iraq",
    "lang": "ar"
  },
  {
    "index": 475,
    "text": "Kkkkkkkkkkkkkkkkkkkkkkkkk",
    "placeName": "Cabo Frio, Brasil",
    "lang": ""
  },
  {
    "index": 476,
    "text": "Enjoy the sunshine ‚òÄÔ∏è we can't wait to follow your progress. Inspirational to my girlies. Strong mentally and physi‚Ä¶ https://t.co/e9YuVl5Pk5",
    "placeName": "Earls Colne, East",
    "lang": "en"
  },
  {
    "index": 477,
    "text": "8 Ball? Fav this!!üòÅ",
    "placeName": "New Orleans, LA",
    "lang": "en"
  },
  {
    "index": 478,
    "text": "Anpil fwa nan lavi sa a lanmou vinn tankou yon chans, moun ki twouve'l, se moun ki pa merite'l.",
    "placeName": "Santiago, Chili",
    "lang": "ht"
  },
  {
    "index": 479,
    "text": "This year‚Äôs reunion is almost over. Each year is special in its own way and this year was no different. New family‚Ä¶ https://t.co/XsHbsMe9gU",
    "placeName": "Las Vegas, NV",
    "lang": "en"
  },
  {
    "index": 480,
    "text": "My mom is an angel. She had to be up for work @ 3:15am and she was up with me &amp; my fussy baby boy trying to get him‚Ä¶ https://t.co/LLHgGTeVia",
    "placeName": "Redding, CA",
    "lang": "en"
  },
  {
    "index": 481,
    "text": "Caralho acordei agora 18:35 que doideira üòÇüòÇüòÇüòÇüòÇü§§",
    "placeName": "Rio de Janeiro, Brazil",
    "lang": "pt"
  },
  {
    "index": 482,
    "text": "@AbuAlwaleed33 @iGriz7 ÿßŸÑÿ¨ÿ≠ŸàÿØ ÿßŸÑŸÑŸä ŸäŸÑŸÇÿßŸá ŸÖŸÜ ÿ®ÿπÿ∂ ÿ¨ŸÖŸáŸàÿ± ÿßŸÑŸáŸÑÿßŸÑ ŸÖ ÿ™ÿπŸàÿØŸÜÿß ÿπŸÑŸäŸá ÿßÿ®ÿ∞ ŸàÿßŸàŸÑ ŸÖÿ±Ÿá ŸÜÿ¥ŸàŸÅŸá",
    "placeName": "ÿ¨ÿßÿ®ÿ± ÿßŸÑÿπŸÑŸâ, ÿØŸàŸÑÿ© ÿßŸÑŸÉŸàŸäÿ™",
    "lang": "ar"
  },
  {
    "index": 483,
    "text": "Para no perder la costumbre de llevarlo todo a los n√∫meros... I liked It!!! Realmente me gust√≥ √©sta sumatoria...\nüÜó‚Ä¶ https://t.co/CM1RjAm2fD",
    "placeName": "Bogot√°, D.C., Colombia",
    "lang": "es"
  },
  {
    "index": 484,
    "text": "@okcrowe Seriously, his technique is all off. Tsk, tsk, tsk.",
    "placeName": "Gilbert, AZ",
    "lang": "en"
  },
  {
    "index": 485,
    "text": "@LucasGabriel_97 Nem falar que mulher ela √© demais,mano.",
    "placeName": "Duque de Caxias, Brasil",
    "lang": "pt"
  },
  {
    "index": 486,
    "text": "‚Äú Ya≈üamak bizler i√ßin bir imtihandƒ±r. Bilgi kaynaƒüƒ±da Kuran-ƒ± Kerim‚Äôdir. Ba≈üarƒ±nƒ±n sonu cennet, ba≈üarƒ±sƒ±zlƒ±ƒüƒ±n sonu‚Ä¶ https://t.co/UHIqXrhHlT",
    "placeName": "Kocaeli, T√ºrkiye",
    "lang": "tr"
  },
  {
    "index": 487,
    "text": "Conoce un poco sobre el GOBIERNO DEL GENERAL MARCOS P√âREZ JIM√âNEZ https://t.co/x15689tWHR",
    "placeName": "Nueva Esparta, Venezuela",
    "lang": "es"
  },
  {
    "index": 488,
    "text": "@SinEmbargoMX Tres sexenios,Fox,Calder√≥n y Pe√±a, 18 a√±os y no pudieron preparar una polic√≠a profesional,ahora quier‚Ä¶ https://t.co/TaMIHoDhZ1",
    "placeName": "Saltillo, Coahuila de Zaragoza",
    "lang": "es"
  },
  {
    "index": 489,
    "text": "I should have been in this video",
    "placeName": "Baton Rouge, LA",
    "lang": "en"
  },
  {
    "index": 490,
    "text": "@soniacff @indieactivity @francinegirond @FLefebvre_RF @DavidG50_ @GeorgeLetrell @TheGigiGorgeous @Dschoenfeld @makenzie_foster @rhauf ‚ù§Ô∏è",
    "placeName": "Martinique",
    "lang": ""
  },
  {
    "index": 491,
    "text": "Alright that's it fine I'm getting a matching one",
    "placeName": "Mockingbird Valley, KY",
    "lang": "en"
  },
  {
    "index": 492,
    "text": "He preguntado por el grupo a ver si alguien me pod√≠a pasar alguno ¬øCre√©is que alguien me ha pasado algo? \n\nSolo me‚Ä¶ https://t.co/8cztLVqeOY",
    "placeName": "Pontedeume, Espa√±a",
    "lang": "es"
  },
  {
    "index": 493,
    "text": "Ptdr c‚Äô√©tait si facile",
    "placeName": "Limeil-Br√©vannes, France",
    "lang": "fr"
  },
  {
    "index": 494,
    "text": "who let me stay up until 7",
    "placeName": "Fresno, CA",
    "lang": "en"
  },
  {
    "index": 495,
    "text": "Lmaooo @OvauntayVickers our first flipagramüò≠üò≠üò≠ typeshit",
    "placeName": "Michigan, USA",
    "lang": "en"
  },
  {
    "index": 496,
    "text": "@guimaa_5700 Vou a garagem gravar",
    "placeName": "Valongo, Portugal",
    "lang": "pt"
  },
  {
    "index": 497,
    "text": "Available 2019 Guard Noah Back of Perry County Central",
    "placeName": "Georgetown, KY",
    "lang": "en"
  },
  {
    "index": 498,
    "text": "‡∏≠‡∏¢‡πà‡∏≤‡∏á‡πÄ‡∏ä‡πà‡∏ô",
    "placeName": "Bang Khen, Thailand",
    "lang": "th"
  },
  {
    "index": 499,
    "text": "The purpose of this tweet is to highlight my first tweet of 2019:\nI just bodied a plate of French roast &amp; bacon. #HappNewYear2019",
    "placeName": "Manhattan, NY",
    "lang": "en"
  },
  {
    "index": 500,
    "text": "Fui hasta lo de mi abuela, hice un surtidito pa llrvarle a los gurises y no son capaces de venirme a buscar, ahora no les llevo nada",
    "placeName": "Colonia, Uruguay",
    "lang": "es"
  },
  {
    "index": 501,
    "text": "I‚Äôd gladly take another punch in the face while moshing if it means I can go to bonnaroo again https://t.co/tBrYN9zFhN",
    "placeName": "Bonnaroo Music & Arts Festival",
    "lang": "en"
  },
  {
    "index": 502,
    "text": "@esc2016esc ÿßŸÑÿßÿ´ŸÜÿßŸÜ ŸÖÿπÿßŸã .",
    "placeName": "ÿßŸÑÿÆÿ®ÿ±, ÿßŸÑŸÖŸÖŸÑŸÉÿ© ÿßŸÑÿπÿ±ÿ®Ÿäÿ© ÿßŸÑÿ≥ÿπŸàÿØŸäÿ©",
    "lang": "ar"
  },
  {
    "index": 503,
    "text": "‚ú® FELIZ 2019!\nN√£o tem prazer maior do que iniciar o ano em cima do palco com o candybloco. Desejo um ano lindo pra‚Ä¶ https://t.co/mk51SMK8RT",
    "placeName": "Rio de Janeiro, Brazil",
    "lang": "pt"
  },
  {
    "index": 504,
    "text": "uh I'm 5 minutes into watching What the Health and I'm never eating again",
    "placeName": "Claryville, KY",
    "lang": "en"
  },
  {
    "index": 505,
    "text": "Starting the year off right.\n\nHey twin x https://t.co/G2W7QxGvbz",
    "placeName": "Lagos, Nigeria",
    "lang": "en"
  },
  {
    "index": 506,
    "text": "F√©! ‚ù§Ô∏è",
    "placeName": "Viam√£o, Brasil",
    "lang": "pt"
  },
  {
    "index": 507,
    "text": "Is Benny Snell NFL ready?",
    "placeName": "Mississauga, Ontario",
    "lang": "en"
  },
  {
    "index": 508,
    "text": "Leave the Cardi and Nicki Beef In 2018...",
    "placeName": "Florida, USA",
    "lang": "en"
  },
  {
    "index": 509,
    "text": "@SuitNate You don‚Äôt get any, give yours to A.J. or Easley",
    "placeName": "Pecan Plantation, TX",
    "lang": "en"
  },
  {
    "index": 510,
    "text": "O ano √© novo mas doideiras s√£o as mesmas,que noite meus amigos rsssssssü§ë",
    "placeName": "S√£o Gon√ßalo, Brasil",
    "lang": "pt"
  },
  {
    "index": 511,
    "text": "@Doc8Riddle https://t.co/kO757gsX8j",
    "placeName": "Lansing, MI",
    "lang": ""
  },
  {
    "index": 512,
    "text": "I was dead before the house I was sitting in the hotel bathroom head over the toilet for a hour üò≠ü•µ",
    "placeName": "Baltimore, MD",
    "lang": "en"
  },
  {
    "index": 513,
    "text": "Algum cara em Caraj√°s?",
    "placeName": "N√∫cleo Urbano de Caraj√°s",
    "lang": "pt"
  },
  {
    "index": 514,
    "text": "@datdamnmariii Call fast pls and keep your head up!!‚ù£Ô∏è‚ù£Ô∏è",
    "placeName": "Fort Polk South, LA",
    "lang": "en"
  },
  {
    "index": 515,
    "text": "eu fui tomar banho e a √°gua fria tava mais quente que a √°gua quente durante o inverno",
    "placeName": "Feliz, Brasil",
    "lang": "pt"
  },
  {
    "index": 516,
    "text": "2‚ú®19 ‚ù§Ô∏è em Piratuba https://t.co/x4Jd9GgdBK",
    "placeName": "Piratuba, Brasil",
    "lang": "pt"
  },
  {
    "index": 517,
    "text": "And to you!",
    "placeName": "Wadsworth, OH",
    "lang": "en"
  },
  {
    "index": 518,
    "text": "@PalatMyJohnson If you look outside of the home cities, maybe Camping World Stadium is a choice?",
    "placeName": "Tampa, FL",
    "lang": "en"
  },
  {
    "index": 519,
    "text": "Tirei a pelicula do meu celularüò≠üò≠",
    "placeName": "Alvorada, Brasil",
    "lang": "pt"
  },
  {
    "index": 520,
    "text": "Ya no hay pancito chip :( (@ Supermercado El Pueblo in Mariano Roque Alonso, Departamento Central) https://t.co/Lk2VaDYSPz",
    "placeName": "Central, Paraguay",
    "lang": "es"
  },
  {
    "index": 521,
    "text": "@BrankoKelava @ridarco1 Jbt, da je samo plaƒáa, a prekovremni, k-15, bo≈æiƒánica, uskrsnica",
    "placeName": "Hrvatska",
    "lang": "hr"
  },
  {
    "index": 522,
    "text": "Seni derhal g√∂rmeliyim derhal!",
    "placeName": "Nil√ºfer, T√ºrkiye",
    "lang": "tr"
  },
  {
    "index": 523,
    "text": "@RoniMana ◊õ◊©◊î◊û◊†◊ô◊ï◊™ ◊¢◊ï◊ú◊ï◊™ ◊î◊®◊ë◊î ◊û◊¶◊ò◊®◊§◊ô◊ù!!!",
    "placeName": "◊ô◊©◊®◊ê◊ú",
    "lang": "he"
  },
  {
    "index": 524,
    "text": "The Fansville commercials for @drpepper are the best",
    "placeName": "Sarasota, FL",
    "lang": "en"
  },
  {
    "index": 525,
    "text": "so grateful for ppl who make me feel warm like i could be having the worst day and i know that talking to them will‚Ä¶ https://t.co/mcoIorSIGd",
    "placeName": "Diemen, Nederland",
    "lang": "en"
  },
  {
    "index": 526,
    "text": "@HectorArgot Por favoooor heitor",
    "placeName": "Victoria, Tamaulipas",
    "lang": "es"
  },
  {
    "index": 527,
    "text": "SNELL YEAH.",
    "placeName": "Ohio, USA",
    "lang": "en"
  },
  {
    "index": 528,
    "text": "Merci Maxime üíû √† toi aussi et beaucoup de merveilleux moments, avec Cyril d'üíñ üòöüòöüòöüòöüòö",
    "placeName": "Lognes, France",
    "lang": "fr"
  },
  {
    "index": 529,
    "text": "@rotesuende Kenne ich. Hat mit der Muskelerschlaffung kurz vor dem Einschlafen zu tun. Sagt mein Cousin und der ist Arzt.",
    "placeName": "K√∂ln, Deutschland",
    "lang": "de"
  },
  {
    "index": 530,
    "text": "I‚Äôm tucking off to start off 2019 right . Gotta get myself right if I want to have a good year",
    "placeName": "Vacaville, CA",
    "lang": "en"
  },
  {
    "index": 531,
    "text": "@claudioborlotto Grazie a te e alla tua grande competenza",
    "placeName": "Milano, Lombardia",
    "lang": "it"
  },
  {
    "index": 532,
    "text": "16/90",
    "placeName": "Seattle, WA",
    "lang": ""
  },
  {
    "index": 533,
    "text": "Now tell us how u really feel?",
    "placeName": "Pennsylvania, USA",
    "lang": "en"
  },
  {
    "index": 534,
    "text": "It might be hard but as of now he believes what he believes you cannot changes Kanye opinions with facts told from‚Ä¶ https://t.co/6CI1D6koTn",
    "placeName": "Charlotte, NC",
    "lang": "en"
  },
  {
    "index": 535,
    "text": "https://t.co/1dk3ok7sTz",
    "placeName": "Al Qurain, Kuwait",
    "lang": ""
  },
  {
    "index": 536,
    "text": "@LekhchineA @Espoir72622419 üíïüíïüí¶üíïüíï",
    "placeName": "ÿßŸÑÿ¥ÿ±ŸÇŸäÿ©, ŸÖÿµÿ±",
    "lang": ""
  },
  {
    "index": 537,
    "text": "Tava em um lugar com piscina e n√£o tirei uma foto pra colocar \"piscininha amor\" na legenda, t√¥ triste",
    "placeName": "On√ßa de Pitangui, Brasil",
    "lang": "pt"
  },
  {
    "index": 538,
    "text": "üòó",
    "placeName": "Arlington, TX",
    "lang": ""
  },
  {
    "index": 539,
    "text": "# Keep America Grate! POTS Trump is evrey God fearing Americans Presedent... Temp:Crab Orchard, Ky.:47.3¬∞F",
    "placeName": "Kentucky, USA",
    "lang": "en"
  },
  {
    "index": 540,
    "text": "Same me, new goals 2019",
    "placeName": "Texas, USA",
    "lang": "en"
  },
  {
    "index": 541,
    "text": "@CashMontana00 wowwwwww. niggas isn‚Äôt 1k ü§£ü§£",
    "placeName": "Scottdale, GA",
    "lang": "en"
  },
  {
    "index": 542,
    "text": "TEST_PLACE: bd732519-45c7-4943-a023-04dcfcf403fe",
    "placeName": "Twitter HQ",
    "lang": ["en", ""]
  },
  {
    "index": 543,
    "text": "@msannasendra Potser √©s un visionari...!",
    "placeName": "Sort, Spain",
    "lang": "ca"
  },
  {
    "index": 544,
    "text": "@ChrisMears1 @kenadam9 @Akotero @LAChelseaBlues Thanks Chris did not see this... good man üíôüëç",
    "placeName": "Moraga, CA",
    "lang": "en"
  },
  {
    "index": 545,
    "text": "„Å™",
    "placeName": "Á¶èÂ≤° ÂÆáÁæéÁî∫",
    "lang": "ja"
  },
  {
    "index": 546,
    "text": "@FloTrack @TJFlagg WOWZER!!",
    "placeName": "Haslett, MI",
    "lang": ""
  },
  {
    "index": 547,
    "text": "@narcisseae_x ÿßŸàŸÉüòç",
    "placeName": "Lebanon",
    "lang": "ar"
  },
  {
    "index": 548,
    "text": "Happy 2019. Ate our lucky black-eyed peas. Hope they work! #happynewyear2019 @ Lubbock, Texas https://t.co/0XEXYq0knI",
    "placeName": "Lubbock, TX",
    "lang": "en"
  },
  {
    "index": 549,
    "text": "Me parece a mi o vos estas trabajo como de las 10 de la ma√±ana ü§î @cecimarti79 !!!!!??",
    "placeName": "Entre R√≠os, Argentina",
    "lang": "es"
  },
  {
    "index": 550,
    "text": "@PM24778917 „ÅÜ„ÇìüòÉ",
    "placeName": "Èï∑Èáé ÂçÉÊõ≤Â∏Ç",
    "lang": "ja"
  },
  {
    "index": 551,
    "text": "@Gabriel_Ratoo Paga um balde , t√¥ chegando kkkk",
    "placeName": "Rio de Janeiro, Brasil",
    "lang": "pt"
  },
  {
    "index": 552,
    "text": "Cheguei em casa !!",
    "placeName": "Rio de Janeiro, Brasil",
    "lang": "pt"
  },
  {
    "index": 553,
    "text": "G√ºnahlar g√∂steriliyor kimisi cinayet kimisi karƒ± kƒ±z alkol ben aynaya bakƒ±nca k√ºf√ºr etti...",
    "placeName": "Yenimahalle, T√ºrkiye",
    "lang": "tr"
  },
  {
    "index": 554,
    "text": "@TSNHockey @CTVReginaLive So why not show a pic of the new stadium?!?!??!ü§¶‚Äç‚ôÇÔ∏è",
    "placeName": "Regina, Saskatchewan",
    "lang": "en"
  },
  {
    "index": 555,
    "text": "From all of us at The Data Analysis Bureau, we wish you a Happy New Year! Here's to a great 2019! #newyear #2019‚Ä¶ https://t.co/5e3UYe6UzS",
    "placeName": "Dickens Heath, England",
    "lang": "en"
  },
  {
    "index": 556,
    "text": "ÿ≥ÿ£ÿ®ŸÇŸâ ÿπŸÑŸâ ŸäŸÇŸäŸÜ ÿ®ÿ£ŸÜ ŸÖÿß ÿ£ÿ≠ŸÑŸÖ ÿ®Ÿá ÿ≥Ÿäÿ£ÿ™Ÿä ŸäŸàŸÖŸãÿß .",
    "placeName": "ÿßŸÑŸÖŸÖŸÑŸÉÿ© ÿßŸÑÿπÿ±ÿ®Ÿäÿ© ÿßŸÑÿ≥ÿπŸàÿØŸäÿ©",
    "lang": "ar"
  },
  {
    "index": 557,
    "text": "@jas_michelle_ üòÇ shut up it was my cousin @ballout_charlie",
    "placeName": "Cedar Hill, TX",
    "lang": "en"
  },
  {
    "index": 558,
    "text": "Come√ßando o ano na merda",
    "placeName": "Mesquita, Brasil",
    "lang": "pt"
  },
  {
    "index": 559,
    "text": "@Daggerpaul Called him out for never going but moaning about the score üëã",
    "placeName": "Billericay, East",
    "lang": "en"
  },
  {
    "index": 560,
    "text": "@kmcd23 I totally looked at the clock wrong. I thought it was 4+ hours.",
    "placeName": "Minneapolis, MN",
    "lang": "en"
  },
  {
    "index": 561,
    "text": "Smell Yeah!!!",
    "placeName": "Curtice, OH",
    "lang": "en"
  },
  {
    "index": 562,
    "text": "@AlmegrabN ŸáŸáŸáŸáŸáŸáŸáŸáŸáŸá ÿ®ŸÉÿ±ÿß ÿ¨ÿßŸäÿ® ŸÖÿπŸäÿß ÿ®ÿ∑ÿßŸÜŸäŸá ŸÅŸä ÿµŸäÿØŸÑŸäŸá üòÇüòÇ",
    "placeName": "Libya",
    "lang": "ar"
  },
  {
    "index": 563,
    "text": "I'm at Space Mountain - @waltdisneyworld in Lake Buena Vista, FL https://t.co/wfPd3iSRi3",
    "placeName": "Florida, USA",
    "lang": "en"
  },
  {
    "index": 564,
    "text": "@RickSouza @caioalexandre hahahahahahahahhaah\n\nAgora que eu vi que ficou com classifica√ß√£o 14 anos aqui",
    "placeName": "Curitiba, Brasil",
    "lang": "pt"
  },
  {
    "index": 565,
    "text": "@AmyMek This is the future of the USA. Stop illegal immigrants.",
    "placeName": "Oklahoma, USA",
    "lang": "en"
  },
  {
    "index": 566,
    "text": "@DejonaCaffee I love you",
    "placeName": "Indiana, USA",
    "lang": "en"
  },
  {
    "index": 567,
    "text": "Bestie popped in to see us today üòç @ Faversham, Kent https://t.co/89brKAlu3W",
    "placeName": "Faversham, England",
    "lang": "en"
  },
  {
    "index": 568,
    "text": "@CoachShrek Dumb penalties for sure big 4th down coming tho!",
    "placeName": "Celebration, FL",
    "lang": "en"
  },
  {
    "index": 569,
    "text": "Que buena noche chabonnnn",
    "placeName": "C√≥rdoba, Argentina",
    "lang": "es"
  },
  {
    "index": 570,
    "text": "ÿ≠ÿ™Ÿâ ŸáŸÜÿß ŸÖÿ≠ÿØ Ÿäÿπÿ®Ÿëÿ±ŸÜÿß ÿπÿßŸÅÿßŸÜÿß ÿßŸÑŸÑŸá\n\nhttps://t.co/h1AJBOkpsC",
    "placeName": "Al Seeb, Oman",
    "lang": "ar"
  },
  {
    "index": 571,
    "text": "–†—É–±—Ä–∏–∫–∞ - —É–∂–∏–Ω –Ω–∞ 1000—Ä https://t.co/W0a8nXIvwq",
    "placeName": "Lisboa, Portugal",
    "lang": ""
  },
  {
    "index": 572,
    "text": "@buttonalltheway @HordleyJeff Hope he's OK - Emmerdale needs you, Cain!",
    "placeName": "Coleraine, Northern Ireland",
    "lang": "en"
  },
  {
    "index": 573,
    "text": "No s√© decirte No.",
    "placeName": "Nochistl√°n de Mej√≠a, Zacatecas",
    "lang": "es"
  },
  {
    "index": 574,
    "text": "can u shut up",
    "placeName": "Mildenhall, England",
    "lang": "en"
  },
  {
    "index": 575,
    "text": "@NacaoCRF Benedito silva boa tarde",
    "placeName": "Imperatriz, Brasil",
    "lang": "pt"
  },
  {
    "index": 576,
    "text": "149- Selwyn Porter (Citadel) F Matt Swanson (Binghamton) , 6-5 4:58",
    "placeName": "Chattanooga, TN",
    "lang": "en"
  },
  {
    "index": 577,
    "text": "@Gabiscuncio1 Sin dudarlo, era clave",
    "placeName": "Tandil, Argentina",
    "lang": "es"
  },
  {
    "index": 578,
    "text": "is jojo siwa a lesbian",
    "placeName": "Ohio, USA",
    "lang": "en"
  },
  {
    "index": 579,
    "text": "This show üòÇ is too lit üî•#BlackinkChicago https://t.co/LVNUyNf0yQ",
    "placeName": "East London, South Africa",
    "lang": "en"
  },
  {
    "index": 580,
    "text": "@RyanCFowler Sure you did Lincoln!!!  Keep telling yourself and your recruits that.  You got out played the entire‚Ä¶ https://t.co/cDCaBsDQTK",
    "placeName": "El Paso, TX",
    "lang": "en"
  },
  {
    "index": 581,
    "text": "@colts_zone I said yes BUT only cuz how close him and T.Y. are...i don't imagine they're asking a lot either",
    "placeName": "Ridgecrest, CA",
    "lang": "en"
  },
  {
    "index": 582,
    "text": "BUONANOTTE ‚ù§‚ù§‚ù§ https://t.co/dREyKJUVaY",
    "placeName": "Lucca, Toscana",
    "lang": "it"
  },
  {
    "index": 583,
    "text": "I think it's time to upgrade to a new model #gf",
    "placeName": "Florida, USA",
    "lang": "en"
  },
  {
    "index": 584,
    "text": "tentando s√≥ processar a loucura desses dois dias kkkk",
    "placeName": "S√£o Paulo, Brasil",
    "lang": "pt"
  },
  {
    "index": 585,
    "text": "Acordei sem seu pedido de namoro e sem seus beijos",
    "placeName": "Santo Andr√©, Brasil",
    "lang": "pt"
  },
  {
    "index": 586,
    "text": "@russty_russ I got Blackadder II and Fawlty Towers on VHS as presents around the same age...I certainly get more of the jokes now!",
    "placeName": "Leeds, England",
    "lang": "en"
  },
  {
    "index": 587,
    "text": "Here is one every has an opinion on... except me. $TSLA https://t.co/mJc76FonLY",
    "placeName": "Colorado, USA",
    "lang": "en"
  },
  {
    "index": 588,
    "text": "O calor n√£o t√° de brincadeira mesmo",
    "placeName": "Natal, Brasil",
    "lang": "pt"
  },
  {
    "index": 589,
    "text": "Tree lovers!!! @ Treasure Lake Waterfront Property https://t.co/PzBtkeW990",
    "placeName": "Treasure Lake, PA",
    "lang": "en"
  },
  {
    "index": 590,
    "text": "I think you cropped the zanku out of the video. üòÇ",
    "placeName": "Ogun, Nigeria",
    "lang": "en"
  },
  {
    "index": 591,
    "text": "Feliz ano novo 1/365üéÜ‚ú®üçªüçæ https://t.co/xVYDvwsYwo",
    "placeName": "Rio de Janeiro, Brasil",
    "lang": "pt"
  },
  {
    "index": 592,
    "text": "Damn those rat bastards Bruins.",
    "placeName": "Ontario, NY",
    "lang": "en"
  },
  {
    "index": 593,
    "text": "I personally feel like every hyped burger spot is a bit overrated... they never compare to your local bar burgers..‚Ä¶ https://t.co/zkb1vqW3GI",
    "placeName": "Staten Island, NY",
    "lang": "en"
  },
  {
    "index": 594,
    "text": "Ÿäÿßÿ±ÿ® ÿ™ÿ™ŸÖÿØÿØ Ÿàÿ®ÿ£ÿ∞ŸÜ ÿßŸÑŸÑŸá ŸÖŸÑŸÉŸÜÿß ÿ®ŸäŸÅÿ±ÿ≠ŸÜÿß #ÿ™ŸÖÿØŸäÿØ_ÿßŸÑÿßÿ¨ÿßÿ≤Ÿá_ŸÖÿ∑ŸÑÿ®ŸÜÿß_ŸäÿßŸÖŸÑŸÉŸÜÿß",
    "placeName": "Amman, Hashemite Kingdom of Jordan",
    "lang": "en"
  },
  {
    "index": 595,
    "text": "2019 e eu ainda me fudendo com amizade",
    "placeName": "Cabo Frio, Brasil",
    "lang": "pt"
  },
  {
    "index": 596,
    "text": "@newtype_jk47 @ColoradoMelodyG Dmac = Click Whore",
    "placeName": "Ottawa, Ontario",
    "lang": "en"
  },
  {
    "index": 597,
    "text": "@Jali_Cat @ROHLL5 @BarackObama I believe that too. He was and is a destructive person. Only wants good for himself.",
    "placeName": "Florida, USA",
    "lang": "en"
  },
  {
    "index": 598,
    "text": "damn bro ur still in 2018",
    "placeName": "Homestead, FL",
    "lang": "en"
  },
  {
    "index": 599,
    "text": "Queria tirar uma foto do c√©u agora",
    "placeName": "Rio de Janeiro, Brasil",
    "lang": "pt"
  },
  {
    "index": 600,
    "text": "A√±o nuevoü•Ç https://t.co/xcsa74f2Go",
    "placeName": "Playa de San Bernardo",
    "lang": "es"
  },
  {
    "index": 601,
    "text": "@SahgoDN Qualquer aparelho menos no Nintendo Switch",
    "placeName": "Florian√≥polis, Brazil",
    "lang": "pt"
  },
  {
    "index": 602,
    "text": "Yesssss!!!!",
    "placeName": "Los Angeles, CA",
    "lang": "en"
  },
  {
    "index": 603,
    "text": "Si no fueran tan rojos estar√≠an m√°s buenos. en Extremadura, Spain https://t.co/QE9Ut3nSpZ",
    "placeName": "Albal√°, Espa√±a",
    "lang": "es"
  },
  {
    "index": 604,
    "text": "@taylornation13 Love you guys üò≠‚ù§Ô∏è @taylornation13 #repTourNewYearsDay",
    "placeName": "Longmeadow, MA",
    "lang": "en"
  },
  {
    "index": 605,
    "text": "If she not grown I‚Äôm not fw it ü§∑üèΩ‚Äç‚ôÇÔ∏è",
    "placeName": "Las Vegas, NV",
    "lang": "en"
  },
  {
    "index": 606,
    "text": "#SnellYeah",
    "placeName": "Tuscaloosa, AL",
    "lang": ""
  },
  {
    "index": 607,
    "text": "Á±≥Ê≤¢„Å´„ÅÇ„ÇãËè©ÊèêÂØ∫„ÄÅÂíåÂ∞öÊßò„Åå„Çà„ÅèËÅ¥„ÅÑ„Å¶„Åü„Å£„Åë„Å™„ÅÅ‚Ä¶‚Ä¶‚Ä¶\n„Åï„Å¶„Å®üêáüêÅ\n\nArchie Shepp - Life At The Donaueschingen Music Festival (1967) FULL ALBUM\nhttps://t.co/kVTVWxlOmR",
    "placeName": "Â±±ÂΩ¢ Â±±ÂΩ¢Â∏Ç",
    "lang": ["ja", "en", ""]
  },
  {
    "index": 608,
    "text": "@thatasiandrew I respect everyone but Kirby mains tbh",
    "placeName": "San Antonio, TX",
    "lang": "en"
  },
  {
    "index": 609,
    "text": "@OraculoB @flaviogordon Mulher da Dilma , a berenice",
    "placeName": "Manaus, Brasil",
    "lang": "pt"
  },
  {
    "index": 610,
    "text": "@sr_alicja @czaplinskiii @kozalinka53 Dziƒôkujƒô Ci za wszystko!",
    "placeName": "P≈Ço≈Ñsk, Polska",
    "lang": "pl"
  },
  {
    "index": 611,
    "text": "@queenphoenix9 You just gotta send one back and say yours is bigger",
    "placeName": "Long Beach, CA",
    "lang": "en"
  },
  {
    "index": 612,
    "text": "@MarkSGilbert @LeaveMnsLeave First here is the BBC response wriggle, trying to hide the funding in different BBC de‚Ä¶ https://t.co/k340mBSDeJ",
    "placeName": "Romsey, England",
    "lang": "en"
  },
  {
    "index": 613,
    "text": "facts",
    "placeName": "Houston, TX",
    "lang": "en"
  },
  {
    "index": 614,
    "text": "@PibeValderramaP Feliz a√±o hermano que Dios te siga bendiciendo siempre, que este 2019 sea de cielos abiertos para todos!!!",
    "placeName": "Barranquilla, Colombia",
    "lang": "es"
  },
  {
    "index": 615,
    "text": "@sarahjessicalo2 happy new year hope everything has been wonderful (:",
    "placeName": "Ventura, CA",
    "lang": "en"
  },
  {
    "index": 616,
    "text": "What is TRUMP DERANGEMENT SYNDROME?",
    "placeName": "Eastern, Kenya",
    "lang": "en"
  },
  {
    "index": 617,
    "text": "@JJefferson9 @jjetsjeff9 J-E-T-S!",
    "placeName": "Hahnville, LA",
    "lang": ""
  },
  {
    "index": 618,
    "text": "@eskigarajici_ Burasƒ± Sahra garda≈ü burda kan tarihle ya≈üƒ±t.",
    "placeName": "Biskra                                                                                              , Algeria",
    "lang": "tr"
  },
  {
    "index": 619,
    "text": "Gunnaü§∑üèæ‚Äç‚ôÇÔ∏è",
    "placeName": "Dallas, TX",
    "lang": ""
  },
  {
    "index": 620,
    "text": "los necesito 1 poco",
    "placeName": "Gonz√°lez Cat√°n, Argentina",
    "lang": "es"
  },
  {
    "index": 621,
    "text": "O que fazer quando a irma posti√ßa do seu marido da moral pra ele na cara dura ?",
    "placeName": "Itumbiara, Brasil",
    "lang": "pt"
  },
  {
    "index": 622,
    "text": "@ForzaSenBenYok @BesiktasOrdusu Doƒüruysa Bi √ß√∂p daha katƒ±lƒ±r takƒ±ma",
    "placeName": "ƒ∞stanbul, T√ºrkiye",
    "lang": "tr"
  },
  {
    "index": 623,
    "text": "Faz tempo em  https://t.co/MOIT5ROnpX",
    "placeName": "Maring√°, Brasil",
    "lang": "pt"
  },
  {
    "index": 624,
    "text": "@olamelekan00 @0kasu üòÇ üòÇ",
    "placeName": "Tamale, Ghana",
    "lang": ""
  },
  {
    "index": 625,
    "text": "Finalizando as vers√µes editoriais das capas de 2019.1 üòçü§ôüèæ https://t.co/mKLJRTpnSd",
    "placeName": "Mangaratiba, Brasil",
    "lang": "pt"
  },
  {
    "index": 626,
    "text": "@Anacarolinatz Buenoüòä",
    "placeName": "Petare, Venezuela",
    "lang": "es"
  },
  {
    "index": 627,
    "text": "Minor Crash on I-10 EB @ MP23.4 near Exit 23/Michigan Ave. in Mobile. Expect minor delays. More details: https://t.co/BEx9WFIiB2",
    "placeName": "Mobile, AL",
    "lang": "en"
  },
  {
    "index": 628,
    "text": "@MayorOfLA üá∫üá∏üáÆüá±üáµüá∑üôãüèº‚Äç‚ôÄÔ∏èPuerto Rico en Los √Ångeles California",
    "placeName": "Los Angeles, CA",
    "lang": "es"
  },
  {
    "index": 629,
    "text": "Acaba de publicar una foto en Galicia, Spain https://t.co/eNvLmSinWB",
    "placeName": "Antas de Ulla, Espa√±a",
    "lang": "es"
  },
  {
    "index": 630,
    "text": "@tonnycaba @anto_maluff Confirmado est√°.",
    "placeName": "Asuncion, Paraguay",
    "lang": "es"
  },
  {
    "index": 631,
    "text": "For my wife.  I hope too",
    "placeName": "Houston, TX",
    "lang": "en"
  },
  {
    "index": 632,
    "text": "2019 we got:\n\nAvengers: Endgame \nCaptain Marvel \nShazam \nJohn Wick: Chapter 3 \nGodzilla: King of monsters \nStranger‚Ä¶ https://t.co/JdLkxibtF2",
    "placeName": "Lewisville, TX",
    "lang": "en"
  },
  {
    "index": 633,
    "text": "@askmenfess Jawabnya pda basa ingris smwa, ak ga ngereti",
    "placeName": "Bantargebang, Indonesia",
    "lang": "jv"
  },
  {
    "index": 634,
    "text": "Dummy, you can have that without a WALL!",
    "placeName": "Texas, USA",
    "lang": "en"
  },
  {
    "index": 635,
    "text": "Boa tardee",
    "placeName": "Vila Velha, Brasil",
    "lang": "pt"
  },
  {
    "index": 636,
    "text": "#meco #2019 #love #sesimbra #yessesimbra #sesimbraacontece #keepitsimpleandsuper \n#kiss @domos18 em Praia Das Bicas‚Ä¶ https://t.co/wtfYBGAz1J",
    "placeName": "Seixal, Portugal",
    "lang": "pt"
  },
  {
    "index": 637,
    "text": "üíÉ https://t.co/PbEzOTPqf7",
    "placeName": "West Hollywood, CA",
    "lang": ""
  },
  {
    "index": 638,
    "text": "Dios, estaba tan linda, l√°stima que mi noche fue un bodrio",
    "placeName": "Col√≥n, Argentina",
    "lang": "es"
  },
  {
    "index": 639,
    "text": "@caprilevic @matigenero Es un efecto como de video r√°pido (?). No tiene nada de extra√±o",
    "placeName": "La Haya, Holanda",
    "lang": "es"
  },
  {
    "index": 640,
    "text": "Happy New Year and December Positively Tuesday Res...  at Sam, Coffee, Money, &amp; Thyme: https://t.co/3iw99FopJt ‚Ä¶ ‚Ä¶‚Ä¶ https://t.co/uixDr2Dqbc",
    "placeName": "Brooklyn Park, MN",
    "lang": "en"
  },
  {
    "index": 641,
    "text": "Cleared: Incident on #LLine Both directions at 8th Avenue Station",
    "placeName": "Manhattan, NY",
    "lang": "en"
  },
  {
    "index": 642,
    "text": "Just got around to seeing Bumblebee and I have to say that it completely surprised me. Such a sweet little film wit‚Ä¶ https://t.co/gRT5aYcRIT",
    "placeName": "Johnson City, TN",
    "lang": "en"
  },
  {
    "index": 643,
    "text": "Boom!",
    "placeName": "Manhattan, NY",
    "lang": "en"
  },
  {
    "index": 644,
    "text": "Cleared: Incident on #LLine Both directions at 8th Avenue Station",
    "placeName": "Manhattan, NY",
    "lang": "en"
  },
  {
    "index": 645,
    "text": "@hermes_e_renata https://t.co/cZnYwdvPuD",
    "placeName": "Ipojuca, Brasil",
    "lang": ""
  },
  {
    "index": 646,
    "text": "@RobertoBolle √à va bh√©, pura poesia...incantata üòç#alessandraferri",
    "placeName": "Caselle in Pittari, Campania",
    "lang": "it"
  },
  {
    "index": 647,
    "text": "Cleared: Incident on #LLine Both directions at 8th Avenue Station",
    "placeName": "Manhattan, NY",
    "lang": "en"
  },
  {
    "index": 648,
    "text": "Everyone give your doggies some extra lovin‚Äô today! We are their whole world and they deserve all the love we can g‚Ä¶ https://t.co/RDfLJ6Lqhi",
    "placeName": "Ohio, USA",
    "lang": "en"
  },
  {
    "index": 649,
    "text": "As good an all-round player as you could ever hope to see",
    "placeName": "Brampton, Ontario",
    "lang": "en"
  },
  {
    "index": 650,
    "text": "@CitrusBowl @CWStadium Blue got it.",
    "placeName": "Kentucky, USA",
    "lang": "en"
  },
  {
    "index": 651,
    "text": "V.Gerwen komt komt op een 2-0 voorsprong \n\n#rtl7darts",
    "placeName": "Enschede, Nederland",
    "lang": "nl"
  },
  {
    "index": 652,
    "text": "ƒ∞la cehenneme z√ºmera",
    "placeName": "Nev≈üehir, T√ºrkiye",
    "lang": "tr"
  },
  {
    "index": 653,
    "text": "I can speak, I can breath, I can love... I'm not a robot! @ Uberl√¢ndia https://t.co/RKMZZJAwPI",
    "placeName": "Uberl√¢ndia, Brasil",
    "lang": "en"
  },
  {
    "index": 654,
    "text": "This is the worse offensive performance since Bill O‚ÄôBrien was the head coach",
    "placeName": "Rock Hill, SC",
    "lang": "en"
  },
  {
    "index": 655,
    "text": "C√≥mo se va a largar a llover as√≠?",
    "placeName": "Mor√≥n, Argentina",
    "lang": "es"
  },
  {
    "index": 656,
    "text": "@LLaurentino7 te amo.üíëüôèüèæü•≥",
    "placeName": "Duque de Caxias, Brasil",
    "lang": ""
  },
  {
    "index": 657,
    "text": "ŸÖŸÜ Ÿäÿ™ÿ∞ŸÉÿ±Ÿáÿß ÿü!",
    "placeName": "ÿßŸÑÿ¥ÿ±ŸÇŸäÿ©, ÿ≥ŸÑÿ∑ŸÜÿ© ÿπŸÖÿßŸÜ",
    "lang": "ar"
  },
  {
    "index": 658,
    "text": "!!!!!!",
    "placeName": "Issy-les-Moulineaux, France",
    "lang": ""
  },
  {
    "index": 659,
    "text": "@WWEgames Finally being able to play as @KingRicochet  in #WWE2K19",
    "placeName": "Oxford, England",
    "lang": "en"
  },
  {
    "index": 660,
    "text": "@M_O_Rashed5 @Islamabobakr2 ŸáŸàÿ® ŸáŸàÿ® üòÇüòÇ",
    "placeName": "ÿßŸÑÿØŸÇŸáŸÑŸäÿ©, ŸÖÿµÿ±",
    "lang": "ar"
  },
  {
    "index": 661,
    "text": "@AnaliaCorrea8 Que esperas para largar todo y venirte a este bendito pais?",
    "placeName": "Israel",
    "lang": "es"
  },
  {
    "index": 662,
    "text": "I lowkey want a puppy omg",
    "placeName": "Manhattan, NY",
    "lang": "en"
  },
  {
    "index": 663,
    "text": "üòÇü§£üòÇü§£masa woboa ü§• \nLet us see the money u r talking about üåö",
    "placeName": "Accra, Ghana",
    "lang": "en"
  },
  {
    "index": 664,
    "text": "Hello 2019‚ù§üíöüíôüß°üíõüíúüíñ https://t.co/7aHfUjvEJK",
    "placeName": "Bradford, England",
    "lang": "en"
  },
  {
    "index": 665,
    "text": "@AstroTerry Happy New Year toyou too!!",
    "placeName": "Beverly, MA",
    "lang": "en"
  },
  {
    "index": 666,
    "text": "„Ç¶„Ç§„Çπ„Ç≠„ÉºÂÖ®ÁÑ∂Â•Ω„Åç„Åò„ÇÉ„Å™„ÅÑ„Åë„Å©„ÄÅÊµÅË°å„Å£„Å¶„Çã„ÅΩ„Åè„Å¶„Çà„ÅèÂá∫„Å¶„Åè„Çã„Åã„ÇâÈ£≤„ÇÄ„Åë„Å©„ÄÅÂ•Ω„Åç„Åò„ÇÉ„Å™„ÅÑ„Åã„Çâ„Ç∞„Éì„Ç∞„Éì„ÅÑ„Åë„Å™„Åè„Å¶È£≤„Åø„Åô„Åé„Å™„ÅÑ„ÅÆ„Å®„ÄÅËí∏ÁïôÈÖí„Å†„Åã„ÇâÁøåÊó•„ÅåÊ•ΩÔºü„Å™Ê∞ó„Åå„Åó„Å¶„ÄÇÁµêÊßã„Ç¢„É™„Åã„ÇÇ",
    "placeName": "Brooklyn, NY",
    "lang": "ja"
  },
  {
    "index": 667,
    "text": "2018, you have done me so well. Took all the lessons learned from my mistakes and difficult times last year to make‚Ä¶ https://t.co/WenIdNOImU",
    "placeName": "Marikina City, National Capital Region",
    "lang": "en"
  },
  {
    "index": 668,
    "text": "@ArlequinaYoyo Ai droga",
    "placeName": "Cabo Frio, Brasil",
    "lang": ""
  },
  {
    "index": 669,
    "text": "@yunuseress Yersin dayagƒ±",
    "placeName": "ƒ∞stanbul, T√ºrkiye",
    "lang": "tr"
  },
  {
    "index": 670,
    "text": "Saludos desde la oficina.. https://t.co/rznU3omhwH",
    "placeName": "Cuauht√©moc, Distrito Federal",
    "lang": "es"
  },
  {
    "index": 671,
    "text": "passei gilette na perna e agr t√° co√ßando mttttt q agonia",
    "placeName": "Rio de Janeiro, Brasil",
    "lang": "pt"
  },
  {
    "index": 672,
    "text": "Y‚Äôall gon show em bro.",
    "placeName": "Lafayette, LA",
    "lang": "en"
  },
  {
    "index": 673,
    "text": "@michaelkellyno1 Ah like! What‚Äôs going on üôà",
    "placeName": "Cork, Ireland",
    "lang": "en"
  },
  {
    "index": 674,
    "text": "That rob drawg @ New York, New York https://t.co/qBpBt1FvOP",
    "placeName": "Manhattan, NY",
    "lang": "en"
  },
  {
    "index": 675,
    "text": "2018 foi aben√ßoado e 2019 ser√° tamb√©m.. pra cimaüôèüèªüí∏",
    "placeName": "S√£o Vicente, Brasil",
    "lang": "pt"
  },
  {
    "index": 676,
    "text": "Happy New Bacon üéâü•ì\n.\n#GraffitiCookery ‚Ä¢ #HappyNewYear ‚Ä¢ #Bacon\n. @ The Graffiti Cookery https://t.co/1NActY01ST",
    "placeName": "California, USA",
    "lang": "en"
  },
  {
    "index": 677,
    "text": "Ontem eu passei o dia todo refletindo sobre algumas coisas q aconteceram cmg durante o ano e que me chatearam mt",
    "placeName": "Itagua√≠, Brasil",
    "lang": "pt"
  },
  {
    "index": 678,
    "text": "Happy New Year to all our clients, colleagues and friends and thank you for your continued support! \n\n2018 was busy‚Ä¶ https://t.co/YxOxI9lUFA",
    "placeName": "Manchester, England",
    "lang": "en"
  },
  {
    "index": 679,
    "text": "@falLingG_doWn –£ –Ω–∞—Å —Å –ø–æ–¥—Ä—É–≥–æ–π —Ç–æ–∂–µ —Å–∞–º–æ–µüòÅ",
    "placeName": "–õ–∞–±–∏–Ω—Å–∫, –ö—Ä–∞—Å–Ω–æ–¥–∞—Ä—Å–∫–∏–π –∫—Ä–∞–π",
    "lang": "ru"
  },
  {
    "index": 680,
    "text": "Simple Patchwork class  https://t.co/YAoDkNHWiR",
    "placeName": "Baraboo, WI",
    "lang": "en"
  },
  {
    "index": 681,
    "text": "we‚Äôre back like it 2014 https://t.co/YVch5q7OXQ",
    "placeName": "Virginia Beach, VA",
    "lang": "en"
  },
  {
    "index": 682,
    "text": "@rjalhayyan ÿ£ŸÜÿ¥ŸáÿØ ÿßŸÜŸä ÿ£ÿ∞ŸÉÿ±Ÿá\nŸÖŸÑÿÆÿµ ÿßŸÑÿØŸàÿ±Ÿä ÿßŸÑÿßŸÜÿ¨ŸÑŸäÿ≤Ÿä\nÿßŸÑÿ¨ŸÖÿπÿ© ( ŸÑŸäŸÑÿ© ÿßŸÑÿ≥ÿ®ÿ™ )!",
    "placeName": "ÿØŸàŸÑÿ© ÿßŸÑŸÉŸàŸäÿ™",
    "lang": "ar"
  },
  {
    "index": 683,
    "text": "@mavs_brasil Acho caro.",
    "placeName": "Joinville, Brasil",
    "lang": "pt"
  },
  {
    "index": 684,
    "text": "You are a teeny tiny man. You open your mouth a spew rotten bile from it daily. You wonder why everyone hates you y‚Ä¶ https://t.co/FNtHJT454m",
    "placeName": "Conway, FL",
    "lang": "en"
  },
  {
    "index": 685,
    "text": "Perkataan Pemersatu Bangsa Ialah\nButo Ancau Dan Punde. Semua kaum guna lol üòÇ",
    "placeName": "Kubang Pasu, Kedah",
    "lang": "ms"
  },
  {
    "index": 686,
    "text": "@BigKutta1 @NickFoles Couldn‚Äôt be the help of the costume ü§î",
    "placeName": "Greensboro, NC",
    "lang": "en"
  },
  {
    "index": 687,
    "text": "Ano na kayang magawa? Haha",
    "placeName": "Pasig City, National Capital Region",
    "lang": "tl"
  },
  {
    "index": 688,
    "text": "Ya vi a muchos q terminaron empezaron as√≠ el A√±o Nuevo #enero #Feliz2019 #FelizMartes https://t.co/fz2iGg1CZh",
    "placeName": "Peru",
    "lang": "es"
  },
  {
    "index": 689,
    "text": "Like the spand of a week",
    "placeName": "Atlanta, GA",
    "lang": "en"
  },
  {
    "index": 690,
    "text": "@EalingHour Happy New Year to you all üôåüèΩ‚ú®",
    "placeName": "Ealing, London",
    "lang": "en"
  },
  {
    "index": 691,
    "text": "the headache I had last night was unreal üò©üòÇ",
    "placeName": "Las Vegas, NV",
    "lang": "en"
  },
  {
    "index": 692,
    "text": "@JeremyClarkson Rose Bowl - Ohio vs Washington",
    "placeName": "Copenhagen, Denmark",
    "lang": "en"
  },
  {
    "index": 693,
    "text": "@fastdragon45 @AdamLemkeRacing @NickLaBrecque Thanks so much Arturo!!",
    "placeName": "Le Sueur, MN",
    "lang": "en"
  },
  {
    "index": 694,
    "text": "Almost a shame to tear into a piece of Fordite this nice @ The Badger Den at Elsewhere https://t.co/EFQwm7fKy1",
    "placeName": "Gothenburg, Sweden",
    "lang": "en"
  },
  {
    "index": 695,
    "text": "New year new bolsita",
    "placeName": "Bloomington, CA",
    "lang": "en"
  },
  {
    "index": 696,
    "text": "@xozuu Lindo dms te amo",
    "placeName": "Os√≥rio, Brasil",
    "lang": ""
  },
  {
    "index": 697,
    "text": "Tengo que activar a hacer miles de cosas pero s√≥lo tengo ganas de fumar porro, charlar y tomar mates con my people",
    "placeName": "Neuqu√©n, Argentina",
    "lang": "es"
  },
  {
    "index": 698,
    "text": "@olavinha1988 @phabllo_ricardo Ferrovias, enfrentando a m√°fia da Anfavea.",
    "placeName": "Brasil",
    "lang": "pt"
  },
  {
    "index": 699,
    "text": "@GaugherSexy üòäüíõ‚ù§Ô∏èüòöüáßüá∑",
    "placeName": "S√£o Paulo, Brasil",
    "lang": ""
  },
  {
    "index": 700,
    "text": "Lol",
    "placeName": "Burlington, VT",
    "lang": ""
  },
  {
    "index": 701,
    "text": "Puta meta de relacionamento, companheirismo, sem mimimi, coisa de alma, admiro demais, quem sabe um dia chego perto‚Ä¶ https://t.co/XWQWQ7j4lq",
    "placeName": "Juiz de Fora, Brasil",
    "lang": "pt"
  },
  {
    "index": 702,
    "text": "Mas √†s vezes mando todo mundo tomar no c√∫",
    "placeName": "Guaruj√°, Brasil",
    "lang": "pt"
  },
  {
    "index": 703,
    "text": "Bowl wins are the shit. New Year's Day bowl wins are even better! #GoHawks https://t.co/IhFa7Ymp1R",
    "placeName": "Windsor Heights, IA",
    "lang": "en"
  },
  {
    "index": 704,
    "text": "@PassengerShame Based on anecdotal experience the people who say ‚ÄúI will never fly this airline again‚Äù (or somethin‚Ä¶ https://t.co/QsGruW3eyi",
    "placeName": "California, USA",
    "lang": "en"
  },
  {
    "index": 705,
    "text": "#–ø–∞–ø–∏–Ω–∞–¥–æ—á–∫–∞ @ Mayrhofen / Hippach im Zillertal https://t.co/aw1j7AGIAj",
    "placeName": "Mayrhofen, Austria",
    "lang": "de"
  },
  {
    "index": 706,
    "text": "@AmbNikkiHaley @NikkiHaley Thank you for your service &amp; leadership! Have a wonderful New Year!",
    "placeName": "Manhattan, NY",
    "lang": "en"
  },
  {
    "index": 707,
    "text": "What happened last night!?",
    "placeName": "Ahome, Sinaloa",
    "lang": "en"
  },
  {
    "index": 708,
    "text": "@MichaelVaughan Yep, a Chicken Shaghorana with all the usual side dishes from The Bhaji in E14, magnificent",
    "placeName": "Poplar, London",
    "lang": "en"
  },
  {
    "index": 709,
    "text": "This job might be a great fit for you: Junior Software Engineer - https://t.co/bLuqByyesY",
    "placeName": "Pleasanton, CA",
    "lang": "en"
  },
  {
    "index": 710,
    "text": "@spasbus üëåüèΩ",
    "placeName": "Heywood, England",
    "lang": "en"
  },
  {
    "index": 711,
    "text": "@KennoUTJ @Danny_Wafc @TNaylor1993Wafc @JHutchinson1993 Be fine this season &amp; we will go again next season it‚Äôs a learning curve!",
    "placeName": "Wigan, England",
    "lang": "en"
  },
  {
    "index": 712,
    "text": "algu√©m lan√ßa um podcast novo bom por favo socorro",
    "placeName": "Saquarema, Brasil",
    "lang": "pt"
  },
  {
    "index": 713,
    "text": "Another one of my cadets being given a great opportunity to become the Lord Lieutenants Cadet for 2019. Cadet Serge‚Ä¶ https://t.co/bkAHIsawS7",
    "placeName": "Newport, Wales",
    "lang": "en"
  },
  {
    "index": 714,
    "text": "Day 1 of 365: I got a free Starbucks ‚ù§Ô∏è",
    "placeName": "Perris, CA",
    "lang": "en"
  },
  {
    "index": 715,
    "text": "@ClansBeezy üòÇüòÇüòÇüòÇüòÇüòÇüòÇüòÇüòÇüòÇ",
    "placeName": "Centre, Cameroon",
    "lang": ""
  },
  {
    "index": 716,
    "text": "@KNINQT ü§îü§†",
    "placeName": "Hastings, England",
    "lang": ""
  },
  {
    "index": 717,
    "text": "@FoxOnABox_ @fuegote @LJoyce11 We should go together. I am also thoroughly mediocre.",
    "placeName": "Provo, UT",
    "lang": "en"
  },
  {
    "index": 718,
    "text": "@say_cem @TugayTopbas ama nerenin eƒüitimiyle olur o √ßok boyutlu bir mesele",
    "placeName": "Apple Valley, MN",
    "lang": "tr"
  },
  {
    "index": 719,
    "text": "New year, new challenge ‚Äì the slalom skiers want to learn to snowboard. Welcome to the bruised backside club!‚Ä¶ https://t.co/DND9FZ71QI",
    "placeName": "Tignes, France",
    "lang": "en"
  },
  {
    "index": 720,
    "text": "I dunno if you can claim to be a good make up artist if you‚Äôre literally just painting the same face on everyone re‚Ä¶ https://t.co/CXyxKRnVpo",
    "placeName": "South West, England",
    "lang": "en"
  },
  {
    "index": 721,
    "text": "@Kelebogile__k Elore why o tima soundüôÑ",
    "placeName": "Sandton, South Africa",
    "lang": ""
  },
  {
    "index": 722,
    "text": "I'd like my ten minutes back but it's my own fault for reading an interview with this jackass",
    "placeName": "Thessaloniki, Greece",
    "lang": "en"
  },
  {
    "index": 723,
    "text": "@TwumBARIMA_1 I don't know inside how i go stake?",
    "placeName": "Accra, Ghana",
    "lang": "en"
  },
  {
    "index": 724,
    "text": "@neaalashayxoxo Bitchh me too",
    "placeName": "Michigan, USA",
    "lang": "en"
  },
  {
    "index": 725,
    "text": "Ready to sleep until 2020",
    "placeName": "North Tonawanda, NY",
    "lang": "en"
  },
  {
    "index": 726,
    "text": "@CallMeMoprah @DingleTeach I‚Äôve been toying more with a workshop &amp; standards-based Learning approach in HS ELA and‚Ä¶ https://t.co/qNvjhDw4PJ",
    "placeName": "Erie, PA",
    "lang": "en"
  },
  {
    "index": 727,
    "text": "@HOES_wanabeRICH ü§¶üèæ‚Äç‚ôÇÔ∏èü§¶üèæ‚Äç‚ôÇÔ∏èü§¶üèæ‚Äç‚ôÇÔ∏è",
    "placeName": "Georgia, USA",
    "lang": ""
  },
  {
    "index": 728,
    "text": "you see now, fuck",
    "placeName": "Dubai, United Arab Emirates",
    "lang": "en"
  },
  {
    "index": 729,
    "text": "#gameofthronescolombia #avengerscolombia #2019 #newyear #a√±onuevo en Colombia https://t.co/UOX8LAS3Nz",
    "placeName": "San Luis de Cubarral, Colombia",
    "lang": "es"
  },
  {
    "index": 730,
    "text": "@funder #TrumpResign",
    "placeName": "Malden, MA",
    "lang": ""
  },
  {
    "index": 731,
    "text": "@aneshtonisi No eastern cape",
    "placeName": "King Williams Town, South Africa",
    "lang": "en"
  },
  {
    "index": 732,
    "text": "@Martin_StJean Bonne ann√©e Martin,sant√©,succ√®s et que nos Broncos retrouve le chemin de la cr√©dibilit√© üëç",
    "placeName": "Shawinigan, Qu√©bec",
    "lang": "fr"
  },
  {
    "index": 733,
    "text": "Cleveland's best Al Pastor! With @CrystalInCLE. (@ La Plaza Supermarket in Cleveland, OH) https://t.co/Fl8XjyL5ux https://t.co/seUfY7th2Z",
    "placeName": "Cleveland, OH",
    "lang": "en"
  },
  {
    "index": 734,
    "text": "@Neemzy a scammer, only explanation üòÇ",
    "placeName": "Goddard, MD",
    "lang": "en"
  },
  {
    "index": 735,
    "text": "pagbaba galing kwarto.\n\nmama: Goodmorning kuya Macky! happy new year! üòä\nme: goodmorning ka diyan. wala mo giopen an‚Ä¶ https://t.co/tCRnJ83wk6",
    "placeName": "Lakewood, CA",
    "lang": "tl"
  },
  {
    "index": 736,
    "text": "@sapateixon feeeeeeeeeliiiiiiizzzzzzzzz ano novo, teixon ‚ô•Ô∏è",
    "placeName": "S√£o Paulo, Brasil",
    "lang": "pt"
  },
  {
    "index": 737,
    "text": "@ronkizzle93 @EditiEffiong You ought to do a meet and greet for your people in Akure thoüò¢ preferably adesua/bankyüòÅ",
    "placeName": "Akure, Nigeria",
    "lang": "en"
  },
  {
    "index": 738,
    "text": "GUERREIRA",
    "placeName": "Rio de Janeiro, Brasil",
    "lang": "pt"
  },
  {
    "index": 739,
    "text": "Dejen de llorar que no hace tanto calor (?)",
    "placeName": "Ciudad Aut√≥noma de Buenos Aires, Argentina",
    "lang": "es"
  },
  {
    "index": 740,
    "text": "@TickedOff6 You got this. Better things are around the corner.",
    "placeName": "Richmond, VA",
    "lang": "en"
  },
  {
    "index": 741,
    "text": "I'm at Áü•Â§öÂçäÁî∞ÈßÖ in ÂçäÁî∞Â∏Ç, ÊÑõÁü•Áúå https://t.co/CsNUy3nwCU",
    "placeName": "ÊÑõÁü• ÂçäÁî∞Â∏Ç",
    "lang": "en"
  },
  {
    "index": 742,
    "text": "Happy New Year üéäüéâ #2019 https://t.co/Bv6GJYVoS2",
    "placeName": "ƒ∞stanbul, T√ºrkiye",
    "lang": "en"
  },
  {
    "index": 743,
    "text": "Respeito, considera√ß√£o, aceita√ß√£o, ben√ß√£o, f√©. \nEsse √© o nosso Presidente Jair Messias Bolsonaro üôèüáßüá∑üôèüáßüá∑üôèüáßüá∑üôèüáßüá∑ em Ti‚Ä¶ https://t.co/HhP1rAhb7a",
    "placeName": "Rio de Janeiro, Brasil",
    "lang": "pt"
  },
  {
    "index": 744,
    "text": "@trbl_up_tmillrd @Bobby_Seagull well l think the answer is 90",
    "placeName": "Cambridge, England",
    "lang": "en"
  },
  {
    "index": 745,
    "text": "Pete Carroll says Delano Hill (hip) is headed to IR. Got injured in the regular-season finale. Tough blow for #Seahawks safety depth.",
    "placeName": "Renton, WA",
    "lang": "en"
  },
  {
    "index": 746,
    "text": "Stfu, you Bullshit ass ‚Äúpresident‚Äù!\nYou seriously have nothing better to do, than tweet idiotic stuff all day long.",
    "placeName": "Bakersfield, CA",
    "lang": "en"
  },
  {
    "index": 747,
    "text": "ŸÇÿØ ŸÖŸÜ €±€∏€∞ ÿØÿ±ÿ¨Ÿá ÿ≥ŸÑÿ≥€åŸàÿ≥ Ÿáÿ≥ÿ™ÿ¥ Ÿà Ÿàÿ≤ŸÜŸÖ ŸáŸÖ €µ€µ ŸÅŸàÿ™\n⁄©ŸÅÿ¥ŸÖ ŸáŸÖ Ÿæÿßÿ¥ŸÜŸá ÿ¥ ÿ≥Ÿá Ÿæÿßÿ≥⁄©ÿßŸÑ ÿ®€åÿ¥ÿ™ÿ± ŸÜŸÖ€åÿ¥Ÿá\nÿ®Ÿá ŸÜÿ∏ÿ±ÿ™ŸàŸÜ ⁄ÜŸÜÿØ ÿ≥ÿßŸÜÿ™ ÿØ€å⁄ØŸá Ÿàÿ≤ŸÜ ÿßÿ∂ÿßŸÅŸá ⁄©ŸÜŸÖ Ÿá€å⁄©ŸÑŸÖ ÿÆŸàÿ® ŸÖ€åÿ¥Ÿáÿü",
    "placeName": "Islamic Republic of Iran",
    "lang": "fa"
  },
  {
    "index": 748,
    "text": "@elpanfletope @AlanGarciaPeru Ya vas a caer gordo CTM",
    "placeName": "Surquillo, Peru",
    "lang": "es"
  },
  {
    "index": 749,
    "text": "Happy #NewYearsDay üéâ\nRemember you are only as sweet as the amount of sugar you put in your tea ‚òïÔ∏è https://t.co/bhYtRzGwXC",
    "placeName": "London, England",
    "lang": "en"
  },
  {
    "index": 750,
    "text": "I‚Äôm absolutely going to make this my year. I‚Äôm going to start seriously looking after myself and putting myself fir‚Ä¶ https://t.co/RIgABfcp0x",
    "placeName": "Plymouth, England",
    "lang": "en"
  },
  {
    "index": 751,
    "text": "Was it worth it? Would you do it again?",
    "placeName": "Queens, NY",
    "lang": "en"
  },
  {
    "index": 752,
    "text": "e eu que falei para o meu tio que gostava de Sorriso Maroto a√≠ ele disse que ia no mercado e demorou uns 40min mas‚Ä¶ https://t.co/sxqaMZxBJ9",
    "placeName": "Praia Grande, Brasil",
    "lang": "pt"
  },
  {
    "index": 753,
    "text": "@dmac1043 I agree  @dmac1043! This team needs a drastic change from the path they have been on. To rebuild &amp; to do‚Ä¶ https://t.co/4ecMzbUsEo",
    "placeName": "Greeley, CO",
    "lang": "en"
  },
  {
    "index": 754,
    "text": "@Feljpe Pena que a considera√ß√£o n√£o foi rec√≠proca. :'(",
    "placeName": "53 Ave And Halleck Ave SW",
    "lang": "pt"
  },
  {
    "index": 755,
    "text": "Everyone in the audience of Taylor Swift‚Äôs Reputation Tour documentary looks like a clone of Shailene Woodley",
    "placeName": "Chicago, IL",
    "lang": "en"
  },
  {
    "index": 756,
    "text": "üî¥ YOU ARE ENOUGH üî¥\nYou were born being enough. It doesn‚Äôt matter who you used to be; what matters is who you decide‚Ä¶ https://t.co/FDvgIImMgC",
    "placeName": "Nevada, USA",
    "lang": "en"
  },
  {
    "index": 757,
    "text": "Ich habe vorausgesagt, dass die New Orleans Saints zum Super Bowl LIII Champion gekr√∂nt werden! Klicke unten, um de‚Ä¶ https://t.co/QjGZkyk8Pq",
    "placeName": "Wiesbaden, Deutschland",
    "lang": "de"
  },
  {
    "index": 758,
    "text": "tava vendo umas paradas sobre depress√£o aqui e fiquei curioso pra saber um pouco mais sobre quem me segue\n\nvoc√™ j√° tentou suic√≠dio ?",
    "placeName": "Belo Horizonte, Brasil",
    "lang": "pt"
  },
  {
    "index": 759,
    "text": "If I didn‚Äôt know the calendar date and I stepped outside, I would argue that it‚Äôs May 1. We have hit 74¬∞ at RZW HQ in Brewton, AL. üôåüèª",
    "placeName": "Brewton, AL",
    "lang": "en"
  },
  {
    "index": 760,
    "text": "entrar no Facebook e compartilha fpt",
    "placeName": "S√£o Paulo, Brasil",
    "lang": "pt"
  },
  {
    "index": 761,
    "text": "@littlespicy_ Breaking; Men Still Have Horrible Taste Despite Entirely New Year",
    "placeName": "Buffalo, NY",
    "lang": "en"
  },
  {
    "index": 762,
    "text": "A seguir so√±ando.\nA no darse por vencidos.\nA seguir andando. https://t.co/karXb9IL6f",
    "placeName": "Venezuela",
    "lang": "es"
  },
  {
    "index": 763,
    "text": "Unico Aeropuerto del mundo donde los operarios se esconden cuando llueve y dejan esperando un avi√≥n con pasajeros..‚Ä¶ https://t.co/MWZAMCt3Cc",
    "placeName": "Ciudad Aut√≥noma de Buenos Aires, Argentina",
    "lang": "es"
  },
  {
    "index": 764,
    "text": "@DiamondEriberri Same",
    "placeName": "Jamaica",
    "lang": "en"
  },
  {
    "index": 765,
    "text": "Kiss my ass",
    "placeName": "Bradford, England",
    "lang": "en"
  },
  {
    "index": 766,
    "text": "I'm at Red Light District in Amsterdam, Noord-Holland https://t.co/D3RGGu8C5z https://t.co/44g27E0PO2",
    "placeName": "Amsterdam, The Netherlands",
    "lang": "en"
  },
  {
    "index": 767,
    "text": "*FELIZ ANO NOVO!*\nQue 2019 seja ano de muita luz,muita paz e muito amor,muito dinheiro no bolso üôåüèΩ\n\nPs.: desculpem‚Ä¶ https://t.co/ExMAMFhZvP",
    "placeName": "S√£o Paulo, Brasil",
    "lang": "pt"
  },
  {
    "index": 768,
    "text": "Yazmaya usendim. Istikram'dan size hizmet getirdim. https://t.co/qzcr2i47xk",
    "placeName": "Rize, T√ºrkiye",
    "lang": "tr"
  },
  {
    "index": 769,
    "text": "Alibaba postao Ali-babica.\n\nü§î",
    "placeName": "Srbija",
    "lang": "hr"
  },
  {
    "index": 770,
    "text": "@Rampage95_ @nbc That thing probably needs a good sandblasting.",
    "placeName": "Baton Rouge, LA",
    "lang": "en"
  },
  {
    "index": 771,
    "text": "Someone mentioned London again\n\n @clivebull   food banks are a franchised business, designed to make money\n\nLet's a‚Ä¶ https://t.co/rXjtVVPFEr",
    "placeName": "Cottam, England",
    "lang": "en"
  },
  {
    "index": 772,
    "text": "IDGAF all 2019 ü§òüèæ sorry in advance ü§∑üèæ‚Äç‚ôÇÔ∏è",
    "placeName": "Inglewood, CA",
    "lang": "en"
  },
  {
    "index": 773,
    "text": "We are in the presence of god @kanyewest",
    "placeName": "Stoneham, MA",
    "lang": "en"
  },
  {
    "index": 774,
    "text": "do you even believe yourself? #305tillidie",
    "placeName": "Florida, USA",
    "lang": "en"
  },
  {
    "index": 775,
    "text": "@joyciaralmeida Carudonaa",
    "placeName": "Blumenau, Brasil",
    "lang": ""
  },
  {
    "index": 776,
    "text": "I smell cabbage... https://t.co/wOdvlxzW8a",
    "placeName": "Winston-Salem, NC",
    "lang": "en"
  },
  {
    "index": 777,
    "text": "@masteeu Hahahah pqp",
    "placeName": "Bras√≠lia, Brazil",
    "lang": ""
  },
  {
    "index": 778,
    "text": "Still haven‚Äôt gotten out of bed today, thinking about a dinner in bed type of situation...",
    "placeName": "Indiana, USA",
    "lang": "en"
  },
  {
    "index": 779,
    "text": "todo mundo foi pedido em namoro menos eu, √© isso mesmo? nem queria mesmo",
    "placeName": "Niter√≥i, Brasil",
    "lang": "pt"
  },
  {
    "index": 780,
    "text": "@isa_mgoncalves KKKKKKKK eu lembro eiimm",
    "placeName": "Vit√≥ria, Brasil",
    "lang": "pt"
  },
  {
    "index": 781,
    "text": "I have never until this day seen how much some men truly need a black woman as a companion on public display like t‚Ä¶ https://t.co/TvjjvRZksF",
    "placeName": "Los Angeles, CA",
    "lang": "en"
  },
  {
    "index": 782,
    "text": "day five of tweeting @souljaboy, new year means 364 to go!",
    "placeName": "Virginia, USA",
    "lang": "en"
  },
  {
    "index": 783,
    "text": "Free @MissJules5x pass it on. #FreeMissJules @jack",
    "placeName": "California, USA",
    "lang": "en"
  },
  {
    "index": 784,
    "text": "@SincerelyOreo__ thank you ‚ù§Ô∏è‚ù§Ô∏è",
    "placeName": "Minneapolis, MN",
    "lang": "en"
  },
  {
    "index": 785,
    "text": "And with that being said I will say this in closing. I know I may seem imposing. But if I'm in your section. It's f‚Ä¶ https://t.co/eHB3G1vuuu",
    "placeName": "Arkansas, USA",
    "lang": "en"
  },
  {
    "index": 786,
    "text": "@Mohebmichel07 ÿßŸÑŸàÿ≥ÿ∑ÿßŸÜŸâ ÿØŸá üñï ŸÑÿß ŸÖÿ§ÿßÿÆÿ∞ÿ©",
    "placeName": "ÿßŸÑÿ®ÿ≠ÿ± ÿßŸÑÿ£ÿ≠ŸÖÿ±, ŸÖÿµÿ±",
    "lang": "ar"
  },
  {
    "index": 787,
    "text": "@maguola ÿßŸÑŸÑŸä ŸÖÿßÿ™ÿ™ ŸàŸáŸä ÿ™ŸÑÿπŸÜ ŸÅŸäŸÉ ÿ™ÿ∞ŸÉÿ±Ÿáÿß",
    "placeName": "Al Egaila, Kuwait",
    "lang": "ar"
  },
  {
    "index": 788,
    "text": "üíÄüíÄüíÄ damn",
    "placeName": "Baltimore, MD",
    "lang": "en"
  },
  {
    "index": 789,
    "text": "Ok I‚Äôm done being bitter.",
    "placeName": "Mableton, GA",
    "lang": "en"
  },
  {
    "index": 790,
    "text": "https://t.co/XzBoloZUbL",
    "placeName": "Manaus, Brasil",
    "lang": ""
  },
  {
    "index": 791,
    "text": "Acƒ±nƒ± da mutluluƒüunu da kimseyle payla≈üma. ƒ∞√ßinde ya≈üa √ß√ºnk√º insanoƒülu her ≈üeyi mahveder. #2019 Kendime en b√ºy√ºk √∂ƒü‚Ä¶ https://t.co/Uzw7nZkLs8",
    "placeName": "Viran≈üehir, T√ºrkiye",
    "lang": "tr"
  },
  {
    "index": 792,
    "text": "@svetonilovic Prolazi",
    "placeName": "Republic of Croatia",
    "lang": "hr"
  },
  {
    "index": 793,
    "text": "@geraldadiniz16 Cobra",
    "placeName": "Belo Horizonte, Brasil",
    "lang": ""
  },
  {
    "index": 794,
    "text": "Havaalanƒ±na girerken √ßantamda b√∂yle kart gibi, tƒ±rtƒ±klƒ±, delikli bi cisim g√∂rm√º≈üler. B√ºt√ºn hediyeleri vs bo≈üalttƒ±k.‚Ä¶ https://t.co/NJ5Tpef6Yp",
    "placeName": "ƒ∞stanbul, T√ºrkiye",
    "lang": "tr"
  },
  {
    "index": 795,
    "text": "Amigos, una duda @ClaroTeAyuda. Hoy tienen atenci√≥n en el punto de Ch√≠a? Y si es as√≠, a qu√© hora?",
    "placeName": "Bogot√°, D.C., Colombia",
    "lang": "es"
  },
  {
    "index": 796,
    "text": "Glad you enjoyed that üôèüèæ",
    "placeName": "Bulawayo, Zimbabwe",
    "lang": "en"
  },
  {
    "index": 797,
    "text": "#Ÿáÿ¨ÿ±ÿ™ŸÉ üéµ ŸÑŸÑÿ≥ÿ™ ŸÅŸä ÿ±Ÿàÿ™ÿßŸÜÿß ŸÉŸÑÿßÿ≥ŸäŸÉ üòç ŸäÿßÿπŸäŸÜŸä ÿπÿßŸÑÿ±ŸàŸÇÿßŸÜ",
    "placeName": "Libya",
    "lang": "ar"
  },
  {
    "index": 798,
    "text": "You where he at and I‚Äôm where he wanna be but, be easy baby i told him he could never get w/ me ü§™",
    "placeName": "Brooklyn, OH",
    "lang": "en"
  },
  {
    "index": 799,
    "text": "Áé©ÁöÑÂ•ΩÂºÄÂøÉÔºåÁúãÂ∞èÂ•¥ÁöÑËàåÂ§¥Â∞±Áü•ÈÅì‰∫ÜÔºÅ",
    "placeName": "‡∏™‡∏µ‡πà‡∏û‡∏£‡∏∞‡∏¢‡∏≤, ‡∏õ‡∏£‡∏∞‡πÄ‡∏ó‡∏®‡πÑ‡∏ó‡∏¢",
    "lang": "zh"
  },
  {
    "index": 800,
    "text": "Ya se.. ahora todos hablando de la lluvia",
    "placeName": "Rosario, Argentina",
    "lang": "es"
  },
  {
    "index": 801,
    "text": "I just want to cry",
    "placeName": "Bridgeview, IL",
    "lang": "en"
  },
  {
    "index": 802,
    "text": "Ye≈üil √ßaylƒ± krem kokusundaki garip huzur...",
    "placeName": "Yenimahalle, Ankara",
    "lang": "tr"
  },
  {
    "index": 803,
    "text": "ALLAH IN ADALETƒ∞ B√úY√úK. \nYOLUNDA BA≈ûARILAR BA≈ûKAN \n#yeni√ßorumspor #yeni√ßorumsporyenileniyor #√ßorum #tff #s√ºperlig‚Ä¶ https://t.co/0X0eMj06dB",
    "placeName": "√áorum, T√ºrkiye",
    "lang": "tr"
  },
  {
    "index": 804,
    "text": "#facts #2019 ‚ô•Ô∏èüôåüèæü•Ç @ Chicago, Illinois https://t.co/8dBGzJKzSd",
    "placeName": "Chicago, IL",
    "lang": ""
  },
  {
    "index": 805,
    "text": "why my pool green https://t.co/u8MuTXdjQx",
    "placeName": "Plano, TX",
    "lang": "en"
  },
  {
    "index": 806,
    "text": "ÿ£ŸÖ ÿßŸÑÿπŸäÿßŸÑ",
    "placeName": "ÿßŸÑÿ±Ÿäÿßÿ∂, ÿßŸÑŸÖŸÖŸÑŸÉÿ© ÿßŸÑÿπÿ±ÿ®Ÿäÿ© ÿßŸÑÿ≥ÿπŸàÿØŸäÿ©",
    "lang": "ar"
  },
  {
    "index": 807,
    "text": "@Redskins How about a New Years resolution of not being an embarrassment in 2019? Tell the owner. #FireBruceAllen",
    "placeName": "South Carolina, USA",
    "lang": "en"
  },
  {
    "index": 808,
    "text": "PARAB√âNS!!! @ Escola Modelo de Nata√ß√£o https://t.co/LDea6KYR7Q",
    "placeName": "S√£o Jos√© dos Campos, Brasil",
    "lang": "pt"
  },
  {
    "index": 809,
    "text": "New Year, same ole waysü§òüèæ @ Stillwater, Oklahoma https://t.co/gfmVLIXA0b",
    "placeName": "Stillwater, OK",
    "lang": "en"
  },
  {
    "index": 810,
    "text": "@CorretorAccount @zehdeabreu Al√©m de tudo tu √© omnipresente! Nem botei jogo da velha em homenagem ao Temer e tu apa‚Ä¶ https://t.co/uJFhF9Ofv7",
    "placeName": "Nova Igua√ßu, Brasil",
    "lang": "pt"
  },
  {
    "index": 811,
    "text": "Desejo de #CORA√á√ÉO, Minha #MaravilhosaFAM√çLIA, Meus #QueridosAMIGOS, Meus #GrandesCOLEGAS de Servi√ßo, Minhas‚Ä¶ https://t.co/5buAZrIIsS",
    "placeName": "S√£o Sebasti√£o, Brasil",
    "lang": "pt"
  },
  {
    "index": 812,
    "text": "@asmith792 smiths lost it already kid #üôàüôàüôà",
    "placeName": "Birkenhead, England",
    "lang": "en"
  },
  {
    "index": 813,
    "text": "@No_To_Duopoly @CopsAreNazis @LadyReverb @garden_heidi @catshitter @Mokum_Misfit @50linesonly @scapelliti @janieo‚Ä¶ https://t.co/CgomQ7S4Ni",
    "placeName": "Charlotte, NC",
    "lang": ""
  },
  {
    "index": 814,
    "text": "A q hora me deja de doler la cabeza?\nGracias",
    "placeName": "Pe√±aflor, Chile",
    "lang": "es"
  },
  {
    "index": 815,
    "text": "@kald8600 ŸÉŸÅŸà",
    "placeName": "Riyadh, Kingdom of Saudi Arabia",
    "lang": "ar"
  },
  {
    "index": 816,
    "text": "@kanyewest is the dumbest person in history! ü§∑üèΩ‚Äç‚ôÇÔ∏è",
    "placeName": "New York, USA",
    "lang": "en"
  },
  {
    "index": 817,
    "text": "@NancyPelosi @realDonaldTrump MS-13 GANG\nComing to a neighborhood near you sponsored by The Democrat Party",
    "placeName": "Sparks, NV",
    "lang": "en"
  },
  {
    "index": 818,
    "text": "You have to love @benny_snell",
    "placeName": "Kentucky, USA",
    "lang": "en"
  },
  {
    "index": 819,
    "text": "Happy new year day",
    "placeName": "Lowell, MA",
    "lang": "en"
  },
  {
    "index": 820,
    "text": "Walking into 2019 like",
    "placeName": "Bah√≠a de Banderas, Nayarit",
    "lang": "en"
  },
  {
    "index": 821,
    "text": "T√¥ rindo de NERVOSOOOOOO.",
    "placeName": "Paraty, Brasil",
    "lang": "pt"
  },
  {
    "index": 822,
    "text": "@IlanShiloah ◊¢◊ù ◊í◊ë◊ê◊ô ◊î◊ù ◊ú◊ê ◊ô◊î◊ô◊ï ◊õ◊ú◊ï◊ù",
    "placeName": "Israel",
    "lang": "he"
  },
  {
    "index": 823,
    "text": "two lost souls swimming in a fish bowl",
    "placeName": "Olinda, Brasil",
    "lang": "pt"
  },
  {
    "index": 824,
    "text": "@dozfranklin @HuaweiMobileUK New phone ? Did u restore from a backup ?",
    "placeName": "Sheffield, England",
    "lang": "en"
  },
  {
    "index": 825,
    "text": "#Br√©sil #JairBolsonaro #Extr√™meDroite, histoire de donner la #ChairDePoule au public d'#Arte et de #T√©l√©rama,   sel‚Ä¶ https://t.co/0qvU2w4xvU",
    "placeName": "Etampes, France",
    "lang": "fr"
  },
  {
    "index": 826,
    "text": "One Tree  Rope is cheap. That sounds like a rap song .",
    "placeName": "Westland, MI",
    "lang": "en"
  },
  {
    "index": 827,
    "text": "Aquela cl√°ssica risadinha na hora que vc vai assinar o termo de posse e de repente se lembra do #elen√£o em Senado F‚Ä¶ https://t.co/f4A3kZBpfW",
    "placeName": "Bras√≠lia, Brasil",
    "lang": "pt"
  },
  {
    "index": 828,
    "text": "My man said he‚Äôs gonna buy me a wii switch cause I really want one. ü§£ #ilhsm",
    "placeName": "Carlton, MN",
    "lang": "en"
  },
  {
    "index": 829,
    "text": "Tweet 2/2\n\nVanmorgen vroeg in het donker, in de regen ruim een uur hardlopen.\nEen leuk Twitter draadje over afvalle‚Ä¶ https://t.co/FFsvv1NOUi",
    "placeName": "Almere, Nederland",
    "lang": "nl"
  },
  {
    "index": 830,
    "text": "I'm at Á•ûÁî∞ÊòéÁ•û - @kanda_myoujin in ÂçÉ‰ª£Áî∞Âå∫, Êù±‰∫¨ÈÉΩ https://t.co/Kow9zV669g",
    "placeName": "Êù±‰∫¨ ÂçÉ‰ª£Áî∞Âå∫",
    "lang": ["en", "ja"]
  },
  {
    "index": 831,
    "text": "@ChazzP12 @POTUS @realDonaldTrump I don‚Äôt know it‚Äôs not mine... I believe it‚Äôs a Michael Kohrs",
    "placeName": "Mesa, AZ",
    "lang": "en"
  },
  {
    "index": 832,
    "text": "Caught Alana doing her thing last night ü§§ @STS9 https://t.co/WMW98TPdZ9",
    "placeName": "Fillmore Auditorium",
    "lang": "en"
  },
  {
    "index": 833,
    "text": "https://t.co/yQm4lq1g5U",
    "placeName": "Belo Horizonte, Brasil",
    "lang": ""
  },
  {
    "index": 834,
    "text": "Gracias a todos por los piropos y las flores de anoche. Odio usar vestido, pero a veces la ocasi√≥n lo amerita. ü§óüòò",
    "placeName": "Monterrey, Nuevo Le√≥n",
    "lang": "es"
  },
  {
    "index": 835,
    "text": "Taxify is not safe yall. 2day my friend requested for it, she was going out with her friend. She got into the front‚Ä¶ https://t.co/5m2r0gPfOX",
    "placeName": "Johannesburg, South Africa",
    "lang": "en"
  },
  {
    "index": 836,
    "text": "Trump seems clueless about most everything.",
    "placeName": "Frisco, CO",
    "lang": "en"
  },
  {
    "index": 837,
    "text": "Colston DiBlasi in the hole on mat 1 #BeUncommon",
    "placeName": "Chattanooga, TN",
    "lang": "en"
  },
  {
    "index": 838,
    "text": "@Steel_Curtain4 He‚Äôll settle down. He knows his bread is buttered nicely in Pittsburgh.",
    "placeName": "Vaughan, Ontario",
    "lang": "en"
  },
  {
    "index": 839,
    "text": "eu jose e jobas ontem em Santos fumando makoia eu viro pra eles dps dos fogos e pergunto \n\neai migas t√£o usando q c‚Ä¶ https://t.co/WS0KL4U4Av",
    "placeName": "Praia Grande, Brasil",
    "lang": "pt"
  },
  {
    "index": 840,
    "text": "Mommas boy for sure ‚ù§Ô∏è @ Kingston, New York https://t.co/8mcwDJz3sT",
    "placeName": "Kingston, NY",
    "lang": "en"
  },
  {
    "index": 841,
    "text": "@Flowernisse Feliz A√±o, chalina esta hermosa como su mami. Un abrazo ü§ó",
    "placeName": "Zapopan, Jalisco",
    "lang": "es"
  },
  {
    "index": 842,
    "text": "Y nadie m√°s que t√∫ üçøüé¨",
    "placeName": "Tarandacuao, Guanajuato",
    "lang": "es"
  },
  {
    "index": 843,
    "text": "Espelho, espelho meu, existe f√©rias mais parada que a minha?... ü§∑‚Äç‚ôÄÔ∏èüòÇ‚ù§\n.\n.\n.\n.\n.\n.\n.\n.\n.\n.\n.\n.\n.\n.\n.\n.\n.\n.\n.\n.\n.\n.‚Ä¶ https://t.co/Z4UXCy1G8O",
    "placeName": "Quatro Barras, Brasil",
    "lang": "pt"
  },
  {
    "index": 844,
    "text": "only thing i‚Äôll be chasing this year is a bag.. fuck allat extra shitü§£ü§£..",
    "placeName": "Philadelphia, PA",
    "lang": "en"
  },
  {
    "index": 845,
    "text": "Orh Rh√¥üòÇüòÇüòÇüòÇ... Tu vas remplac√© @Elown_KNB vu qu'il a pris officiellement sa retraite hierüòÇüòÇüòÇ",
    "placeName": "C√¥te d'Ivoire",
    "lang": "fr"
  },
  {
    "index": 846,
    "text": "Any of my brothers wanna go to the movies hml I pay for yo ticket and yo girls, happy New Years againü§ûüèΩ",
    "placeName": "Chicago, IL",
    "lang": "en"
  },
  {
    "index": 847,
    "text": "\" ...Et que vos r√™ves se r√©alisent un peu, beaucoup, compl√®tement... \" \n\nPas de repost de la semaine pass√©e mais un‚Ä¶ https://t.co/JH6cJDdXDu",
    "placeName": "Cast√©ra-Verduzan, France",
    "lang": "fr"
  },
  {
    "index": 848,
    "text": "GRATID√ÉO por mas um anoüôå‚ù§ https://t.co/DhnKIoF9tt",
    "placeName": "Angra dos Reis, Brasil",
    "lang": "pt"
  },
  {
    "index": 849,
    "text": "I want you to want me // The legendary @cheaptrick at @HardRockCasinoV in #Coquitlam. https://t.co/wP96qv42Jn https://t.co/oJkf7IBXxz",
    "placeName": "Vancouver, British Columbia",
    "lang": "en"
  },
  {
    "index": 850,
    "text": "good pictures or videos :(((((",
    "placeName": "Waipahu, HI",
    "lang": "en"
  },
  {
    "index": 851,
    "text": "Rangon se dar ni lagta sahab,,,, rang badalny waalon se lagta haiüòá",
    "placeName": "Karachi, Pakistan",
    "lang": "hi"
  },
  {
    "index": 852,
    "text": "Delano Hill has a crack in his hip, per Pete Carroll. He's headed to IR. But Tedric Thompson will practice today.",
    "placeName": "Renton, WA",
    "lang": "en"
  },
  {
    "index": 853,
    "text": "History Made #SNELLYEAH @benny_snell https://t.co/skkMPlP63r",
    "placeName": "Kentucky, USA",
    "lang": "en"
  },
  {
    "index": 854,
    "text": "I'm investing in businesses this year #LetsGetIt",
    "placeName": "Elizabeth, NJ",
    "lang": "en"
  },
  {
    "index": 855,
    "text": "Happy New Year Folks! #Wake #Pray #Slay Yaaassss! I have claimed 2019 and it‚Äôs mine! #Health #Wealth #prosperity an‚Ä¶ https://t.co/xc5ORNZiBb",
    "placeName": "Los Angeles, CA",
    "lang": "en"
  },
  {
    "index": 856,
    "text": "ÿßŸÇÿ±ÿ£ ÿßÿ≥ŸÖŸä ÿ®ŸäŸÜ ÿßŸÑÿ≥ÿ∑Ÿàÿ±ü§ù",
    "placeName": "ÿ£ÿ®Ÿàÿ∏ÿ®Ÿä, ÿßŸÑÿßŸÖÿßÿ±ÿßÿ™ ÿßŸÑÿπÿ±ÿ®Ÿäÿ© ÿßŸÑŸÖÿ™ÿ≠ÿØÿ©",
    "lang": "ar"
  },
  {
    "index": 857,
    "text": "@AcohenDaan @d_e_mol @neemjemoederr @Kacebee @BeedeGee @LexvanEssen @Infocadl2015 @janrotmans @GerritHiemstra‚Ä¶ https://t.co/15ur3gHmh6",
    "placeName": "Amsterdam, Nederland",
    "lang": ""
  },
  {
    "index": 858,
    "text": "Winter Classic in Dallas next year?!?!?!\n#LFG #CantWait",
    "placeName": "Double Oak, TX",
    "lang": "en"
  },
  {
    "index": 859,
    "text": "@SoyGerardCortez O al contrario, te est√°n invitando a algo, d√©jate llevar m√°s bien y preg√∫ntales sobre su viaje. Em‚Ä¶ https://t.co/p3tu1tN4wC",
    "placeName": "Santiago, Chile",
    "lang": "es"
  },
  {
    "index": 860,
    "text": "@AbbaTTB And the getting paid part. Don't forget üòÖ",
    "placeName": "Abuja, Nigeria",
    "lang": "en"
  },
  {
    "index": 861,
    "text": "ü§Æ",
    "placeName": "New Orleans, LA",
    "lang": ""
  },
  {
    "index": 862,
    "text": "already way ahead of this ü§¶üèª‚Äç‚ôÄÔ∏è",
    "placeName": "Trinidad, CO",
    "lang": "en"
  },
  {
    "index": 863,
    "text": "@TatMum_Blog Not doing GINuary?",
    "placeName": "Worthing, England",
    "lang": "en"
  },
  {
    "index": 864,
    "text": "Anyone else cry when @benny_snell got the record?  No?  Just me... üò≠üò≠üò≠",
    "placeName": "Red Bank, SC",
    "lang": "en"
  },
  {
    "index": 865,
    "text": "The best way to predict your future is to create it...ü¶ã\n\nGK üì∏ @VShock1230 \n\n@BTS_twt #V #KimTaehyung #Î∑î #ÍπÄÌÉúÌòï #Î∞©ÌÉÑÏÜåÎÖÑÎã®‚Ä¶ https://t.co/sU6Y1gPsa4",
    "placeName": "–ú–æ—Å–∫–≤–∞, –†–æ—Å—Å–∏—è",
    "lang": "en"
  },
  {
    "index": 866,
    "text": "#PoetasDelMundo\n\n\"Compa√±era\", de Carlos Oquendo de Amat (Per√∫, 1905-1936) \nhttps://t.co/bQK0jm1n12\n\n5 metros de poe‚Ä¶ https://t.co/S2cXSR9vZs",
    "placeName": "Legan√©s, Espa√±a",
    "lang": "es"
  },
  {
    "index": 867,
    "text": "@dominajamieb @Natuky85 @rubberdom @AdultBrazil @underdeskloser2 Gorgeous!",
    "placeName": "Oklahoma City, OK",
    "lang": ""
  },
  {
    "index": 868,
    "text": "wow i slept so good üòä",
    "placeName": "Cocoa, FL",
    "lang": "en"
  },
  {
    "index": 869,
    "text": "@DOMination_x Absolutely",
    "placeName": "South Huron, Ontario",
    "lang": "en"
  },
  {
    "index": 870,
    "text": "T√¥ sozinha !",
    "placeName": "Rio de Janeiro, Brasil",
    "lang": "pt"
  },
  {
    "index": 871,
    "text": "Que orgulho em ser Brasileiro! Por favor capit√£o cumpre com a palavra estamos confiando em ti",
    "placeName": "Porto Alegre, Brasil",
    "lang": "pt"
  },
  {
    "index": 872,
    "text": "@schizothymous No but i mean like just a joke in general...... he seems to really like joking and trivializing cult‚Ä¶ https://t.co/tXJ0hVcj3N",
    "placeName": "Portland, OR",
    "lang": "en"
  },
  {
    "index": 873,
    "text": "@TweetsByDrae Money money money",
    "placeName": "Georgia, USA",
    "lang": "en"
  },
  {
    "index": 874,
    "text": "NAZIS KADUTT MACHEN https://t.co/1GLRdMWQHd",
    "placeName": "K√∂ln, Deutschland",
    "lang": "de"
  },
  {
    "index": 875,
    "text": "Que linda",
    "placeName": "Barcelos, Portugal",
    "lang": ""
  },
  {
    "index": 876,
    "text": "Zafer S√ºt√ß√ºoƒülu etkileri ü§¶üèæ‚Äç‚ôÄÔ∏èü§¶üèæ‚Äç‚ôÄÔ∏è https://t.co/rXzEDTVd4Z",
    "placeName": "ƒ∞stanbul, T√ºrkiye",
    "lang": "tr"
  },
  {
    "index": 877,
    "text": "Dickhead! üò´",
    "placeName": "Victoria Island, Nigeria",
    "lang": "en"
  },
  {
    "index": 878,
    "text": "Idk why this has me so weak but it does üíÄ",
    "placeName": "Huntsville, AL",
    "lang": "en"
  },
  {
    "index": 879,
    "text": "Vandaag toch nog plezier van de zonüòé https://t.co/UOuPM3aVu0",
    "placeName": "Amersfoort, Nederland",
    "lang": "nl"
  },
  {
    "index": 880,
    "text": "...i cover every base...every time...PERIOD.",
    "placeName": "Houston, TX",
    "lang": "en"
  },
  {
    "index": 881,
    "text": "ŸàŸÑŸà ÿ£ÿ±Ÿàÿßÿ≠ŸÜÿß ŸÖŸÜ ŸÇÿßÿ≥Ÿäÿßÿ™ ÿ£ŸÇÿØÿßÿ±ŸÜÿß ÿ¨ÿßÿπÿ™\nÿ≠ŸÇŸàŸÑ ÿßŸÑŸÜŸàÿ± ŸÅŸä Ÿàÿ¨ŸáŸÉ ÿ™ÿ∫ÿ∞ŸëŸäŸÜÿß ÿ≥ŸÜÿßÿ®ŸÑŸáÿß",
    "placeName": "ÿßŸÑÿÆŸÅÿ¨Ÿä, ÿßŸÑŸÖŸÖŸÑŸÉÿ© ÿßŸÑÿπÿ±ÿ®Ÿäÿ© ÿßŸÑÿ≥ÿπŸàÿØŸäÿ©",
    "lang": "ar"
  },
  {
    "index": 882,
    "text": "@frankienbennys in didsbury for new year and a birthday party but ended up with disappointment. No spegetti, no van‚Ä¶ https://t.co/Up2u8WXAtR",
    "placeName": "Manchester, England",
    "lang": "en"
  },
  {
    "index": 883,
    "text": "Appreciate youuuu üíØüíú",
    "placeName": "Charlotte, NC",
    "lang": "en"
  },
  {
    "index": 884,
    "text": "@FMTrequartista is enjoying watching me manage @stivestownfc on his big screen! Why not join him‚Ä¶ https://t.co/oysONXdS26",
    "placeName": "Walthamstow, London",
    "lang": "en"
  },
  {
    "index": 885,
    "text": "He b out here boosting my already big ego thx",
    "placeName": "Oklahoma City, OK",
    "lang": "en"
  },
  {
    "index": 886,
    "text": "üòÇüòÇüòÇüòÇüòÇüòÇüòÇüòÇ",
    "placeName": "Abu Dhabi, United Arab Emirates",
    "lang": ""
  },
  {
    "index": 887,
    "text": "Di pwedeng umabsent dahil borrowed üò≠üò≠ kaya ko ba??? üò≠",
    "placeName": "Muntinlupa City, National Capital Region",
    "lang": "tl"
  },
  {
    "index": 888,
    "text": "Me &amp; the girls are going to ihop and these bitches called me and said ‚Äúis violet going‚Äù and when I said ‚Äúno‚Äù (even‚Ä¶ https://t.co/9z2SSwUrOj",
    "placeName": "El Monte, CA",
    "lang": "en"
  },
  {
    "index": 889,
    "text": "elimde ≈üƒ±rƒ±nga",
    "placeName": "ƒ∞stanbul, T√ºrkiye",
    "lang": "tr"
  },
  {
    "index": 890,
    "text": "One of the crazier stories we reported in 2018.",
    "placeName": "Bosnia and Herzegovina",
    "lang": "en"
  },
  {
    "index": 891,
    "text": "Real Baddie‚ù§Ô∏èüíÖüèΩ",
    "placeName": "Mobile, AL",
    "lang": "en"
  },
  {
    "index": 892,
    "text": "@REVM_1 Por un Raul m√°s sobrio en el 2019",
    "placeName": "Chone, Ecuador",
    "lang": "es"
  },
  {
    "index": 893,
    "text": "@tracylynn0220 You have great posts that make a lot of sense.",
    "placeName": "Indiana, USA",
    "lang": "en"
  },
  {
    "index": 894,
    "text": "@ebnekare –£–∏–∏–∏–∏–∏)\n–í –ø—è—Ç–Ω–∏—Ü—É –º–æ–≥—É –∏ –∫–æ–º–ø–∞–Ω–∏—é —Å–æ—Å—Ç–∞–≤–∏—Ç—å, –∫—Å—Ç–∞—Ç–∏)",
    "placeName": "Republic of Belarus",
    "lang": "ru"
  },
  {
    "index": 895,
    "text": "Absolutely nothing.",
    "placeName": "Philadelphia, PA",
    "lang": "en"
  },
  {
    "index": 896,
    "text": "@justbeing_TEE If i can count on anyone, i can count on Tee",
    "placeName": "Verlaine, Belgique",
    "lang": "en"
  },
  {
    "index": 897,
    "text": "@ferbelaunzaran @SCT_mx @JimenezEspriu @JoseAMeadeK @lopezobrador_ Eres un perdedor frustrado y payaso",
    "placeName": "Naucalpan de Ju√°rez, M√©xico",
    "lang": "es"
  },
  {
    "index": 898,
    "text": "√áocuklar inanƒ±n inanƒ±n √ßocuklar",
    "placeName": "ƒ∞stanbul, T√ºrkiye",
    "lang": "tr"
  },
  {
    "index": 899,
    "text": "Deixar pra dormir s√≥ mais tarde",
    "placeName": "Rio de Janeiro, Brasil",
    "lang": "pt"
  },
  {
    "index": 900,
    "text": "@Pcoelho0 üòä",
    "placeName": "Florian√≥polis, Brasil",
    "lang": ""
  },
  {
    "index": 901,
    "text": "@ImBallinNeal18 That‚Äôs what I was saying!!!! #futurelooksgood #foreverlsu üêØüíúüêØ",
    "placeName": "Springdale, AR",
    "lang": "en"
  },
  {
    "index": 902,
    "text": "Staying single in 2019. May the Lord rebuke the demons that are relationships",
    "placeName": "Rift Valley, Kenya",
    "lang": "en"
  },
  {
    "index": 903,
    "text": "todo barrio tiene esos rompe pija q s levantan re temprano y arrancan c los cohetes q les sobraron d ayer y lo peor‚Ä¶ https://t.co/KUGjbzpsas",
    "placeName": "Vaqueros, Argentina",
    "lang": "es"
  },
  {
    "index": 904,
    "text": "Schade, dass Tschirner und Ulmen offenbar recht wenige gemeinsame Drehtage Zeit hatten f√ºr den #tatort. Fehlte ein‚Ä¶ https://t.co/knqrc3gY4v",
    "placeName": "Kabelsketal, Deutschland",
    "lang": "de"
  },
  {
    "index": 905,
    "text": "#HookEm fans from ATX already hyped for tonight‚Äôs @SugarBowlNola in our hotel lobby.. #HornsInNOLA https://t.co/qM6v3vP1JT",
    "placeName": "New Orleans, LA",
    "lang": "en"
  },
  {
    "index": 906,
    "text": "Talvez repetia",
    "placeName": "Elvas, Portugal",
    "lang": ""
  },
  {
    "index": 907,
    "text": "Happy new year!! I hope you all have a great year and reach your goals ‚ù§Ô∏èmuch love from siron ‚ù§Ô∏è #PositiveVibesOnly https://t.co/oIe2DtJdC9",
    "placeName": "Kahului, HI",
    "lang": "en"
  },
  {
    "index": 908,
    "text": "@PeterJeffery7 @AngryofAlton Might need to if we don't sort him out a contract.",
    "placeName": "South East, England",
    "lang": "en"
  },
  {
    "index": 909,
    "text": "que assim seja",
    "placeName": "Casimiro de Abreu, Brasil",
    "lang": "pt"
  },
  {
    "index": 910,
    "text": "Happy New Year! #2019 @ Equinox Hollywood https://t.co/wnxZEqEc1q",
    "placeName": "Los Angeles, CA",
    "lang": "en"
  },
  {
    "index": 911,
    "text": "ŸÖÿßŸÅŸä ÿßÿ≠ÿ≥ŸÜ ŸÖŸÜ ŸÉŸÑŸÖÿ© ÿßŸÑÿ≠ŸÖÿØŸÑŸÑŸá ÿ®ŸÉŸÑ ÿßŸÑÿßÿ≠ŸàÿßŸÑ... ‚ù§Ô∏è",
    "placeName": "Jeddah, Kingdom of Saudi Arabia",
    "lang": "ar"
  },
  {
    "index": 912,
    "text": "The bucket helmet in hockey is second to none #WinterClassic",
    "placeName": "Buffalo, NY",
    "lang": "en"
  },
  {
    "index": 913,
    "text": "@Azgin_Asuman @mint123452 ‡∏à‡∏¥‡∏á‡∏õ‡∏∞",
    "placeName": "‡∏™‡∏á‡∏Ç‡∏•‡∏≤, ‡∏õ‡∏£‡∏∞‡πÄ‡∏ó‡∏®‡πÑ‡∏ó‡∏¢",
    "lang": "th"
  },
  {
    "index": 914,
    "text": "@MakeNEGrrAgain @JohnnyNowhere @trahana @realDonaldTrump @TeedIsMe @HatinCNN @imf_hunt Canadians are envious, they‚Ä¶ https://t.co/mnFuh8GnVF",
    "placeName": "Oklahoma, USA",
    "lang": "en"
  },
  {
    "index": 915,
    "text": "Wind 6,4 km/h WNW. Barometer 1030,8 hPa, Rising slowly. Temperature 10,0 ¬∞C. Rain today 0,0 mm. Humidity 82%",
    "placeName": "Mijas, Espa√±a",
    "lang": "en"
  },
  {
    "index": 916,
    "text": "lil uzi smiling at me &gt;",
    "placeName": "Philadelphia, PA",
    "lang": "en"
  },
  {
    "index": 917,
    "text": "#provecho #chapulines #conmimami en La Monumental de Bel√©n https://t.co/v2wtfr6xmC",
    "placeName": "Otumba, M√©xico",
    "lang": "es"
  },
  {
    "index": 918,
    "text": "@umdenise My sister literally just told me this lmao",
    "placeName": "San Antonio, TX",
    "lang": "en"
  },
  {
    "index": 919,
    "text": "Kentucky +6 and +6.5, so easy against the most overrated team in the country",
    "placeName": "Weirton, WV",
    "lang": "en"
  },
  {
    "index": 920,
    "text": "Sevmek zorunda deƒüilim ama katlanmak zorundayƒ±m",
    "placeName": "ƒ∞stanbul, T√ºrkiye",
    "lang": "tr"
  },
  {
    "index": 921,
    "text": "@ElHombre971 https://t.co/uQonnhD8xl",
    "placeName": "Paris, France",
    "lang": ""
  },
  {
    "index": 922,
    "text": "@BDBLotteryPicK we found Anthony‚Äôs burner account",
    "placeName": "Escondido, CA",
    "lang": "en"
  },
  {
    "index": 923,
    "text": "These days go loud gan",
    "placeName": "Federal Capital Territory, Nigeria",
    "lang": "en"
  },
  {
    "index": 924,
    "text": "That Howard cameron This Dist court here in Jay okla sent him to that prison in Hommey okla out there back then he‚Ä¶ https://t.co/rbEjl6wuoF",
    "placeName": "Oklahoma, USA",
    "lang": "en"
  },
  {
    "index": 925,
    "text": "@lockphil @DanHafez And counting Philip",
    "placeName": "North West, England",
    "lang": "en"
  },
  {
    "index": 926,
    "text": "@intriper Rio sin dudas",
    "placeName": "R√≠o de Janeiro, Brasil",
    "lang": "es"
  },
  {
    "index": 927,
    "text": "SNELL YEAH",
    "placeName": "Bardstown, KY",
    "lang": "en"
  },
  {
    "index": 928,
    "text": "Para os negativos ai vai uma grande esperan√ßa.",
    "placeName": "Belo Horizonte, Brasil",
    "lang": "pt"
  },
  {
    "index": 929,
    "text": "@littlegailk Stop thinking",
    "placeName": "Illinois, USA",
    "lang": "en"
  },
  {
    "index": 930,
    "text": "How cool #FiestaBowl for asking all teachers to stand and be recognized in middle of the third quarter! Thank you!",
    "placeName": "Arizona, USA",
    "lang": "en"
  },
  {
    "index": 931,
    "text": "Mas v√° lava as teta com ksuco",
    "placeName": "Campo Novo, Brasil",
    "lang": "pt"
  },
  {
    "index": 932,
    "text": "2k19! üéÜ‚ù§Ô∏è em Rio de Janeiro, Rio de Janeiro https://t.co/3He5KitRLg",
    "placeName": "Rio de Janeiro, Brasil",
    "lang": "pt"
  },
  {
    "index": 933,
    "text": "√ñl o zaman amk vatansƒ±z pi√ßi.",
    "placeName": "ƒ∞stanbul, T√ºrkiye",
    "lang": "tr"
  },
  {
    "index": 934,
    "text": "A cerveja t√° saindo tdo no suor, for√ßas",
    "placeName": "Frederico Westphalen, Brasil",
    "lang": "pt"
  },
  {
    "index": 935,
    "text": "Preciso relaxar, nao vamos transar vamos fazer amor üé∂üòÖ",
    "placeName": "Rio de Janeiro, Brasil",
    "lang": "pt"
  },
  {
    "index": 936,
    "text": "@hazeltanaquin I love you üíïüòù",
    "placeName": "Bacolod City, Western Visayas",
    "lang": "en"
  },
  {
    "index": 937,
    "text": "C√™s j√° viram a s√©rie islandesa CASE? Tri boa, com personagens altamente comuns, mas que... assistam ü§ó",
    "placeName": "Rio Grande, Brasil",
    "lang": "pt"
  },
  {
    "index": 938,
    "text": "So this hungry tummy wake me up. üò£",
    "placeName": "Taoyuan County, Taiwan",
    "lang": "en"
  },
  {
    "index": 939,
    "text": "@raphaelsurcouf @ritaxben Pareil... Et euh si tu vas √† saint Anne, suit pas loin pour t'emmener des oranges et des‚Ä¶ https://t.co/9WduJv1GdH",
    "placeName": "Paris, France",
    "lang": "fr"
  },
  {
    "index": 940,
    "text": "Une petite raclette chez R√©gine et Christian avec Agn√®s qui nous a rejoint https://t.co/WpkGIV9bcG https://t.co/S8ySoaMlZX",
    "placeName": "Le Cr√®s, France",
    "lang": "fr"
  },
  {
    "index": 941,
    "text": "Me estoy muriendo por comerme un pastel o una hayaca hoyüò©üò©üÜò",
    "placeName": "Greenwood Village, CO",
    "lang": "es"
  },
  {
    "index": 942,
    "text": "Anus sent me üòÇüòÇüòÇüòÇüòÇüòÇüòÇ",
    "placeName": "Umlazi, South Africa",
    "lang": "en"
  },
  {
    "index": 943,
    "text": "#2019danbeklentim Barƒ±≈ü ve karde≈ülik...",
    "placeName": "Toroslar, T√ºrkiye",
    "lang": "tr"
  },
  {
    "index": 944,
    "text": "Welp makes sense lol",
    "placeName": "Midland, TX",
    "lang": "en"
  },
  {
    "index": 945,
    "text": "@vrincegraviano From where? ü•¥",
    "placeName": "Chicago, IL",
    "lang": "en"
  },
  {
    "index": 946,
    "text": "@danielsabsayok No se puede generalizar, xOlivos hubo menos,si bien no se tir√≥ lo que fue otros a√±os hubo algunas b‚Ä¶ https://t.co/hzIKAbfNSg",
    "placeName": "Vicente L√≥pez, Argentina",
    "lang": "es"
  },
  {
    "index": 947,
    "text": "@LilyAdamsXo Lily your strong!! Your better than these piece of shit abusers!! And the ones that cover it up are ju‚Ä¶ https://t.co/4XsrFgzqMu",
    "placeName": "South Amboy, NJ",
    "lang": "en"
  },
  {
    "index": 948,
    "text": "People really have androids...",
    "placeName": "Los Angeles, CA",
    "lang": "en"
  },
  {
    "index": 949,
    "text": "It‚Äôs that time of year again... we are very excited about this event üôåüèª\n\n#DublinRebels #SuperBowl",
    "placeName": "Dublin City, Ireland",
    "lang": "en"
  },
  {
    "index": 950,
    "text": "Qu√© bonito inicio de a√±o üòé (@ playita canal) https://t.co/u6f3Cyz7PZ",
    "placeName": "Alvarado, Veracruz de Ignacio de la Llave",
    "lang": "es"
  },
  {
    "index": 951,
    "text": "what a shit show",
    "placeName": "Milwaukee, WI",
    "lang": "en"
  },
  {
    "index": 952,
    "text": "Moonlight",
    "placeName": "Rio das Ostras, Brasil",
    "lang": "en"
  },
  {
    "index": 953,
    "text": "@ShannaNBCLA @NBCLA It was freezing last night &amp; this morning.",
    "placeName": "Echo Park, Los Angeles",
    "lang": "en"
  },
  {
    "index": 954,
    "text": "@CanningAndrea Dateline is great, thank you all for the fantastic episode week after week üôè",
    "placeName": "Beverly Hills, CA",
    "lang": "en"
  },
  {
    "index": 955,
    "text": "MARAVILHOSAS #PontoKpop10 https://t.co/Ql8dUN7OER",
    "placeName": "S√£o Mateus, Brasil",
    "lang": "pt"
  },
  {
    "index": 956,
    "text": "@itymtakhang1 ‡∏õ‡∏±‡∏à‡∏à‡∏∏‡∏ö‡∏±‡∏ô‡∏¢‡∏±‡∏á‡∏Ç‡∏ô‡∏≤‡∏î‡∏ô‡∏µ‡πâ ‡πÄ‡∏°‡∏∑‡πà‡∏≠‡∏Å‡πà‡∏≠‡∏ô‡∏ú‡∏ç.‡∏Ñ‡∏á‡πÑ‡∏°‡πà‡πÑ‡∏î‡πâ‡∏•‡∏∑‡∏°‡∏ï‡∏≤‡∏≠‡πâ‡∏≤‡∏õ‡∏≤‡∏Å‡πÄ‡∏•‡∏¢‡πÉ‡∏ä‡πà‡∏°‡∏±‡πâ‡∏¢‡∏ô‡∏±‡πà‡∏ô",
    "placeName": "Lat Phrao, Thailand",
    "lang": "th"
  },
  {
    "index": 957,
    "text": "Me and Rosie really ended up at a penthouse suite party in downtown last night wow hello 2019 üòõ",
    "placeName": "San Francisco, CA",
    "lang": "en"
  },
  {
    "index": 958,
    "text": "@OFugitivo4 @Cecconellogiu @ioneatuante4 @ritalewis18 @patitaBr @sirius_ari @iaragb @ceribeiro82 @PauloVitorAlm11‚Ä¶ https://t.co/Bc2VnKLLiM",
    "placeName": "S√£o Paulo, Brasil",
    "lang": ""
  },
  {
    "index": 959,
    "text": "SNELL YEAAAAAAAAH",
    "placeName": "Prestonsburg, KY",
    "lang": "en"
  },
  {
    "index": 960,
    "text": "@cdeshawngib",
    "placeName": "Morrilton, AR",
    "lang": ""
  },
  {
    "index": 961,
    "text": "Eu fico fazendo piada com 2018, mas na moral, que ano dif√≠cil mais ao mesmo tempo INCR√çVEL! Tenho muito a agradecer üôèüèº‚ô•Ô∏è",
    "placeName": "Antony, France",
    "lang": "pt"
  },
  {
    "index": 962,
    "text": "@rosado_suarez Que va que va esta vez nooo jajajaja",
    "placeName": "Jerez de la Frontera, Espa√±a",
    "lang": "es"
  },
  {
    "index": 963,
    "text": "@Zeynep62494053 @betulardaniz Ebene selam s√∂yle derim",
    "placeName": "Finike, T√ºrkiye",
    "lang": "tr"
  },
  {
    "index": 964,
    "text": "Wait for the otter üò≠üò≠üò≠",
    "placeName": "Oklahoma, USA",
    "lang": "en"
  },
  {
    "index": 965,
    "text": "@KarenChupka See you soon!",
    "placeName": "Santa Monica, CA",
    "lang": "en"
  },
  {
    "index": 966,
    "text": "Bird box mi primera pel√≠cula del 2019 üòÉ",
    "placeName": "Bogot√°, D.C., Colombia",
    "lang": "es"
  },
  {
    "index": 967,
    "text": "@OJOVENE @mabalicia @evoespueblo @jairbolsonaro Inflaci√≥n venezolana 2018 1.000.000 %, sueldo m√≠nimo venezolano a j‚Ä¶ https://t.co/Z6TFcKBu4L",
    "placeName": "Gonz√°lez Cat√°n, Argentina",
    "lang": "es"
  },
  {
    "index": 968,
    "text": "@Kuleas @VladimirStev @tomskimrav Izvinjavam se zbog gre≈°aka u kucanju.",
    "placeName": "Ruma, Srbija",
    "lang": "bs"
  },
  {
    "index": 969,
    "text": "@Msirinnn lezzetli diyenler oldu vala denicem in≈üallah...",
    "placeName": "Berlin, Germany",
    "lang": "tr"
  },
  {
    "index": 970,
    "text": "Now I heard that your single",
    "placeName": "Manhattan, NY",
    "lang": "en"
  },
  {
    "index": 971,
    "text": "@enzobianchi7 Maitre Enzo !  L'amore inizia con uno sguardo, √® deciso con una parola, si sente con un bacio e si pe‚Ä¶ https://t.co/08CJo0Vbfo",
    "placeName": "Oujda, Royaume du Maroc",
    "lang": "it"
  },
  {
    "index": 972,
    "text": "cheguei agora da viagem, confesso que nao queria ter voltado",
    "placeName": "Rio Grande, Brasil",
    "lang": "pt"
  },
  {
    "index": 973,
    "text": "Anladƒ±m ki ben birini sevmeyi hak etmiyorum.",
    "placeName": "Denizli, T√ºrkiye",
    "lang": "tr"
  },
  {
    "index": 974,
    "text": "üçÉ https://t.co/IHtfkXqpD2",
    "placeName": "Fomeque, Colombia",
    "lang": ""
  },
  {
    "index": 975,
    "text": "Rs!",
    "placeName": "Yazoo City, MS",
    "lang": ""
  },
  {
    "index": 976,
    "text": "Still alive but I‚Äôm barely breathing @ Iowa City, Iowa https://t.co/lOBdtDfP0b",
    "placeName": "Iowa City, IA",
    "lang": "en"
  },
  {
    "index": 977,
    "text": "Hoje tem retao da fm s√≥ chegar!!!!!",
    "placeName": "Rio de Janeiro, Brasil",
    "lang": "pt"
  },
  {
    "index": 978,
    "text": "literally just felt it my stomach just from watching üò≠im having withdrawals!!",
    "placeName": "East St Louis, IL",
    "lang": "en"
  },
  {
    "index": 979,
    "text": "@IsimaOdeh Babanla world scammers üòÇüòÇüòÇ Fear Nigerians. Guy man no fit guy guy man",
    "placeName": "Abuja, Nigeria",
    "lang": "en"
  },
  {
    "index": 980,
    "text": "Washed my shoes, set them in the sun to dry, then it started raining üôÉ",
    "placeName": "Phoenix, AZ",
    "lang": "en"
  },
  {
    "index": 981,
    "text": "@norita____ Grande Norita",
    "placeName": "Santiago, Chile",
    "lang": "es"
  },
  {
    "index": 982,
    "text": "Comecei o ano chorando",
    "placeName": "Cabo Frio, Brasil",
    "lang": "pt"
  },
  {
    "index": 983,
    "text": "Primeiro beijo de 2019 √© p namorar, bora v√™ kkkkkk",
    "placeName": "Barra do Pira√≠, Brasil",
    "lang": "pt"
  },
  {
    "index": 984,
    "text": "@JohnBrennan We Americans are awake to your treason, you‚Äôre justice will arrive soon!",
    "placeName": "Village Green, PA",
    "lang": "en"
  },
  {
    "index": 985,
    "text": "@iam_petit_bete Heu fr√®re sang manci",
    "placeName": "C√¥te d'Ivoire",
    "lang": "fr"
  },
  {
    "index": 986,
    "text": "\"N√£o me  deu feliz ano novo e bl√°bl√°bl√° amizade vai acabar\" foda-se, ningu√©m vai morrer por causa de um feliz ano novo, dram√°ticos",
    "placeName": "Porto Alegre, Brasil",
    "lang": "pt"
  },
  {
    "index": 987,
    "text": "Congrats to the legendary @TIM_MAYsports.",
    "placeName": "Lincoln Village, OH",
    "lang": "en"
  },
  {
    "index": 988,
    "text": "New Years resolution is kicking off to a great start the gym is closed because of a power outage... New year, New me",
    "placeName": "Edinboro, PA",
    "lang": "en"
  },
  {
    "index": 989,
    "text": "like i say all the time, fuk being in the mix",
    "placeName": "Martinsville, VA",
    "lang": "en"
  },
  {
    "index": 990,
    "text": "@jakekimble Puppies &gt; men, so... puppies &gt; vodka?! Lol.",
    "placeName": "Vancouver, British Columbia",
    "lang": "en"
  },
  {
    "index": 991,
    "text": "@Estadao A Coreia do Norte √© aqui?",
    "placeName": "S√£o Paulo, Brasil",
    "lang": "pt"
  },
  {
    "index": 992,
    "text": "Women Of The Year: 32 Canadians Who Rocked 2018 | Chatelaine https://t.co/DvE6ojkJya",
    "placeName": "Halifax, Nova Scotia",
    "lang": "en"
  },
  {
    "index": 993,
    "text": "@VazuRR link du m√ºssen erst eines machen",
    "placeName": "Wien, √ñsterreich",
    "lang": "de"
  },
  {
    "index": 994,
    "text": "Que Deus me aben√ßoe em 2019, que Deus me ajude a conquistar tudo que eu quero, e agrade√ßo pelo que conquistei em 2018 !!!",
    "placeName": "Duque de Caxias, Brasil",
    "lang": "pt"
  },
  {
    "index": 995,
    "text": "voltar a fazer nata√ß√£o vai ser o canal",
    "placeName": "Petr√≥polis, Brasil",
    "lang": "pt"
  },
  {
    "index": 996,
    "text": "Uh re pesado ,ya sabemos que vendes una entrada para la yellow,cu√°ntas veces lo vas a publicar???????",
    "placeName": "Tandil, Argentina",
    "lang": "es"
  },
  {
    "index": 997,
    "text": "@M7mdNemis ÿßÿ™ŸÖŸÜŸä ŸÑŸà ÿßŸÑÿßŸÇŸä ÿßŸÑÿ™ŸàŸäÿ™ ŸàÿßŸÑŸÉŸàÿ™ ÿßŸÑŸä ŸÉŸÜÿ™ ŸÇŸÑÿ™ ŸÅŸäŸáŸÖ ŸÉÿØŸá ÿπÿ¥ÿßŸÜ ÿßŸÖÿ≥ÿ≠ŸáŸÖ",
    "placeName": "ŸÉŸÅÿ± ÿßŸÑÿ¥ŸäÿÆ, ŸÖÿµÿ±",
    "lang": "ar"
  },
  {
    "index": 998,
    "text": "2018 EU ACHEI QUE IA TERMINAR O ANO NAMORANDO KKKKKKKKKKKKKKKKKKKKKKKKKKKKKKKKKKKKKKKKKKKKKKKKKKKKKKKKKKKKKKKKKKKKK‚Ä¶ https://t.co/33X7Pq4TWK",
    "placeName": "Rio de Janeiro, Brasil",
    "lang": "pt"
  },
  {
    "index": 999,
    "text": "ŸÖÿß ŸÑÿß ÿ™ÿπÿ±ŸÅŸá ÿπŸÜ ÿßŸÑŸàÿ≤Ÿäÿ± ÿßŸÑÿ¨ÿØŸäÿØ ÿπÿ®ÿØÿßŸÑŸÑŸá ÿ®ŸÜ ÿ®ŸÜÿØÿ± ÿßŸÑ ÿ≥ÿπŸàÿØ https://t.co/Inu3e5sMNv",
    "placeName": "ÿßŸÑÿØŸÖÿßŸÖ, ÿßŸÑŸÖŸÖŸÑŸÉÿ© ÿßŸÑÿπÿ±ÿ®Ÿäÿ© ÿßŸÑÿ≥ÿπŸàÿØŸäÿ©",
    "lang": "ar"
  }
]
